<?xml version="1.0" encoding="UTF-8"?>
<osm version="0.6" generator="Overpass API 0.7.62.11 87bfad18">
<note>The data included in this document is from www.openstreetmap.org. The data is made available under ODbL.</note>
<meta osm_base="2026-09-02T23:08:18Z"/>

  <node id="202177450" lat="36.0666868" lon="-86.6868275"/>
  <node id="202177572" lat="36.0377567" lon="-86.6464167">
    <tag k="highway" v="motorway_junction"/>
    <tag k="ref" v="60"/>
  </node>
  <node id="202177576" lat="36.0387850" lon="-86.6473990"/>
  <node id="202177579" lat="36.0417869" lon="-86.6495351"/>
  <node id="202185433" lat="36.0413348" lon="-86.6496402"/>
  <node id="202185438" lat="36.0410117" lon="-86.6502328"/>
  <node id="202185441" lat="36.0411905" lon="-86.6513036"/>
  <node id="202185444" lat="36.0415181" lon="-86.6522323"/>
  <node id="202186118" lat="36.0464830" lon="-86.6611680">
    <tag k="highway" v="motorway_junction"/>
    <tag k="ref" v="59"/>
  </node>
  <node id="202186124" lat="36.0449537" lon="-86.6597740">
    <tag k="highway" v="traffic_signals"/>
    <tag k="traffic_signals" v="signal"/>
  </node>
  <node id="202186134" lat="36.0428543" lon="-86.6549435"/>
  <node id="202192528" lat="36.0465240" lon="-86.6608687"/>
  <node id="202192531" lat="36.0463043" lon="-86.6602202"/>
  <node id="202192534" lat="36.0458763" lon="-86.6588447"/>
  <node id="202192538" lat="36.0456266" lon="-86.6584809">
    <tag k="highway" v="traffic_signals"/>
  </node>
  <node id="202192541" lat="36.0440727" lon="-86.6566109">
    <tag k="highway" v="motorway_junction"/>
    <tag k="ref" v="59"/>
  </node>
  <node id="202226921" lat="36.0133799" lon="-86.6195474"/>
  <node id="202226927" lat="36.0133935" lon="-86.6206954">
    <tag k="highway" v="traffic_signals"/>
    <tag k="traffic_signals" v="signal"/>
    <tag k="traffic_signals:direction" v="both"/>
  </node>
  <node id="202229638" lat="36.0669099" lon="-86.6867720">
    <tag k="highway" v="motorway_junction"/>
    <tag k="ref" v="57"/>
  </node>
  <node id="202229773" lat="36.0151624" lon="-86.6202901">
    <tag k="highway" v="traffic_signals"/>
    <tag k="traffic_signals" v="signal"/>
    <tag k="traffic_signals:direction" v="both"/>
  </node>
  <node id="202236766" lat="36.0374390" lon="-86.6475279"/>
  <node id="202236780" lat="36.0393360" lon="-86.6489457"/>
  <node id="202245447" lat="36.0439542" lon="-86.6505883"/>
  <node id="202245451" lat="36.0438798" lon="-86.6504020"/>
  <node id="202273912" lat="36.0444385" lon="-86.6510224"/>
  <node id="202273915" lat="36.0448427" lon="-86.6504578"/>
  <node id="202370676" lat="36.0597366" lon="-86.6796229"/>
  <node id="202376276" lat="36.0432988" lon="-86.6502171"/>
  <node id="202408513" lat="36.0371207" lon="-86.6469325"/>
  <node id="202408515" lat="36.0385952" lon="-86.6490056"/>
  <node id="202408518" lat="36.0389529" lon="-86.6491251"/>
  <node id="202408520" lat="36.0391154" lon="-86.6491023"/>
  <node id="202408525" lat="36.0399225" lon="-86.6489666"/>
  <node id="202408539" lat="36.0409681" lon="-86.6490821"/>
  <node id="202408605" lat="36.0314464" lon="-86.6397307"/>
  <node id="202408635" lat="36.0316593" lon="-86.6396150"/>
  <node id="202476620" lat="36.0073086" lon="-86.6127791"/>
  <node id="202476625" lat="36.0078999" lon="-86.6134324"/>
  <node id="202476629" lat="36.0095150" lon="-86.6152371"/>
  <node id="202476638" lat="36.0175029" lon="-86.6241418">
    <tag k="highway" v="motorway_junction"/>
    <tag k="ref" v="62"/>
  </node>
  <node id="202476648" lat="36.0391763" lon="-86.6486520"/>
  <node id="202476655" lat="36.0410779" lon="-86.6518797"/>
  <node id="202476666" lat="36.0514049" lon="-86.6696443"/>
  <node id="202476669" lat="36.0517609" lon="-86.6702450"/>
  <node id="202476673" lat="36.0525854" lon="-86.6716594"/>
  <node id="202476676" lat="36.0549773" lon="-86.6746818"/>
  <node id="202476681" lat="36.0584976" lon="-86.6783331"/>
  <node id="202476684" lat="36.0631150" lon="-86.6831330"/>
  <node id="202476687" lat="36.0644143" lon="-86.6844795"/>
  <node id="202476691" lat="36.0652410" lon="-86.6853400"/>
  <node id="202476693" lat="36.0689439" lon="-86.6891772"/>
  <node id="202477383" lat="36.0099590" lon="-86.6154150"/>
  <node id="202477403" lat="36.0262799" lon="-86.6336186"/>
  <node id="202477411" lat="36.0361466" lon="-86.6446204"/>
  <node id="202477424" lat="36.0404673" lon="-86.6504218"/>
  <node id="202477428" lat="36.0410279" lon="-86.6513888"/>
  <node id="202477466" lat="36.0515660" lon="-86.6695528"/>
  <node id="202477470" lat="36.0519222" lon="-86.6701693"/>
  <node id="202477476" lat="36.0525731" lon="-86.6712739"/>
  <node id="202477480" lat="36.0530011" lon="-86.6719333"/>
  <node id="202477481" lat="36.0547818" lon="-86.6741849"/>
  <node id="202477484" lat="36.0553824" lon="-86.6748093"/>
  <node id="202477487" lat="36.0591491" lon="-86.6787173"/>
  <node id="202477488" lat="36.0605605" lon="-86.6801804"/>
  <node id="202477491" lat="36.0629009" lon="-86.6826145"/>
  <node id="202477495" lat="36.0648520" lon="-86.6846401"/>
  <node id="203433320" lat="35.9935441" lon="-86.5969778"/>
  <node id="203433323" lat="35.9931886" lon="-86.5965722"/>
  <node id="203433325" lat="35.9930974" lon="-86.5962527"/>
  <node id="203433326" lat="35.9931448" lon="-86.5959381"/>
  <node id="203433327" lat="35.9933136" lon="-86.5955905"/>
  <node id="203433329" lat="35.9935009" lon="-86.5954029"/>
  <node id="203433331" lat="35.9937323" lon="-86.5952989"/>
  <node id="203433333" lat="35.9939556" lon="-86.5953060"/>
  <node id="203433336" lat="35.9941544" lon="-86.5953969"/>
  <node id="203433363" lat="35.9931556" lon="-86.5970144">
    <tag k="crossing" v="unmarked"/>
    <tag k="highway" v="traffic_signals"/>
  </node>
  <node id="203434361" lat="35.9983921" lon="-86.6013884"/>
  <node id="203434364" lat="35.9974568" lon="-86.5995340"/>
  <node id="203434367" lat="35.9972779" lon="-86.5987302"/>
  <node id="203434370" lat="35.9970087" lon="-86.5965257">
    <tag k="crossing" v="unmarked"/>
    <tag k="highway" v="traffic_signals"/>
  </node>
  <node id="203434372" lat="35.9944846" lon="-86.5943314"/>
  <node id="203434375" lat="35.9927096" lon="-86.5924423">
    <tag k="highway" v="motorway_junction"/>
    <tag k="ref" v="64"/>
  </node>
  <node id="203466258" lat="35.9927012" lon="-86.5938798"/>
  <node id="203575298" lat="36.0072281" lon="-86.6123720"/>
  <node id="203575301" lat="36.0063053" lon="-86.6113431"/>
  <node id="203575304" lat="36.0050820" lon="-86.6099796"/>
  <node id="203575307" lat="36.0034326" lon="-86.6081462"/>
  <node id="203575310" lat="36.0022949" lon="-86.6068658"/>
  <node id="306534861" lat="36.0564302" lon="-86.6758940"/>
  <node id="306534863" lat="36.0562866" lon="-86.6760344"/>
  <node id="306534864" lat="36.0543563" lon="-86.6740095"/>
  <node id="306534865" lat="36.0538887" lon="-86.6734751"/>
  <node id="306534948" lat="36.0537629" lon="-86.6729849"/>
  <node id="306534949" lat="36.0535081" lon="-86.6729788"/>
  <node id="306535019" lat="36.0453958" lon="-86.6592791"/>
  <node id="306535020" lat="36.0451227" lon="-86.6588144"/>
  <node id="306535021" lat="36.0452306" lon="-86.6586352"/>
  <node id="306535022" lat="36.0454883" lon="-86.6590946"/>
  <node id="306535227" lat="36.0440970" lon="-86.6573304"/>
  <node id="306535230" lat="36.0421580" lon="-86.6537435"/>
  <node id="306535314" lat="36.0416562" lon="-86.6495472"/>
  <node id="306535315" lat="36.0414961" lon="-86.6495594"/>
  <node id="306535316" lat="36.0412481" lon="-86.6497233"/>
  <node id="306535317" lat="36.0411647" lon="-86.6498599"/>
  <node id="306535318" lat="36.0410326" lon="-86.6504696"/>
  <node id="306535319" lat="36.0410597" lon="-86.6506679"/>
  <node id="306535320" lat="36.0410984" lon="-86.6508851"/>
  <node id="306535322" lat="36.0420281" lon="-86.6494111"/>
  <node id="1241354465" lat="36.0377896" lon="-86.6467892"/>
  <node id="1241354496" lat="36.0450258" lon="-86.6576496"/>
  <node id="1241354504" lat="36.0443419" lon="-86.6577901"/>
  <node id="1241354530" lat="35.9943022" lon="-86.5955000"/>
  <node id="1241354561" lat="36.0378673" lon="-86.6482820"/>
  <node id="1241354577" lat="36.0408465" lon="-86.6491978"/>
  <node id="1241354641" lat="35.9924595" lon="-86.5928254"/>
  <node id="1241354661" lat="36.0407920" lon="-86.6489548"/>
  <node id="1241354682" lat="36.0351853" lon="-86.6438648"/>
  <node id="1241354710" lat="36.0442222" lon="-86.6505938"/>
  <node id="1241354761" lat="36.0446420" lon="-86.6594641"/>
  <node id="1241354855" lat="36.0443519" lon="-86.6509222"/>
  <node id="1241354862" lat="35.9975773" lon="-86.5964556"/>
  <node id="1241354914" lat="36.0410695" lon="-86.6491969"/>
  <node id="1241354935" lat="36.0392443" lon="-86.6493299"/>
  <node id="1241354986" lat="36.0446972" lon="-86.6605666"/>
  <node id="1241355110" lat="36.0413735" lon="-86.6494337"/>
  <node id="1241355135" lat="36.0443759" lon="-86.6507238"/>
  <node id="1241355151" lat="36.0453773" lon="-86.6581361"/>
  <node id="1241355160" lat="36.0446073" lon="-86.6589286"/>
  <node id="1241355205" lat="36.0441647" lon="-86.6507425"/>
  <node id="1241355217" lat="36.0382301" lon="-86.6487732"/>
  <node id="1241355233" lat="36.0400226" lon="-86.6492095"/>
  <node id="1241355339" lat="35.9968665" lon="-86.5961141"/>
  <node id="1241355381" lat="36.0415762" lon="-86.6494927"/>
  <node id="1241355393" lat="36.0361479" lon="-86.6451916"/>
  <node id="1241355409" lat="36.0432908" lon="-86.6500696"/>
  <node id="1241355461" lat="35.9933117" lon="-86.5967823"/>
  <node id="1241355493" lat="36.0380760" lon="-86.6486221"/>
  <node id="1241355505" lat="36.0368298" lon="-86.6456926"/>
  <node id="1241355508" lat="36.0406189" lon="-86.6491792"/>
  <node id="1241355518" lat="36.0389681" lon="-86.6479707"/>
  <node id="1241355535" lat="36.0445614" lon="-86.6572159"/>
  <node id="1241355666" lat="35.9938254" lon="-86.5937564"/>
  <node id="1241355752" lat="36.0416403" lon="-86.6495014"/>
  <node id="1241355834" lat="36.0438020" lon="-86.6503639"/>
  <node id="1241355938" lat="36.0445619" lon="-86.6585058"/>
  <node id="1241356094" lat="35.9914951" lon="-86.5909158"/>
  <node id="1241356163" lat="36.0385207" lon="-86.6489677"/>
  <node id="1241356246" lat="36.0398029" lon="-86.6492915"/>
  <node id="1241356401" lat="35.9945450" lon="-86.5957137">
    <tag k="highway" v="motorway_junction"/>
    <tag k="ref" v="64"/>
  </node>
  <node id="1241356462" lat="36.0410194" lon="-86.6503296"/>
  <node id="1241356501" lat="36.0365606" lon="-86.6458661"/>
  <node id="1241356574" lat="36.0414494" lon="-86.6491247"/>
  <node id="1241356824" lat="35.9926059" lon="-86.5933094"/>
  <node id="1241356906" lat="36.0383663" lon="-86.6488753"/>
  <node id="1241356963" lat="36.0383352" lon="-86.6474681"/>
  <node id="1241357094" lat="36.0451935" lon="-86.6578654"/>
  <node id="1241357122" lat="36.0444710" lon="-86.6581243"/>
  <node id="1241357184" lat="35.9977855" lon="-86.6002174"/>
  <node id="1241357275" lat="36.0363275" lon="-86.6454807"/>
  <node id="1241357308" lat="36.0417812" lon="-86.6492746"/>
  <node id="1241357486" lat="35.9922682" lon="-86.5924006"/>
  <node id="1241357499" lat="36.0438434" lon="-86.6505239"/>
  <node id="1241357530" lat="36.0412300" lon="-86.6493565"/>
  <node id="1844879431" lat="35.9828240" lon="-86.5784187"/>
  <node id="1844879432" lat="35.9834298" lon="-86.5790068"/>
  <node id="1844879436" lat="35.9844457" lon="-86.5800863"/>
  <node id="1844879437" lat="35.9854878" lon="-86.5813269"/>
  <node id="1844879442" lat="35.9870242" lon="-86.5834769"/>
  <node id="1844879447" lat="35.9883406" lon="-86.5855411"/>
  <node id="1844879449" lat="35.9897619" lon="-86.5877813"/>
  <node id="1844879450" lat="35.9903571" lon="-86.5891176"/>
  <node id="1844879451" lat="35.9911279" lon="-86.5899342"/>
  <node id="1844879458" lat="35.9929194" lon="-86.5964895"/>
  <node id="1844879461" lat="35.9936108" lon="-86.5942300"/>
  <node id="1844879462" lat="35.9938579" lon="-86.5942441"/>
  <node id="1844879464" lat="35.9952869" lon="-86.5964979"/>
  <node id="1844879465" lat="35.9962536" lon="-86.5983985"/>
  <node id="1844879466" lat="35.9967268" lon="-86.5987593"/>
  <node id="1844879467" lat="35.9976497" lon="-86.6006078"/>
  <node id="1844879469" lat="35.9990050" lon="-86.6027377"/>
  <node id="1844879470" lat="35.9993218" lon="-86.6028567"/>
  <node id="1844879471" lat="36.0000120" lon="-86.6038859"/>
  <node id="1844879472" lat="36.0001382" lon="-86.6044285"/>
  <node id="1844879473" lat="36.0007575" lon="-86.6049355"/>
  <node id="1844879474" lat="36.0012798" lon="-86.6056126"/>
  <node id="1844879475" lat="36.0012102" lon="-86.6058581"/>
  <node id="1844879476" lat="36.0016351" lon="-86.6060626"/>
  <node id="1844879477" lat="36.0047800" lon="-86.6099752"/>
  <node id="1913883938" lat="35.9929647" lon="-86.5970371">
    <tag k="highway" v="traffic_signals"/>
  </node>
  <node id="1913883940" lat="36.0100661" lon="-86.6158997"/>
  <node id="1913883943" lat="36.0117524" lon="-86.6179469"/>
  <node id="1913883944" lat="36.0120285" lon="-86.6177252">
    <tag k="highway" v="motorway_junction"/>
    <tag k="ref" v="62"/>
  </node>
  <node id="1913883945" lat="36.0125404" lon="-86.6189601"/>
  <node id="1913883946" lat="36.0126796" lon="-86.6208654"/>
  <node id="1913883947" lat="36.0127499" lon="-86.6192419"/>
  <node id="1913883949" lat="36.0130212" lon="-86.6206566"/>
  <node id="1913883950" lat="36.0129158" lon="-86.6208874"/>
  <node id="1913883952" lat="36.0130287" lon="-86.6197151"/>
  <node id="1913883953" lat="36.0130939" lon="-86.6205697"/>
  <node id="1913883959" lat="36.0130882" lon="-86.6187346"/>
  <node id="1913883960" lat="36.0131648" lon="-86.6204319"/>
  <node id="1913883961" lat="36.0131767" lon="-86.6200518"/>
  <node id="1913883963" lat="36.0131952" lon="-86.6202766"/>
  <node id="1913883964" lat="36.0132194" lon="-86.6209581"/>
  <node id="1913883965" lat="36.0133152" lon="-86.6204447"/>
  <node id="1913883971" lat="36.0134166" lon="-86.6208677"/>
  <node id="1913883973" lat="36.0134821" lon="-86.6209981"/>
  <node id="1913883974" lat="36.0136319" lon="-86.6191973"/>
  <node id="1913883980" lat="36.0140357" lon="-86.6213310"/>
  <node id="1913883981" lat="36.0139758" lon="-86.6194380"/>
  <node id="1913883982" lat="36.0144132" lon="-86.6196568"/>
  <node id="1913883983" lat="36.0147908" lon="-86.6217531"/>
  <node id="1913883984" lat="36.0149632" lon="-86.6198933"/>
  <node id="1913883985" lat="36.0150964" lon="-86.6200305"/>
  <node id="1913883986" lat="36.0151278" lon="-86.6201084"/>
  <node id="1913883987" lat="36.0152022" lon="-86.6205040"/>
  <node id="1913883988" lat="36.0152597" lon="-86.6220891"/>
  <node id="1913884000" lat="36.0152629" lon="-86.6207010"/>
  <node id="1913884002" lat="36.0153261" lon="-86.6207260"/>
  <node id="1913884005" lat="36.0153463" lon="-86.6209542"/>
  <node id="1913884007" lat="36.0153664" lon="-86.6205401"/>
  <node id="1913884010" lat="36.0154070" lon="-86.6200601"/>
  <node id="1913884012" lat="36.0154682" lon="-86.6203675"/>
  <node id="1913884013" lat="36.0154702" lon="-86.6212012"/>
  <node id="1913884015" lat="36.0155834" lon="-86.6223673"/>
  <node id="1913884026" lat="36.0156166" lon="-86.6201921"/>
  <node id="1913884045" lat="36.0156346" lon="-86.6214294"/>
  <node id="1913884047" lat="36.0157913" lon="-86.6201349"/>
  <node id="1913884049" lat="36.0164210" lon="-86.6223954"/>
  <node id="1913884051" lat="36.0184142" lon="-86.6248438"/>
  <node id="1913884055" lat="36.0443623" lon="-86.6506389"/>
  <node id="1913884057" lat="36.0445313" lon="-86.6506349"/>
  <node id="1913884058" lat="36.0459598" lon="-86.6606035"/>
  <node id="1913922187" lat="36.0447771" lon="-86.6612818"/>
  <node id="2030704008" lat="36.0154121" lon="-86.6204430"/>
  <node id="2030704062" lat="36.0153267" lon="-86.6208426"/>
  <node id="2817385315" lat="35.9849044" lon="-86.5806144"/>
  <node id="2817385317" lat="35.9860301" lon="-86.5820365"/>
  <node id="2817385318" lat="35.9866101" lon="-86.5828562"/>
  <node id="2817385319" lat="35.9995325" lon="-86.6035483"/>
  <node id="2817385320" lat="36.0005952" lon="-86.6050572"/>
  <node id="2817385321" lat="36.0017517" lon="-86.6065391"/>
  <node id="2817385322" lat="36.0023433" lon="-86.6072394"/>
  <node id="2817385323" lat="36.0353698" lon="-86.6442374"/>
  <node id="2817385324" lat="36.0359204" lon="-86.6448706"/>
  <node id="2817385325" lat="36.0384540" lon="-86.6472746"/>
  <node id="2817385326" lat="36.0388345" lon="-86.6481478"/>
  <node id="2817385327" lat="36.0394121" lon="-86.6486335"/>
  <node id="2817385328" lat="36.0430404" lon="-86.6554357"/>
  <node id="2817385329" lat="36.0459478" lon="-86.6589528"/>
  <node id="2817385330" lat="36.0460057" lon="-86.6590721"/>
  <node id="2817385331" lat="36.0460624" lon="-86.6592447"/>
  <node id="2817385332" lat="36.0530294" lon="-86.6723272"/>
  <node id="2817385333" lat="36.0533756" lon="-86.6724709"/>
  <node id="2817385334" lat="36.0541657" lon="-86.6734874"/>
  <node id="3583830189" lat="36.0445207" lon="-86.6509079"/>
  <node id="3768323473" lat="36.0440268" lon="-86.6504814"/>
  <node id="3768323496" lat="36.0444957" lon="-86.6506443"/>
  <node id="3768323498" lat="36.0446486" lon="-86.6505769"/>
  <node id="3768323499" lat="36.0446705" lon="-86.6595113"/>
  <node id="5550966522" lat="36.0456248" lon="-86.6603346"/>
  <node id="7867482713" lat="36.0447287" lon="-86.6573836"/>
  <node id="7867482714" lat="36.0449140" lon="-86.6575431"/>
  <node id="7867482715" lat="36.0449769" lon="-86.6576003"/>
  <node id="7867482716" lat="36.0450880" lon="-86.6577200"/>
  <node id="7867482717" lat="36.0444764" lon="-86.6571148"/>
  <node id="7867482719" lat="36.0446396" lon="-86.6573026"/>
  <node id="7878190088" lat="36.0662554" lon="-86.6863836"/>
  <node id="8674817176" lat="36.0128147" lon="-86.6193389"/>
  <node id="8674817177" lat="36.0110129" lon="-86.6170805"/>
  <node id="8674817178" lat="36.0131249" lon="-86.6205195"/>
  <node id="8674817179" lat="36.0131908" lon="-86.6201240"/>
  <node id="8674817180" lat="36.0126434" lon="-86.6190931"/>
  <node id="8674817181" lat="36.0106672" lon="-86.6166807"/>
  <node id="8674817182" lat="36.0131493" lon="-86.6204705"/>
  <node id="8674817183" lat="36.0131458" lon="-86.6199673"/>
  <node id="8674817184" lat="36.0123959" lon="-86.6187751"/>
  <node id="8674817185" lat="36.0104500" lon="-86.6164315"/>
  <node id="8674817186" lat="36.0131788" lon="-86.6203858"/>
  <node id="8674817187" lat="36.0131001" lon="-86.6198658"/>
  <node id="8674817188" lat="36.0121919" lon="-86.6185115"/>
  <node id="8674817189" lat="36.0113013" lon="-86.6169074"/>
  <node id="8674817190" lat="36.0131892" lon="-86.6203314"/>
  <node id="8674817191" lat="36.0129608" lon="-86.6195830"/>
  <node id="8674817192" lat="36.0116129" lon="-86.6177731"/>
  <node id="8674817193" lat="36.0129663" lon="-86.6206985"/>
  <node id="8674817194" lat="36.0131974" lon="-86.6202298"/>
  <node id="8674817195" lat="36.0128856" lon="-86.6194501"/>
  <node id="8674817196" lat="36.0113188" lon="-86.6174268"/>
  <node id="8674817197" lat="36.0130596" lon="-86.6206156"/>
  <node id="8674817198" lat="36.0131958" lon="-86.6201740"/>
  <node id="8674818189" lat="36.0134464" lon="-86.6209496"/>
  <node id="8674818190" lat="36.0134744" lon="-86.6210778"/>
  <node id="8674818191" lat="36.0130230" lon="-86.6209092"/>
  <node id="8674818192" lat="36.0135847" lon="-86.6210735"/>
  <node id="8674818193" lat="36.0134335" lon="-86.6209228"/>
  <node id="8674818194" lat="36.0134041" lon="-86.6210398"/>
  <node id="8674818195" lat="36.0144893" lon="-86.6215681"/>
  <node id="8674818196" lat="36.0135472" lon="-86.6210512"/>
  <node id="8674818197" lat="36.0134226" lon="-86.6208931"/>
  <node id="8674818198" lat="36.0133309" lon="-86.6210028"/>
  <node id="8674818199" lat="36.0146285" lon="-86.6216496"/>
  <node id="8674818200" lat="36.0135232" lon="-86.6210347"/>
  <node id="8674818201" lat="36.0134117" lon="-86.6208283"/>
  <node id="8674818202" lat="36.0132700" lon="-86.6209768"/>
  <node id="8674818203" lat="36.0147108" lon="-86.6216997"/>
  <node id="8674818204" lat="36.0134989" lon="-86.6210145"/>
  <node id="8674818205" lat="36.0131658" lon="-86.6209440"/>
  <node id="8674818206" lat="36.0148777" lon="-86.6218154"/>
  <node id="8674818207" lat="36.0134642" lon="-86.6209757"/>
  <node id="8674818208" lat="36.0130995" lon="-86.6209286"/>
  <node id="8674818209" lat="36.0137593" lon="-86.6211645"/>
  <node id="8913055533" lat="36.0404111" lon="-86.6488678"/>
  <node id="8913055534" lat="36.0412832" lon="-86.6491156"/>
  <node id="8913055535" lat="36.0402981" lon="-86.6491872"/>
  <node id="8913055536" lat="36.0406048" lon="-86.6488750"/>
  <node id="8913055537" lat="36.0418223" lon="-86.6531642">
    <tag k="highway" v="motorway_junction"/>
    <tag k="ref" v="60A"/>
  </node>
  <node id="8913055538" lat="36.0410668" lon="-86.6521495"/>
  <node id="8913055539" lat="36.0406918" lon="-86.6516583"/>
  <node id="8913055540" lat="36.0403338" lon="-86.6512008"/>
  <node id="8913055541" lat="36.0400210" lon="-86.6508479"/>
  <node id="8913055542" lat="36.0396923" lon="-86.6504762"/>
  <node id="8913055543" lat="36.0393831" lon="-86.6501735"/>
  <node id="8913055545" lat="36.0390437" lon="-86.6498390"/>
  <node id="8913055546" lat="36.0390231" lon="-86.6496222"/>
  <node id="8913055547" lat="36.0390586" lon="-86.6495279"/>
  <node id="8913055548" lat="36.0377952" lon="-86.6481523"/>
  <node id="8981974058" lat="35.9932545" lon="-86.5957121"/>
  <node id="8993543865" lat="36.0161402" lon="-86.6228821"/>
  <node id="8993543866" lat="36.0452471" lon="-86.6579443"/>
  <node id="9028108532" lat="35.9819673" lon="-86.5775905"/>
  <node id="9028108533" lat="35.9929119" lon="-86.5926806"/>
  <node id="9041165758" lat="36.0372283" lon="-86.6458382"/>
  <node id="9041165759" lat="36.0232999" lon="-86.6302941"/>
  <node id="9047712019" lat="36.0474782" lon="-86.6628818"/>
  <node id="9071903947" lat="36.0440614" lon="-86.6506613"/>
  <node id="9071903948" lat="36.0442606" lon="-86.6508288"/>
  <node id="9071903949" lat="36.0446073" lon="-86.6506033"/>
  <node id="9071903950" lat="36.0444024" lon="-86.6506454"/>
  <node id="9071903951" lat="36.0442881" lon="-86.6506183"/>
  <node id="9071903952" lat="36.0444847" lon="-86.6508457"/>
  <node id="9071903953" lat="36.0443011" lon="-86.6506552"/>
  <node id="9071903954" lat="36.0441265" lon="-86.6505322"/>
  <node id="9071903982" lat="36.0444436" lon="-86.6507962">
    <tag k="highway" v="traffic_signals"/>
    <tag k="surface" v="asphalt"/>
  </node>
  <node id="9137728500" lat="36.0209108" lon="-86.6279516"/>
  <node id="9144973955" lat="35.9898934" lon="-86.5883851"/>
  <node id="9164675597" lat="35.9957440" lon="-86.5975977"/>
  <node id="9217400222" lat="36.0413391" lon="-86.6491131"/>
  <node id="9217400223" lat="36.0413921" lon="-86.6491145"/>
  <node id="9217400224" lat="36.0411928" lon="-86.6491430"/>
  <node id="9217400225" lat="36.0412344" lon="-86.6491267"/>
  <node id="9217400226" lat="36.0416067" lon="-86.6491777"/>
  <node id="9217400227" lat="36.0389411" lon="-86.6475117"/>
  <node id="9217400228" lat="36.0391803" lon="-86.6476596"/>
  <node id="9217400229" lat="36.0403313" lon="-86.6482697"/>
  <node id="9217400230" lat="36.0406950" lon="-86.6484668"/>
  <node id="9217400231" lat="36.0409790" lon="-86.6486332"/>
  <node id="9217400232" lat="36.0411983" lon="-86.6487934"/>
  <node id="9217400233" lat="36.0413826" lon="-86.6489660"/>
  <node id="9217400234" lat="36.0414723" lon="-86.6490707"/>
  <node id="9217400235" lat="36.0415202" lon="-86.6491467"/>
  <node id="9217400236" lat="36.0412876" lon="-86.6488691"/>
  <node id="9217400237" lat="36.0413351" lon="-86.6489140"/>
  <node id="9217400238" lat="36.0415223" lon="-86.6491189"/>
  <node id="9246525115" lat="35.9971200" lon="-86.5970599"/>
  <node id="9376129877" lat="36.0390148" lon="-86.6499696"/>
  <node id="9376129878" lat="36.0383597" lon="-86.6497188"/>
  <node id="9376129879" lat="36.0377175" lon="-86.6495746"/>
  <node id="9376129899" lat="36.0368434" lon="-86.6494200"/>
  <node id="9376129900" lat="36.0377992" lon="-86.6492770"/>
  <node id="9376129901" lat="36.0380272" lon="-86.6493249"/>
  <node id="9376129902" lat="36.0383782" lon="-86.6494262"/>
  <node id="9376129903" lat="36.0391728" lon="-86.6493421"/>
  <node id="9376129904" lat="36.0386438" lon="-86.6494370"/>
  <node id="9376129905" lat="36.0365969" lon="-86.6496698"/>
  <node id="9376129906" lat="36.0366349" lon="-86.6494583"/>
  <node id="9376142838" lat="36.0403924" lon="-86.6491850"/>
  <node id="9376142839" lat="36.0406890" lon="-86.6494055"/>
  <node id="9376142840" lat="36.0408338" lon="-86.6495903"/>
  <node id="9376142841" lat="36.0385225" lon="-86.6491592"/>
  <node id="9376142842" lat="36.0381653" lon="-86.6493535"/>
  <node id="9376142843" lat="36.0379615" lon="-86.6494765"/>
  <node id="9376142868" lat="36.0364351" lon="-86.6501326"/>
  <node id="9376142870" lat="36.0364643" lon="-86.6493447"/>
  <node id="9376142871" lat="36.0364653" lon="-86.6497092"/>
  <node id="9376142872" lat="36.0365094" lon="-86.6496153"/>
  <node id="9376142873" lat="36.0365455" lon="-86.6493525"/>
  <node id="9376142876" lat="36.0374098" lon="-86.6496003"/>
  <node id="9376142877" lat="36.0368567" lon="-86.6498050"/>
  <node id="9376142878" lat="36.0367731" lon="-86.6499576"/>
  <node id="9376142879" lat="36.0367517" lon="-86.6503983"/>
  <node id="9376142880" lat="36.0375731" lon="-86.6492974"/>
  <node id="9376142881" lat="36.0377086" lon="-86.6491423"/>
  <node id="9376142882" lat="36.0378863" lon="-86.6488354"/>
  <node id="9376142883" lat="36.0379073" lon="-86.6483526"/>
  <node id="9376142884" lat="36.0364977" lon="-86.6488140"/>
  <node id="9376142885" lat="36.0364667" lon="-86.6483989"/>
  <node id="9376142886" lat="36.0364724" lon="-86.6481758"/>
  <node id="9376142887" lat="36.0365272" lon="-86.6479374"/>
  <node id="9376142888" lat="36.0366553" lon="-86.6476678"/>
  <node id="9376142889" lat="36.0368041" lon="-86.6474948"/>
  <node id="9376142890" lat="36.0371048" lon="-86.6472993"/>
  <node id="9376142891" lat="36.0374117" lon="-86.6472247"/>
  <node id="9376142892" lat="36.0379332" lon="-86.6473150"/>
  <node id="9376142893" lat="36.0381793" lon="-86.6474809"/>
  <node id="9376142894" lat="36.0387516" lon="-86.6480317">
    <tag k="highway" v="motorway_junction"/>
    <tag k="ref" v="60B"/>
  </node>
  <node id="9376142895" lat="36.0364176" lon="-86.6487916"/>
  <node id="9376142896" lat="36.0363803" lon="-86.6482758"/>
  <node id="9376142897" lat="36.0364298" lon="-86.6479507"/>
  <node id="9376142898" lat="36.0366901" lon="-86.6473224"/>
  <node id="9376142899" lat="36.0368070" lon="-86.6469874"/>
  <node id="9376142900" lat="36.0368531" lon="-86.6467520"/>
  <node id="9376142901" lat="36.0368025" lon="-86.6464245"/>
  <node id="9376142902" lat="36.0366961" lon="-86.6461096"/>
  <node id="9452907252" lat="36.0423800" lon="-86.6497859"/>
  <node id="9452907253" lat="36.0419738" lon="-86.6495852"/>
  <node id="9582298370" lat="36.0391884" lon="-86.6476984"/>
  <node id="9582298371" lat="36.0392416" lon="-86.6477574"/>
  <node id="9582298372" lat="36.0400834" lon="-86.6482297"/>
  <node id="9582298373" lat="36.0401696" lon="-86.6482917"/>
  <node id="9582298374" lat="36.0402277" lon="-86.6483909"/>
  <node id="9582298375" lat="36.0402540" lon="-86.6485446"/>
  <node id="9582298376" lat="36.0402241" lon="-86.6487080"/>
  <node id="9582298377" lat="36.0401584" lon="-86.6488469"/>
  <node id="9582298378" lat="36.0400876" lon="-86.6488902"/>
  <node id="9582298379" lat="36.0401987" lon="-86.6487803"/>
  <node id="9582298380" lat="36.0402482" lon="-86.6486284"/>
  <node id="9582298381" lat="36.0402489" lon="-86.6484642"/>
  <node id="9867239109" lat="36.0445734" lon="-86.6506195"/>
  <node id="9867262319" lat="36.0447026" lon="-86.6505388"/>
  <node id="9867262322" lat="36.0444548" lon="-86.6506475"/>
  <node id="10182160148" lat="35.9973104" lon="-86.5966502"/>
  <node id="10182160149" lat="35.9971921" lon="-86.5968103"/>
  <node id="10182160150" lat="35.9971172" lon="-86.5970305"/>
  <node id="10182160151" lat="35.9970918" lon="-86.5962700"/>
  <node id="10182160152" lat="35.9973145" lon="-86.5963801"/>
  <node id="10182160153" lat="35.9967120" lon="-86.5965658"/>
  <node id="10182160154" lat="35.9968523" lon="-86.5964557"/>
  <node id="10182160155" lat="35.9969025" lon="-86.5963501"/>
  <node id="10182160156" lat="35.9969074" lon="-86.5962482"/>
  <node id="10182160157" lat="35.9971070" lon="-86.5968171"/>
  <node id="10182160158" lat="35.9970633" lon="-86.5966679"/>
  <node id="10182160159" lat="35.9968831" lon="-86.5964079"/>
  <node id="10182160160" lat="35.9969114" lon="-86.5962988"/>
  <node id="10182160161" lat="35.9972440" lon="-86.5967247"/>
  <node id="10610814539" lat="36.0147251" lon="-86.6197909"/>
  <node id="10629325259" lat="36.0391223" lon="-86.6476237"/>
  <node id="10873108820" lat="36.0404969" lon="-86.6483595"/>
  <node id="11070701400" lat="36.0454980" lon="-86.6602924"/>
  <node id="11070701401" lat="36.0454390" lon="-86.6602707"/>
  <node id="11070701402" lat="36.0453574" lon="-86.6602171"/>
  <node id="11070701403" lat="36.0452833" lon="-86.6601849"/>
  <node id="11070701404" lat="36.0452128" lon="-86.6601693"/>
  <node id="11070721405" lat="36.0451391" lon="-86.6601722"/>
  <node id="11070721406" lat="36.0450344" lon="-86.6602162"/>
  <node id="11070721407" lat="36.0449662" lon="-86.6603030"/>
  <node id="11070721408" lat="36.0449198" lon="-86.6604931"/>
  <node id="11070721409" lat="36.0447959" lon="-86.6608464"/>
  <node id="12338753946" lat="36.0364663" lon="-86.6478453"/>
  <node id="12338753948" lat="36.0407821" lon="-86.6495118"/>
  <node id="12338753949" lat="36.0386452" lon="-86.6491434"/>
  <node id="12338753950" lat="36.0388315" lon="-86.6493829"/>
  <node id="12338753954" lat="36.0370859" lon="-86.6496719"/>
  <node id="12338753955" lat="36.0365965" lon="-86.6477655"/>
  <node id="12338753962" lat="36.0369473" lon="-86.6497316"/>
  <node id="12338753963" lat="36.0381469" lon="-86.6486972"/>
  <node id="12338753965" lat="36.0405675" lon="-86.6514953"/>
  <node id="12338753970" lat="36.0383699" lon="-86.6476726"/>
  <node id="12338753974" lat="36.0363995" lon="-86.6480766"/>
  <node id="12338753975" lat="36.0377624" lon="-86.6490831"/>
  <node id="12338753977" lat="36.0387303" lon="-86.6494166"/>
  <node id="12338753978" lat="36.0405415" lon="-86.6492912"/>
  <node id="12338753979" lat="36.0365619" lon="-86.6478455"/>
  <node id="12338753980" lat="36.0409124" lon="-86.6497629"/>
  <node id="12338753981" lat="36.0368231" lon="-86.6498526"/>
  <node id="12338753984" lat="36.0380942" lon="-86.6474084"/>
  <node id="12338753988" lat="36.0401841" lon="-86.6510316"/>
  <node id="12338753992" lat="36.0379213" lon="-86.6492934"/>
  <node id="12338753997" lat="36.0378663" lon="-86.6472879"/>
  <node id="12338753998" lat="36.0394892" lon="-86.6502608"/>
  <node id="12338754000" lat="36.0383666" lon="-86.6492291"/>
  <node id="12338775302" lat="36.0378503" lon="-86.6489299"/>
  <node id="12338775303" lat="36.0364647" lon="-86.6483045"/>
  <node id="12338775304" lat="36.0387930" lon="-86.6491359"/>
  <node id="12338775305" lat="36.0398550" lon="-86.6506563"/>
  <node id="12338775306" lat="36.0406240" lon="-86.6493461"/>
  <node id="12338775308" lat="36.0379134" lon="-86.6484492"/>
  <node id="12338775311" lat="36.0382493" lon="-86.6475433"/>
  <node id="12338775316" lat="36.0379207" lon="-86.6485634"/>
  <node id="12338775320" lat="36.0391112" lon="-86.6494264"/>
  <node id="12338775323" lat="36.0407324" lon="-86.6494461"/>
  <node id="12338775325" lat="36.0369818" lon="-86.6473635"/>
  <node id="12338775326" lat="36.0388199" lon="-86.6498897"/>
  <node id="12338775327" lat="36.0380158" lon="-86.6485442"/>
  <node id="12338775328" lat="36.0390282" lon="-86.6497799"/>
  <node id="12338775330" lat="36.0367923" lon="-86.6499096"/>
  <node id="12338775332" lat="36.0378076" lon="-86.6490148"/>
  <node id="12338775333" lat="36.0367512" lon="-86.6500936"/>
  <node id="12338775334" lat="36.0401326" lon="-86.6491951"/>
  <node id="12338775336" lat="36.0364452" lon="-86.6498617"/>
  <node id="12338775337" lat="36.0367592" lon="-86.6500244"/>
  <node id="12338775338" lat="36.0409414" lon="-86.6498776"/>
  <node id="12338775339" lat="36.0409718" lon="-86.6500275"/>
  <node id="12338775341" lat="36.0376370" lon="-86.6492894"/>
  <node id="12338775342" lat="36.0411363" lon="-86.6510563"/>
  <node id="12338775343" lat="36.0408787" lon="-86.6496745"/>
  <node id="12338775344" lat="36.0372240" lon="-86.6472585"/>
  <node id="12338775349" lat="36.0379634" lon="-86.6484603"/>
  <node id="12338775351" lat="36.0368970" lon="-86.6474189"/>
  <node id="12338775353" lat="36.0379062" lon="-86.6487531"/>
  <node id="12338775356" lat="36.0390739" lon="-86.6499003"/>
  <node id="12338775357" lat="36.0363838" lon="-86.6484610"/>
  <node id="12338775361" lat="36.0395958" lon="-86.6503679"/>
  <node id="12338775364" lat="36.0379169" lon="-86.6486633"/>
  <node id="12338775366" lat="36.0378634" lon="-86.6492811"/>
  <node id="12338775371" lat="36.0382874" lon="-86.6488212"/>
  <node id="12338775375" lat="36.0369841" lon="-86.6494016"/>
  <node id="12338775376" lat="36.0384337" lon="-86.6491895"/>
  <node id="12338775377" lat="36.0367242" lon="-86.6475816"/>
  <node id="12338775379" lat="36.0364902" lon="-86.6480670"/>
  <node id="12338775381" lat="36.0389528" lon="-86.6493617"/>
  <node id="12338775387" lat="36.0375243" lon="-86.6472216"/>
  <node id="12338775395" lat="36.0376228" lon="-86.6472290"/>
  <node id="12338775397" lat="36.0384677" lon="-86.6494457"/>
  <node id="12338775398" lat="36.0363864" lon="-86.6481800"/>
  <node id="12338775405" lat="36.0370105" lon="-86.6496961"/>
  <node id="12338775407" lat="36.0368999" lon="-86.6497668"/>
  <node id="12338775408" lat="36.0390173" lon="-86.6496935"/>
  <node id="12338775412" lat="36.0385563" lon="-86.6494481"/>
  <node id="12338775415" lat="36.0364325" lon="-86.6499713"/>
  <node id="12338775417" lat="36.0377220" lon="-86.6492836"/>
  <node id="12338775418" lat="36.0377865" lon="-86.6472627"/>
  <node id="12338775419" lat="36.0372337" lon="-86.6493699"/>
  <node id="12338775421" lat="36.0384393" lon="-86.6489220"/>
  <node id="12338775423" lat="36.0378482" lon="-86.6495320"/>
  <node id="12338775428" lat="36.0365024" lon="-86.6477567"/>
  <node id="12338775429" lat="36.0391305" lon="-86.6499627"/>
  <node id="12338775430" lat="36.0379921" lon="-86.6473446"/>
  <node id="13432787825" lat="36.0383853" lon="-86.6492181">
    <tag k="crossing" v="uncontrolled"/>
    <tag k="crossing:markings" v="yes"/>
    <tag k="highway" v="crossing"/>
  </node>
  <node id="13432787833" lat="36.0408347" lon="-86.6489857">
    <tag k="crossing" v="uncontrolled"/>
    <tag k="crossing:markings" v="yes"/>
    <tag k="highway" v="crossing"/>
  </node>
  <node id="13432787838" lat="36.0412973" lon="-86.6488783">
    <tag k="crossing" v="uncontrolled"/>
    <tag k="crossing:markings" v="yes"/>
    <tag k="highway" v="crossing"/>
  </node>
  <node id="13654064106" lat="35.9964587" lon="-86.5958089"/>
  <way id="19440902">
    <nd ref="9217400228"/>
    <nd ref="9217400229"/>
    <nd ref="10873108820"/>
    <tag k="destination" v="Hickory Hollow Parkway"/>
    <tag k="highway" v="motorway_link"/>
    <tag k="lanes" v="1"/>
    <tag k="maxspeed:advisory" v="30 mph"/>
    <tag k="oneway" v="yes"/>
    <tag k="tiger:cfcc" v="A63"/>
    <tag k="tiger:county" v="Davidson, TN"/>
    <tag k="tiger:reviewed" v="no"/>
  </way>
  <way id="19441652">
    <nd ref="202177579"/>
    <nd ref="306535314"/>
    <nd ref="306535315"/>
    <nd ref="202185433"/>
    <nd ref="306535316"/>
    <nd ref="306535317"/>
    <nd ref="202185438"/>
    <nd ref="1241356462"/>
    <nd ref="306535318"/>
    <nd ref="306535319"/>
    <nd ref="306535320"/>
    <nd ref="12338775342"/>
    <nd ref="202185441"/>
    <nd ref="202185444"/>
    <tag k="destination" v="Nashville"/>
    <tag k="destination:ref" v="I 24 West"/>
    <tag k="highway" v="motorway_link"/>
    <tag k="lanes" v="1"/>
    <tag k="oneway" v="yes"/>
    <tag k="tiger:cfcc" v="A63"/>
    <tag k="tiger:county" v="Davidson, TN"/>
    <tag k="tiger:reviewed" v="no"/>
  </way>
  <way id="19441728">
    <nd ref="202186118"/>
    <nd ref="1913884058"/>
    <tag k="destination" v="Bell Road"/>
    <tag k="destination:ref" v="TN 254"/>
    <tag k="highway" v="motorway_link"/>
    <tag k="junction:ref" v="59"/>
    <tag k="lanes" v="1"/>
    <tag k="maxspeed:advisory" v="30 mph"/>
    <tag k="oneway" v="yes"/>
    <tag k="start_date" v="1958"/>
  </way>
  <way id="19442635">
    <nd ref="202192541"/>
    <nd ref="7867482717"/>
    <nd ref="1241355535"/>
    <nd ref="7867482719"/>
    <nd ref="7867482713"/>
    <nd ref="7867482714"/>
    <nd ref="7867482715"/>
    <nd ref="1241354496"/>
    <nd ref="7867482716"/>
    <nd ref="1241357094"/>
    <nd ref="8993543866"/>
    <tag k="destination" v="Bell Road"/>
    <tag k="destination:ref" v="SR 254"/>
    <tag k="highway" v="motorway_link"/>
    <tag k="junction:ref" v="59"/>
    <tag k="lanes" v="1"/>
    <tag k="maxspeed:advisory" v="30 mph"/>
    <tag k="oneway" v="yes"/>
    <tag k="start_date" v="1958"/>
  </way>
  <way id="19591000">
    <nd ref="1241356401"/>
    <nd ref="1241354530"/>
    <nd ref="203433336"/>
    <nd ref="203433333"/>
    <nd ref="203433331"/>
    <nd ref="203433329"/>
    <nd ref="203433327"/>
    <nd ref="8981974058"/>
    <tag k="destination" v="Waldron Road;La Vergne"/>
    <tag k="highway" v="motorway_link"/>
    <tag k="junction:ref" v="64"/>
    <tag k="lanes" v="1"/>
    <tag k="oneway" v="yes"/>
    <tag k="start_date" v="1958"/>
  </way>
  <way id="19591003">
    <nd ref="203433325"/>
    <nd ref="203433363"/>
    <tag k="highway" v="motorway_link"/>
    <tag k="lanes" v="1"/>
    <tag k="oneway" v="yes"/>
    <tag k="tiger:cfcc" v="A63"/>
    <tag k="tiger:county" v="Rutherford, TN"/>
    <tag k="tiger:reviewed" v="no"/>
    <tag k="tiger:source" v="tiger_import_dch_v0.6_20070829"/>
    <tag k="tiger:tlid" v="59019994"/>
    <tag k="tiger:upload_uuid" v="bulk_upload.pl-4501dbdd-126a-428c-8c0d-f2508ccd7b37"/>
  </way>
  <way id="19591150">
    <nd ref="203434375"/>
    <nd ref="9028108533"/>
    <nd ref="1241355666"/>
    <nd ref="203434372"/>
    <nd ref="13654064106"/>
    <tag k="destination" v="La Vergne;Waldon Road"/>
    <tag k="highway" v="motorway_link"/>
    <tag k="junction:ref" v="64"/>
    <tag k="oneway" v="yes"/>
    <tag k="start_date" v="1969"/>
  </way>
  <way id="27828382">
    <nd ref="203575298"/>
    <nd ref="202477383"/>
    <nd ref="8674817189"/>
    <nd ref="1913883944"/>
    <tag k="bicycle" v="no"/>
    <tag k="destination:lanes" v="|||none;Old Hickory Boulevard"/>
    <tag k="hgv" v="designated"/>
    <tag k="hgv:national_network" v="yes"/>
    <tag k="highway" v="motorway"/>
    <tag k="hov:lanes" v="designated|||"/>
    <tag k="lanes" v="4"/>
    <tag k="maxspeed" v="70 mph"/>
    <tag k="maxspeed:variable" v="peak_traffic"/>
    <tag k="oneway" v="yes"/>
    <tag k="ref" v="I 24"/>
    <tag k="start_date" v="1958"/>
    <tag k="turn:lanes" v="|||through;slight_right"/>
  </way>
  <way id="108161914">
    <nd ref="306535020"/>
    <nd ref="202186134"/>
    <tag k="bicycle" v="no"/>
    <tag k="foot" v="no"/>
    <tag k="hgv" v="designated"/>
    <tag k="hgv:national_network" v="yes"/>
    <tag k="highway" v="motorway"/>
    <tag k="hov:lanes" v="designated|||"/>
    <tag k="lanes" v="4"/>
    <tag k="maxspeed" v="70 mph"/>
    <tag k="maxspeed:variable" v="peak_traffic"/>
    <tag k="oneway" v="yes"/>
    <tag k="ref" v="I 24"/>
    <tag k="start_date" v="1958"/>
  </way>
  <way id="108161916">
    <nd ref="306535021"/>
    <nd ref="306535022"/>
    <tag k="bicycle" v="no"/>
    <tag k="bridge" v="yes"/>
    <tag k="hgv" v="designated"/>
    <tag k="hgv:national_network" v="yes"/>
    <tag k="highway" v="motorway"/>
    <tag k="hov:lanes" v="designated|||"/>
    <tag k="lanes" v="4"/>
    <tag k="layer" v="1"/>
    <tag k="maxspeed" v="70 mph"/>
    <tag k="maxspeed:variable" v="peak_traffic"/>
    <tag k="oneway" v="yes"/>
    <tag k="ref" v="I 24"/>
    <tag k="start_date" v="1958"/>
  </way>
  <way id="108162054">
    <nd ref="306535019"/>
    <nd ref="306535020"/>
    <tag k="bicycle" v="no"/>
    <tag k="bridge" v="yes"/>
    <tag k="foot" v="no"/>
    <tag k="hgv" v="designated"/>
    <tag k="hgv:national_network" v="yes"/>
    <tag k="highway" v="motorway"/>
    <tag k="hov:lanes" v="designated|||"/>
    <tag k="lanes" v="4"/>
    <tag k="layer" v="1"/>
    <tag k="maxspeed" v="70 mph"/>
    <tag k="maxspeed:variable" v="peak_traffic"/>
    <tag k="oneway" v="yes"/>
    <tag k="ref" v="I 24"/>
    <tag k="start_date" v="1958"/>
  </way>
  <way id="108162065">
    <nd ref="202477470"/>
    <nd ref="202477476"/>
    <nd ref="202477480"/>
    <nd ref="2817385333"/>
    <nd ref="306534948"/>
    <nd ref="2817385334"/>
    <nd ref="202477481"/>
    <nd ref="202477484"/>
    <nd ref="306534861"/>
    <nd ref="202477487"/>
    <nd ref="202477488"/>
    <nd ref="202477491"/>
    <nd ref="202477495"/>
    <nd ref="202229638"/>
    <tag k="bicycle" v="no"/>
    <tag k="destination:lanes" v="|||none;Haywood Lane"/>
    <tag k="hgv" v="designated"/>
    <tag k="hgv:national_network" v="yes"/>
    <tag k="highway" v="motorway"/>
    <tag k="hov:lanes" v="designated|||"/>
    <tag k="lanes" v="4"/>
    <tag k="maxspeed" v="70 mph"/>
    <tag k="maxspeed:variable" v="peak_traffic"/>
    <tag k="oneway" v="yes"/>
    <tag k="ref" v="I 24"/>
    <tag k="start_date" v="1958"/>
    <tag k="turn:lanes" v="|||through;slight_right"/>
  </way>
  <way id="108162153">
    <nd ref="202376276"/>
    <nd ref="9452907252"/>
    <tag k="highway" v="motorway_link"/>
    <tag k="lanes" v="2"/>
    <tag k="oneway" v="yes"/>
    <tag k="tiger:cfcc" v="A41"/>
    <tag k="tiger:county" v="Davidson, TN"/>
    <tag k="tiger:name_base" v="Hickory Hollow"/>
    <tag k="tiger:name_type" v="Pky"/>
    <tag k="tiger:reviewed" v="no"/>
    <tag k="tiger:zip_left" v="37013"/>
    <tag k="tiger:zip_right" v="37013"/>
  </way>
  <way id="108162173">
    <nd ref="202477466"/>
    <nd ref="202477470"/>
    <tag k="bicycle" v="no"/>
    <tag k="bridge" v="yes"/>
    <tag k="hgv" v="designated"/>
    <tag k="hgv:national_network" v="yes"/>
    <tag k="highway" v="motorway"/>
    <tag k="hov:lanes" v="designated|||"/>
    <tag k="lanes" v="4"/>
    <tag k="layer" v="1"/>
    <tag k="maxspeed" v="70 mph"/>
    <tag k="maxspeed:variable" v="peak_traffic"/>
    <tag k="oneway" v="yes"/>
    <tag k="ref" v="I 24"/>
    <tag k="start_date" v="1958"/>
  </way>
  <way id="108162196">
    <nd ref="9376142838"/>
    <nd ref="1241355508"/>
    <nd ref="1241354577"/>
    <nd ref="1241354914"/>
    <tag k="highway" v="motorway_link"/>
    <tag k="lanes" v="1"/>
    <tag k="oneway" v="yes"/>
    <tag k="tiger:cfcc" v="A63"/>
    <tag k="tiger:county" v="Davidson, TN"/>
    <tag k="tiger:reviewed" v="no"/>
  </way>
  <way id="108162204">
    <nd ref="1241355409"/>
    <nd ref="1241355834"/>
    <tag k="bridge" v="yes"/>
    <tag k="highway" v="motorway_link"/>
    <tag k="lanes" v="2"/>
    <tag k="layer" v="1"/>
    <tag k="oneway" v="yes"/>
    <tag k="surface" v="asphalt"/>
  </way>
  <way id="108162268">
    <nd ref="202273912"/>
    <nd ref="1241354855"/>
    <nd ref="9071903948"/>
    <nd ref="1241355205"/>
    <nd ref="9071903947"/>
    <nd ref="202245447"/>
    <nd ref="1241357499"/>
    <tag k="destination:ref" v="I 24"/>
    <tag k="highway" v="motorway_link"/>
    <tag k="lanes" v="2"/>
    <tag k="oneway" v="yes"/>
    <tag k="surface" v="asphalt"/>
    <tag k="tiger:cfcc" v="A41"/>
    <tag k="tiger:county" v="Davidson, TN"/>
    <tag k="tiger:name_base" v="Hickory Hollow"/>
    <tag k="tiger:name_type" v="Pky"/>
    <tag k="tiger:reviewed" v="no"/>
    <tag k="tiger:zip_left" v="37013"/>
    <tag k="tiger:zip_right" v="37013"/>
  </way>
  <way id="108162275">
    <nd ref="1241357499"/>
    <nd ref="202376276"/>
    <tag k="bridge" v="yes"/>
    <tag k="highway" v="motorway_link"/>
    <tag k="lanes" v="2"/>
    <tag k="layer" v="1"/>
    <tag k="oneway" v="yes"/>
    <tag k="surface" v="asphalt"/>
    <tag k="tiger:cfcc" v="A41"/>
    <tag k="tiger:county" v="Davidson, TN"/>
    <tag k="tiger:name_base" v="Hickory Hollow"/>
    <tag k="tiger:name_type" v="Pky"/>
    <tag k="tiger:reviewed" v="no"/>
    <tag k="tiger:zip_left" v="37013"/>
    <tag k="tiger:zip_right" v="37013"/>
  </way>
  <way id="108162303">
    <nd ref="202476666"/>
    <nd ref="9047712019"/>
    <tag k="bicycle" v="no"/>
    <tag k="foot" v="no"/>
    <tag k="hgv" v="designated"/>
    <tag k="hgv:national_network" v="yes"/>
    <tag k="highway" v="motorway"/>
    <tag k="hov:lanes" v="designated|||"/>
    <tag k="lanes" v="4"/>
    <tag k="maxspeed" v="70 mph"/>
    <tag k="maxspeed:variable" v="peak_traffic"/>
    <tag k="oneway" v="yes"/>
    <tag k="ref" v="I 24"/>
    <tag k="start_date" v="1958"/>
  </way>
  <way id="108162324">
    <nd ref="1241354935"/>
    <nd ref="1241355233"/>
    <tag k="bridge" v="yes"/>
    <tag k="highway" v="motorway_link"/>
    <tag k="lanes" v="3"/>
    <tag k="layer" v="1"/>
    <tag k="oneway" v="yes"/>
    <tag k="tiger:cfcc" v="A63"/>
    <tag k="tiger:county" v="Davidson, TN"/>
    <tag k="tiger:reviewed" v="no"/>
  </way>
  <way id="108162396">
    <nd ref="202476669"/>
    <nd ref="202476666"/>
    <tag k="bicycle" v="no"/>
    <tag k="bridge" v="yes"/>
    <tag k="foot" v="no"/>
    <tag k="hgv" v="designated"/>
    <tag k="hgv:national_network" v="yes"/>
    <tag k="highway" v="motorway"/>
    <tag k="hov:lanes" v="designated|||"/>
    <tag k="lanes" v="4"/>
    <tag k="layer" v="1"/>
    <tag k="maxspeed" v="70 mph"/>
    <tag k="maxspeed:variable" v="peak_traffic"/>
    <tag k="oneway" v="yes"/>
    <tag k="ref" v="I 24"/>
    <tag k="start_date" v="1958"/>
  </way>
  <way id="108162410">
    <nd ref="1241355834"/>
    <nd ref="202245451"/>
    <nd ref="3768323473"/>
    <nd ref="9071903954"/>
    <nd ref="1241354710"/>
    <tag k="highway" v="motorway_link"/>
    <tag k="lanes" v="2"/>
    <tag k="oneway" v="yes"/>
    <tag k="surface" v="asphalt"/>
    <tag k="turn:lanes" v="through|through;slight_right"/>
  </way>
  <way id="108162413">
    <nd ref="202408518"/>
    <nd ref="202408515"/>
    <nd ref="1241356163"/>
    <nd ref="12338775421"/>
    <nd ref="1241356906"/>
    <nd ref="12338775371"/>
    <nd ref="1241355217"/>
    <nd ref="12338753963"/>
    <nd ref="1241355493"/>
    <nd ref="12338775327"/>
    <nd ref="12338775349"/>
    <nd ref="9376142883"/>
    <nd ref="1241354561"/>
    <nd ref="8913055548"/>
    <tag k="destination" v="Murfreesboro"/>
    <tag k="destination:ref" v="I 24 East"/>
    <tag k="highway" v="motorway_link"/>
    <tag k="lanes" v="1"/>
    <tag k="oneway" v="yes"/>
    <tag k="tiger:cfcc" v="A41"/>
    <tag k="tiger:county" v="Davidson, TN"/>
    <tag k="tiger:name_base" v="Old Franklin"/>
    <tag k="tiger:name_type" v="Rd"/>
    <tag k="tiger:reviewed" v="no"/>
  </way>
  <way id="108162443">
    <nd ref="202476693"/>
    <nd ref="202177450"/>
    <nd ref="7878190088"/>
    <nd ref="202476691"/>
    <nd ref="202476687"/>
    <nd ref="202476684"/>
    <nd ref="202370676"/>
    <nd ref="202476681"/>
    <nd ref="306534863"/>
    <nd ref="202476676"/>
    <nd ref="306534864"/>
    <nd ref="306534865"/>
    <nd ref="306534949"/>
    <nd ref="2817385332"/>
    <nd ref="202476673"/>
    <nd ref="202476669"/>
    <tag k="bicycle" v="no"/>
    <tag k="foot" v="no"/>
    <tag k="hgv" v="designated"/>
    <tag k="hgv:national_network" v="yes"/>
    <tag k="highway" v="motorway"/>
    <tag k="hov:lanes" v="designated|||"/>
    <tag k="lanes" v="4"/>
    <tag k="maxspeed" v="70 mph"/>
    <tag k="maxspeed:variable" v="peak_traffic"/>
    <tag k="oneway" v="yes"/>
    <tag k="ref" v="I 24"/>
    <tag k="start_date" v="1958"/>
  </way>
  <way id="108162452">
    <nd ref="202408525"/>
    <nd ref="202408520"/>
    <tag k="bridge" v="yes"/>
    <tag k="highway" v="motorway_link"/>
    <tag k="lanes" v="3"/>
    <tag k="layer" v="1"/>
    <tag k="oneway" v="yes"/>
    <tag k="tiger:cfcc" v="A41"/>
    <tag k="tiger:county" v="Davidson, TN"/>
    <tag k="tiger:name_base" v="Old Franklin"/>
    <tag k="tiger:name_type" v="Rd"/>
    <tag k="tiger:reviewed" v="no"/>
  </way>
  <way id="108162464">
    <nd ref="306535022"/>
    <nd ref="202192528"/>
    <tag k="bicycle" v="no"/>
    <tag k="hgv" v="designated"/>
    <tag k="hgv:national_network" v="yes"/>
    <tag k="highway" v="motorway"/>
    <tag k="hov:lanes" v="designated|||"/>
    <tag k="lanes" v="4"/>
    <tag k="maxspeed" v="70 mph"/>
    <tag k="maxspeed:variable" v="peak_traffic"/>
    <tag k="oneway" v="yes"/>
    <tag k="ref" v="I 24"/>
    <tag k="start_date" v="1958"/>
  </way>
  <way id="108162495">
    <nd ref="202177579"/>
    <nd ref="1241355752"/>
    <nd ref="1241355381"/>
    <nd ref="1241355110"/>
    <nd ref="1241357530"/>
    <nd ref="1241354914"/>
    <tag k="destination" v="Murfreesboro"/>
    <tag k="destination:ref" v="I 24 East"/>
    <tag k="highway" v="motorway_link"/>
    <tag k="lanes" v="1"/>
    <tag k="oneway" v="yes"/>
    <tag k="tiger:cfcc" v="A41"/>
    <tag k="tiger:county" v="Davidson, TN"/>
    <tag k="tiger:name_base" v="Old Franklin"/>
    <tag k="tiger:name_type" v="Rd"/>
    <tag k="tiger:reviewed" v="no"/>
  </way>
  <way id="173720363">
    <nd ref="1241356401"/>
    <nd ref="1844879461"/>
    <nd ref="1241356094"/>
    <nd ref="1844879450"/>
    <nd ref="9144973955"/>
    <tag k="bicycle" v="no"/>
    <tag k="foot" v="no"/>
    <tag k="hgv" v="designated"/>
    <tag k="hgv:national_network" v="yes"/>
    <tag k="highway" v="motorway"/>
    <tag k="hov:lanes" v="designated|||"/>
    <tag k="lanes" v="4"/>
    <tag k="maxspeed" v="70 mph"/>
    <tag k="maxspeed:variable" v="peak_traffic"/>
    <tag k="oneway" v="yes"/>
    <tag k="ref" v="I 24"/>
    <tag k="start_date" v="1969"/>
    <tag k="surface" v="asphalt"/>
  </way>
  <way id="173720368">
    <nd ref="1844879476"/>
    <nd ref="203575310"/>
    <nd ref="203575307"/>
    <nd ref="203575304"/>
    <nd ref="203575301"/>
    <nd ref="203575298"/>
    <tag k="bicycle" v="no"/>
    <tag k="hgv" v="designated"/>
    <tag k="hgv:national_network" v="yes"/>
    <tag k="highway" v="motorway"/>
    <tag k="hov:lanes" v="designated|||"/>
    <tag k="lanes" v="4"/>
    <tag k="maxspeed" v="70 mph"/>
    <tag k="maxspeed:variable" v="peak_traffic"/>
    <tag k="oneway" v="yes"/>
    <tag k="ref" v="I 24"/>
    <tag k="start_date" v="1958"/>
  </way>
  <way id="173720379">
    <nd ref="9246525115"/>
    <nd ref="203434367"/>
    <nd ref="203434364"/>
    <nd ref="1241357184"/>
    <nd ref="203434361"/>
    <tag k="destination" v="Nashville"/>
    <tag k="highway" v="motorway_link"/>
    <tag k="lanes" v="1"/>
    <tag k="oneway" v="yes"/>
    <tag k="start_date" v="1958"/>
  </way>
  <way id="180933344">
    <nd ref="1913883980"/>
    <nd ref="8674818209"/>
    <nd ref="8674818192"/>
    <nd ref="8674818196"/>
    <nd ref="8674818200"/>
    <nd ref="8674818204"/>
    <nd ref="1913883973"/>
    <nd ref="8674818207"/>
    <nd ref="8674818189"/>
    <nd ref="8674818193"/>
    <nd ref="8674818197"/>
    <nd ref="1913883971"/>
    <nd ref="8674818201"/>
    <nd ref="202226927"/>
    <tag k="destination" v="Lavergne"/>
    <tag k="destination:ref" v="TN 171 North"/>
    <tag k="highway" v="motorway_link"/>
    <tag k="oneway" v="yes"/>
    <tag k="start_date" v="1958"/>
  </way>
  <way id="180933346">
    <nd ref="1913883984"/>
    <nd ref="1913883985"/>
    <nd ref="1913883986"/>
    <nd ref="202229773"/>
    <tag k="highway" v="motorway_link"/>
    <tag k="lanes" v="1"/>
    <tag k="oneway" v="yes"/>
    <tag k="start_date" v="1958"/>
  </way>
  <way id="180933373">
    <nd ref="1241354710"/>
    <nd ref="9071903951"/>
    <nd ref="1913884055"/>
    <nd ref="9071903950"/>
    <nd ref="9867262322"/>
    <nd ref="3768323496"/>
    <nd ref="1913884057"/>
    <nd ref="9867239109"/>
    <nd ref="9071903949"/>
    <nd ref="3768323498"/>
    <nd ref="9867262319"/>
    <nd ref="202273915"/>
    <tag k="highway" v="motorway_link"/>
    <tag k="lanes" v="1"/>
    <tag k="oneway" v="yes"/>
    <tag k="surface" v="asphalt"/>
  </way>
  <way id="180933381">
    <nd ref="1913884026"/>
    <nd ref="1913884012"/>
    <nd ref="2030704008"/>
    <nd ref="1913884007"/>
    <nd ref="1913884002"/>
    <nd ref="2030704062"/>
    <nd ref="1913884005"/>
    <tag k="destination:ref" v="I 24 West"/>
    <tag k="highway" v="motorway_link"/>
    <tag k="lanes" v="1"/>
    <tag k="oneway" v="yes"/>
    <tag k="start_date" v="1958"/>
  </way>
  <way id="180933386">
    <nd ref="1913883946"/>
    <nd ref="8674817193"/>
    <nd ref="1913883949"/>
    <nd ref="8674817197"/>
    <nd ref="1913883953"/>
    <nd ref="8674817178"/>
    <nd ref="8674817182"/>
    <nd ref="1913883960"/>
    <nd ref="8674817186"/>
    <nd ref="8674817190"/>
    <nd ref="1913883963"/>
    <nd ref="8674817194"/>
    <nd ref="8674817198"/>
    <nd ref="8674817179"/>
    <nd ref="1913883961"/>
    <tag k="destination:ref" v="I 24 East"/>
    <tag k="highway" v="motorway_link"/>
    <tag k="lanes" v="1"/>
    <tag k="oneway" v="yes"/>
    <tag k="start_date" v="1958"/>
  </way>
  <way id="180933392">
    <nd ref="1913883938"/>
    <nd ref="1844879458"/>
    <nd ref="203466258"/>
    <nd ref="1241356824"/>
    <nd ref="1241354641"/>
    <nd ref="1241357486"/>
    <nd ref="1241356094"/>
    <tag k="destination" v="Chattanooga"/>
    <tag k="destination:ref" v="I 24 East"/>
    <tag k="highway" v="motorway_link"/>
    <tag k="lanes" v="1"/>
    <tag k="oneway" v="yes"/>
    <tag k="start_date" v="1969"/>
  </way>
  <way id="180933397">
    <nd ref="1913883944"/>
    <nd ref="1913883959"/>
    <nd ref="1913883974"/>
    <nd ref="1913883981"/>
    <nd ref="1913883982"/>
    <nd ref="10610814539"/>
    <tag k="destination" v="Old Hickory Boulevard"/>
    <tag k="destination:ref" v="SR 171"/>
    <tag k="highway" v="motorway_link"/>
    <tag k="junction:ref" v="62"/>
    <tag k="lanes" v="1"/>
    <tag k="maxspeed:advisory" v="40 mph"/>
    <tag k="oneway" v="yes"/>
    <tag k="start_date" v="1958"/>
  </way>
  <way id="180933400">
    <nd ref="202476638"/>
    <nd ref="8993543865"/>
    <tag k="destination" v="Old Hickory Boulevard"/>
    <tag k="destination:ref" v="SR 171"/>
    <tag k="highway" v="motorway_link"/>
    <tag k="junction:ref" v="62"/>
    <tag k="lanes" v="2"/>
    <tag k="maxspeed:advisory" v="40 mph"/>
    <tag k="oneway" v="yes"/>
    <tag k="start_date" v="1958"/>
  </way>
  <way id="180935178">
    <nd ref="1913922187"/>
    <nd ref="1241354986"/>
    <nd ref="1241354761"/>
    <tag k="destination" v="Chattanooga"/>
    <tag k="destination:ref" v="I 24 East"/>
    <tag k="highway" v="motorway_link"/>
    <tag k="lanes" v="1"/>
    <tag k="oneway" v="yes"/>
    <tag k="start_date" v="1958"/>
  </way>
  <way id="277208926">
    <nd ref="202192538"/>
    <nd ref="202192534"/>
    <nd ref="2817385329"/>
    <nd ref="2817385330"/>
    <nd ref="2817385331"/>
    <nd ref="202192531"/>
    <nd ref="202192528"/>
    <tag k="destination" v="Nashville"/>
    <tag k="destination:ref" v="I 24 West"/>
    <tag k="highway" v="motorway_link"/>
    <tag k="lanes" v="1"/>
    <tag k="oneway" v="yes"/>
    <tag k="start_date" v="1958"/>
  </way>
  <way id="277208927">
    <nd ref="202186124"/>
    <nd ref="3768323499"/>
    <nd ref="1241354761"/>
    <nd ref="1241355160"/>
    <nd ref="1241355938"/>
    <nd ref="1241357122"/>
    <nd ref="1241354504"/>
    <nd ref="306535227"/>
    <nd ref="2817385328"/>
    <nd ref="202186134"/>
    <tag k="destination" v="Chattanooga"/>
    <tag k="destination:ref" v="I 24 East"/>
    <tag k="highway" v="motorway_link"/>
    <tag k="lanes" v="1"/>
    <tag k="oneway" v="yes"/>
    <tag k="start_date" v="1958"/>
  </way>
  <way id="579607523">
    <nd ref="1913883980"/>
    <nd ref="8674818190"/>
    <nd ref="8674818194"/>
    <nd ref="8674818198"/>
    <nd ref="8674818202"/>
    <nd ref="1913883964"/>
    <nd ref="8674818205"/>
    <nd ref="8674818208"/>
    <nd ref="8674818191"/>
    <nd ref="1913883950"/>
    <nd ref="1913883946"/>
    <tag k="highway" v="motorway_link"/>
    <tag k="lanes" v="1"/>
    <tag k="oneway" v="yes"/>
    <tag k="start_date" v="1958"/>
  </way>
  <way id="579664791">
    <nd ref="5550966522"/>
    <nd ref="202186124"/>
    <tag k="highway" v="motorway_link"/>
    <tag k="lanes" v="3"/>
    <tag k="oneway" v="yes"/>
    <tag k="start_date" v="1958"/>
    <tag k="turn:lanes" v="left|left;right|right"/>
  </way>
  <way id="634155175">
    <nd ref="202192528"/>
    <nd ref="202477466"/>
    <tag k="bicycle" v="no"/>
    <tag k="hgv" v="designated"/>
    <tag k="hgv:national_network" v="yes"/>
    <tag k="highway" v="motorway"/>
    <tag k="hov:lanes" v="designated|||"/>
    <tag k="lanes" v="4"/>
    <tag k="maxspeed" v="70 mph"/>
    <tag k="maxspeed:variable" v="peak_traffic"/>
    <tag k="oneway" v="yes"/>
    <tag k="ref" v="I 24"/>
    <tag k="start_date" v="1958"/>
  </way>
  <way id="634155184">
    <nd ref="202186118"/>
    <nd ref="306535019"/>
    <tag k="bicycle" v="no"/>
    <tag k="foot" v="no"/>
    <tag k="hgv" v="designated"/>
    <tag k="hgv:national_network" v="yes"/>
    <tag k="highway" v="motorway"/>
    <tag k="hov:lanes" v="designated|||"/>
    <tag k="lanes" v="4"/>
    <tag k="maxspeed" v="70 mph"/>
    <tag k="maxspeed:variable" v="peak_traffic"/>
    <tag k="oneway" v="yes"/>
    <tag k="ref" v="I 24"/>
    <tag k="start_date" v="1958"/>
  </way>
  <way id="635462234">
    <nd ref="202476620"/>
    <nd ref="1844879477"/>
    <nd ref="2817385322"/>
    <nd ref="2817385321"/>
    <nd ref="1844879475"/>
    <nd ref="2817385320"/>
    <nd ref="1844879472"/>
    <nd ref="2817385319"/>
    <nd ref="1844879469"/>
    <nd ref="1844879467"/>
    <nd ref="1844879465"/>
    <nd ref="9164675597"/>
    <tag k="bicycle" v="no"/>
    <tag k="foot" v="no"/>
    <tag k="hgv" v="designated"/>
    <tag k="hgv:national_network" v="yes"/>
    <tag k="highway" v="motorway"/>
    <tag k="hov:lanes" v="designated|||"/>
    <tag k="lanes" v="4"/>
    <tag k="maxspeed" v="70 mph"/>
    <tag k="maxspeed:variable" v="peak_traffic"/>
    <tag k="oneway" v="yes"/>
    <tag k="ref" v="I 24"/>
    <tag k="start_date" v="1958"/>
    <tag k="surface" v="asphalt"/>
  </way>
  <way id="635462235">
    <nd ref="203434361"/>
    <nd ref="1844879470"/>
    <nd ref="1844879471"/>
    <nd ref="1844879473"/>
    <nd ref="1844879474"/>
    <nd ref="1844879476"/>
    <tag k="bicycle" v="no"/>
    <tag k="hgv" v="designated"/>
    <tag k="hgv:national_network" v="yes"/>
    <tag k="highway" v="motorway"/>
    <tag k="hov:lanes" v="designated|||"/>
    <tag k="lanes" v="4"/>
    <tag k="maxspeed" v="70 mph"/>
    <tag k="maxspeed:variable" v="peak_traffic"/>
    <tag k="oneway" v="yes"/>
    <tag k="ref" v="I 24"/>
    <tag k="start_date" v="1958"/>
  </way>
  <way id="683657786">
    <nd ref="202226927"/>
    <nd ref="1913883965"/>
    <nd ref="1913883961"/>
    <nd ref="8674817183"/>
    <nd ref="8674817187"/>
    <nd ref="1913883952"/>
    <nd ref="8674817191"/>
    <nd ref="8674817195"/>
    <nd ref="8674817176"/>
    <nd ref="1913883947"/>
    <nd ref="8674817180"/>
    <nd ref="1913883945"/>
    <nd ref="8674817184"/>
    <nd ref="8674817188"/>
    <nd ref="1913883943"/>
    <nd ref="8674817192"/>
    <nd ref="8674817196"/>
    <nd ref="8674817177"/>
    <nd ref="8674817181"/>
    <nd ref="8674817185"/>
    <nd ref="1913883940"/>
    <tag k="destination" v="Chattanooga"/>
    <tag k="destination:ref" v="I 24 East"/>
    <tag k="highway" v="motorway_link"/>
    <tag k="lanes" v="1"/>
    <tag k="oneway" v="yes"/>
    <tag k="start_date" v="1958"/>
  </way>
  <way id="963570017">
    <nd ref="8913055537"/>
    <nd ref="8913055538"/>
    <nd ref="8913055539"/>
    <nd ref="12338753965"/>
    <nd ref="8913055540"/>
    <nd ref="12338753988"/>
    <nd ref="8913055541"/>
    <tag k="destination" v="Hickory Hollow Parkway"/>
    <tag k="highway" v="motorway_link"/>
    <tag k="junction:ref" v="60A"/>
    <tag k="lanes" v="1"/>
    <tag k="oneway" v="yes"/>
  </way>
  <way id="963570018">
    <nd ref="202186134"/>
    <nd ref="306535230"/>
    <nd ref="8913055537"/>
    <tag k="bicycle" v="no"/>
    <tag k="destination:lanes" v="||||William Turner Parkway;Hickory Hollow Parkway"/>
    <tag k="foot" v="no"/>
    <tag k="hgv" v="designated"/>
    <tag k="hgv:national_network" v="yes"/>
    <tag k="highway" v="motorway"/>
    <tag k="hov:lanes" v="designated||||"/>
    <tag k="lanes" v="5"/>
    <tag k="maxspeed" v="70 mph"/>
    <tag k="maxspeed:variable" v="peak_traffic"/>
    <tag k="oneway" v="yes"/>
    <tag k="ref" v="I 24"/>
    <tag k="start_date" v="1958"/>
    <tag k="turn:lanes" v="||||through;slight_right"/>
  </way>
  <way id="963570019">
    <nd ref="8913055537"/>
    <nd ref="202476655"/>
    <nd ref="202236780"/>
    <tag k="bicycle" v="no"/>
    <tag k="foot" v="no"/>
    <tag k="hgv" v="designated"/>
    <tag k="hgv:national_network" v="yes"/>
    <tag k="highway" v="motorway"/>
    <tag k="hov:lanes" v="designated||||"/>
    <tag k="lanes" v="5"/>
    <tag k="maxspeed" v="70 mph"/>
    <tag k="maxspeed:variable" v="peak_traffic"/>
    <tag k="oneway" v="yes"/>
    <tag k="ref" v="I 24"/>
    <tag k="start_date" v="1958"/>
  </way>
  <way id="963570020">
    <nd ref="9376142894"/>
    <nd ref="1241356963"/>
    <nd ref="1241354465"/>
    <nd ref="1241355505"/>
    <nd ref="1241354682"/>
    <nd ref="202408605"/>
    <nd ref="9137728500"/>
    <tag k="bicycle" v="no"/>
    <tag k="foot" v="no"/>
    <tag k="hgv" v="designated"/>
    <tag k="hgv:national_network" v="yes"/>
    <tag k="highway" v="motorway"/>
    <tag k="hov:lanes" v="designated|||"/>
    <tag k="lanes" v="4"/>
    <tag k="maxspeed" v="70 mph"/>
    <tag k="maxspeed:variable" v="peak_traffic"/>
    <tag k="oneway" v="yes"/>
    <tag k="ref" v="I 24"/>
    <tag k="start_date" v="1958"/>
  </way>
  <way id="963570021">
    <nd ref="8913055548"/>
    <nd ref="202236766"/>
    <nd ref="202408513"/>
    <tag k="bridge" v="yes"/>
    <tag k="highway" v="motorway_link"/>
    <tag k="lanes" v="1"/>
    <tag k="layer" v="1"/>
    <tag k="oneway" v="yes"/>
    <tag k="tiger:cfcc" v="A41"/>
    <tag k="tiger:county" v="Davidson, TN"/>
    <tag k="tiger:name_base" v="Old Franklin"/>
    <tag k="tiger:name_type" v="Rd"/>
    <tag k="tiger:reviewed" v="no"/>
  </way>
  <way id="963570022">
    <nd ref="202408513"/>
    <nd ref="9376142902"/>
    <nd ref="1241356501"/>
    <nd ref="1241357275"/>
    <nd ref="1241355393"/>
    <nd ref="2817385324"/>
    <nd ref="2817385323"/>
    <nd ref="1241354682"/>
    <tag k="highway" v="motorway_link"/>
    <tag k="lanes" v="1"/>
    <tag k="oneway" v="yes"/>
    <tag k="tiger:cfcc" v="A41"/>
    <tag k="tiger:county" v="Davidson, TN"/>
    <tag k="tiger:name_base" v="Old Franklin"/>
    <tag k="tiger:name_type" v="Rd"/>
    <tag k="tiger:reviewed" v="no"/>
  </way>
  <way id="970544143">
    <nd ref="8981974058"/>
    <nd ref="203433326"/>
    <nd ref="203433325"/>
    <tag k="destination" v="La Vergne;Waldron Road"/>
    <tag k="destination:lanes" v="none|La Vergne"/>
    <tag k="highway" v="motorway_link"/>
    <tag k="lanes" v="2"/>
    <tag k="oneway" v="yes"/>
    <tag k="tiger:cfcc" v="A63"/>
    <tag k="tiger:county" v="Rutherford, TN"/>
    <tag k="tiger:reviewed" v="no"/>
    <tag k="turn:lanes" v="|right"/>
  </way>
  <way id="970544144">
    <nd ref="203433325"/>
    <nd ref="203433323"/>
    <nd ref="1241355461"/>
    <nd ref="203433320"/>
    <tag k="destination" v="La Vergne;Waldron Road"/>
    <tag k="highway" v="motorway_link"/>
    <tag k="lanes" v="1"/>
    <tag k="oneway" v="yes"/>
    <tag k="start_date" v="1958"/>
    <tag k="turn:lanes" v="right"/>
  </way>
  <way id="971686034">
    <nd ref="8993543865"/>
    <nd ref="1913884015"/>
    <nd ref="1913883988"/>
    <nd ref="8674818206"/>
    <nd ref="1913883983"/>
    <nd ref="8674818203"/>
    <nd ref="8674818199"/>
    <nd ref="8674818195"/>
    <nd ref="1913883980"/>
    <tag k="destination:ref" v="SR 171"/>
    <tag k="destination:street" v="Old Hickory Boulevard"/>
    <tag k="highway" v="motorway_link"/>
    <tag k="junction:ref" v="62"/>
    <tag k="lanes" v="3"/>
    <tag k="maxspeed:advisory" v="40 mph"/>
    <tag k="oneway" v="yes"/>
    <tag k="start_date" v="1958"/>
    <tag k="turn:lanes" v="left|left|right"/>
  </way>
  <way id="971686433">
    <nd ref="8993543866"/>
    <nd ref="1241355151"/>
    <nd ref="202192538"/>
    <tag k="destination:ref" v="SR 254"/>
    <tag k="destination:street" v="Bell Road"/>
    <tag k="highway" v="motorway_link"/>
    <tag k="junction:ref" v="59"/>
    <tag k="lanes" v="2"/>
    <tag k="maxspeed:advisory" v="30 mph"/>
    <tag k="oneway" v="yes"/>
    <tag k="start_date" v="1958"/>
  </way>
  <way id="974949114">
    <nd ref="1913883944"/>
    <nd ref="1913884051"/>
    <tag k="bicycle" v="no"/>
    <tag k="hgv" v="designated"/>
    <tag k="hgv:national_network" v="yes"/>
    <tag k="highway" v="motorway"/>
    <tag k="hov:lanes" v="designated|||"/>
    <tag k="lanes" v="4"/>
    <tag k="maxspeed" v="70 mph"/>
    <tag k="maxspeed:variable" v="peak_traffic"/>
    <tag k="oneway" v="yes"/>
    <tag k="ref" v="I 24"/>
    <tag k="start_date" v="1958"/>
  </way>
  <way id="975594795">
    <nd ref="203434375"/>
    <nd ref="1844879462"/>
    <nd ref="1844879464"/>
    <nd ref="1844879466"/>
    <nd ref="203434361"/>
    <tag k="bicycle" v="no"/>
    <tag k="hgv" v="designated"/>
    <tag k="hgv:national_network" v="yes"/>
    <tag k="highway" v="motorway"/>
    <tag k="hov:lanes" v="designated|||"/>
    <tag k="lanes" v="4"/>
    <tag k="maxspeed" v="70 mph"/>
    <tag k="maxspeed:variable" v="peak_traffic"/>
    <tag k="oneway" v="yes"/>
    <tag k="ref" v="I 24"/>
    <tag k="start_date" v="1969"/>
  </way>
  <way id="975594796">
    <nd ref="9028108532"/>
    <nd ref="1844879431"/>
    <nd ref="1844879432"/>
    <nd ref="1844879436"/>
    <nd ref="2817385315"/>
    <nd ref="1844879437"/>
    <nd ref="2817385317"/>
    <nd ref="2817385318"/>
    <nd ref="1844879442"/>
    <nd ref="1844879447"/>
    <nd ref="1844879449"/>
    <nd ref="1844879451"/>
    <nd ref="203434375"/>
    <tag k="bicycle" v="no"/>
    <tag k="destination:lanes" v="|||none;Waldron Road;La Vergne"/>
    <tag k="hgv" v="designated"/>
    <tag k="hgv:national_network" v="yes"/>
    <tag k="highway" v="motorway"/>
    <tag k="hov:lanes" v="designated|||"/>
    <tag k="lanes" v="4"/>
    <tag k="maxspeed" v="70 mph"/>
    <tag k="maxspeed:variable" v="peak_traffic"/>
    <tag k="oneway" v="yes"/>
    <tag k="ref" v="I 24"/>
    <tag k="start_date" v="1969"/>
    <tag k="turn:lanes" v="|||through;slight_right"/>
  </way>
  <way id="977008891">
    <nd ref="202177572"/>
    <nd ref="2817385325"/>
    <nd ref="1241355518"/>
    <nd ref="2817385327"/>
    <nd ref="1241356246"/>
    <nd ref="202477424"/>
    <nd ref="202477428"/>
    <nd ref="202185444"/>
    <tag k="bicycle" v="no"/>
    <tag k="hgv" v="designated"/>
    <tag k="hgv:national_network" v="yes"/>
    <tag k="highway" v="motorway"/>
    <tag k="hov:lanes" v="designated|||"/>
    <tag k="lanes" v="4"/>
    <tag k="maxspeed" v="70 mph"/>
    <tag k="maxspeed:variable" v="peak_traffic"/>
    <tag k="oneway" v="yes"/>
    <tag k="ref" v="I 24"/>
    <tag k="start_date" v="1958"/>
  </way>
  <way id="977008892">
    <nd ref="9041165758"/>
    <nd ref="202177572"/>
    <tag k="bicycle" v="no"/>
    <tag k="destination:lanes" v="none|none|none|Bell Road|Hickory Hollow Parkway"/>
    <tag k="hgv" v="designated"/>
    <tag k="hgv:national_network" v="yes"/>
    <tag k="highway" v="motorway"/>
    <tag k="hov:lanes" v="designated||||"/>
    <tag k="lanes" v="5"/>
    <tag k="maxspeed" v="70 mph"/>
    <tag k="maxspeed:variable" v="peak_traffic"/>
    <tag k="oneway" v="yes"/>
    <tag k="ref" v="I 24"/>
    <tag k="turn:lanes" v="none|none|none|none|slight_right"/>
  </way>
  <way id="977008893">
    <nd ref="9041165759"/>
    <nd ref="202477403"/>
    <nd ref="202408635"/>
    <nd ref="202477411"/>
    <nd ref="9041165758"/>
    <tag k="bicycle" v="no"/>
    <tag k="hgv" v="designated"/>
    <tag k="hgv:national_network" v="yes"/>
    <tag k="highway" v="motorway"/>
    <tag k="hov:lanes" v="designated|||"/>
    <tag k="lanes" v="4"/>
    <tag k="maxspeed" v="70 mph"/>
    <tag k="maxspeed:variable" v="peak_traffic"/>
    <tag k="oneway" v="yes"/>
    <tag k="ref" v="I 24"/>
    <tag k="start_date" v="1958"/>
  </way>
  <way id="977008894">
    <nd ref="1913884051"/>
    <nd ref="9041165759"/>
    <tag k="bicycle" v="no"/>
    <tag k="hgv" v="designated"/>
    <tag k="hgv:national_network" v="yes"/>
    <tag k="highway" v="motorway"/>
    <tag k="hov:lanes" v="designated||||"/>
    <tag k="lanes" v="5"/>
    <tag k="maxspeed" v="70 mph"/>
    <tag k="maxspeed:variable" v="peak_traffic"/>
    <tag k="oneway" v="yes"/>
    <tag k="ref" v="I 24"/>
    <tag k="start_date" v="1958"/>
  </way>
  <way id="977816372">
    <nd ref="9047712019"/>
    <nd ref="202186118"/>
    <tag k="bicycle" v="no"/>
    <tag k="destination:lanes" v="|||Hickory Hollow Parkway;William Turner Parkway|Bell Road|Bell Road"/>
    <tag k="foot" v="no"/>
    <tag k="hgv" v="designated"/>
    <tag k="hgv:national_network" v="yes"/>
    <tag k="highway" v="motorway"/>
    <tag k="hov:lanes" v="designated|||||"/>
    <tag k="lanes" v="6"/>
    <tag k="maxspeed" v="70 mph"/>
    <tag k="maxspeed:variable" v="peak_traffic"/>
    <tag k="oneway" v="yes"/>
    <tag k="ref" v="I 24"/>
    <tag k="start_date" v="1958"/>
    <tag k="turn:lanes" v="||||slight_right|slight_right"/>
  </way>
  <way id="988591740">
    <nd ref="202476638"/>
    <nd ref="202226921"/>
    <nd ref="1913883940"/>
    <nd ref="202476629"/>
    <nd ref="202476625"/>
    <nd ref="202476620"/>
    <tag k="bicycle" v="no"/>
    <tag k="foot" v="no"/>
    <tag k="hgv" v="designated"/>
    <tag k="hgv:national_network" v="yes"/>
    <tag k="highway" v="motorway"/>
    <tag k="hov:lanes" v="designated|||"/>
    <tag k="lanes" v="4"/>
    <tag k="maxspeed" v="70 mph"/>
    <tag k="maxspeed:variable" v="peak_traffic"/>
    <tag k="oneway" v="yes"/>
    <tag k="ref" v="I 24"/>
    <tag k="start_date" v="1958"/>
  </way>
  <way id="988591741">
    <nd ref="9137728500"/>
    <nd ref="202476638"/>
    <tag k="bicycle" v="no"/>
    <tag k="destination:lanes" v="none|none|none|none;Old Hickory Boulevard|Old Hickory Boulevard"/>
    <tag k="foot" v="no"/>
    <tag k="hgv" v="designated"/>
    <tag k="hgv:national_network" v="yes"/>
    <tag k="highway" v="motorway"/>
    <tag k="hov:lanes" v="designated||||"/>
    <tag k="lanes" v="5"/>
    <tag k="maxspeed" v="70 mph"/>
    <tag k="maxspeed:variable" v="peak_traffic"/>
    <tag k="oneway" v="yes"/>
    <tag k="ref" v="I 24"/>
    <tag k="start_date" v="1958"/>
    <tag k="turn:lanes" v="none|none|none|through;slight_right|slight_right"/>
  </way>
  <way id="991921939">
    <nd ref="9164675597"/>
    <nd ref="1241356401"/>
    <tag k="bicycle" v="no"/>
    <tag k="destination:lanes" v="none|none|none|none|Waldron Road;La Vergne"/>
    <tag k="foot" v="no"/>
    <tag k="hgv" v="designated"/>
    <tag k="hgv:national_network" v="yes"/>
    <tag k="highway" v="motorway"/>
    <tag k="hov:lanes" v="designated||||"/>
    <tag k="lanes" v="5"/>
    <tag k="maxspeed" v="70 mph"/>
    <tag k="maxspeed:variable" v="peak_traffic"/>
    <tag k="oneway" v="yes"/>
    <tag k="ref" v="I 24"/>
    <tag k="start_date" v="1958"/>
    <tag k="surface" v="asphalt"/>
    <tag k="turn:lanes" v="none|none|none|none|right"/>
  </way>
  <way id="992666042">
    <nd ref="202192541"/>
    <nd ref="306535021"/>
    <tag k="bicycle" v="no"/>
    <tag k="hgv" v="designated"/>
    <tag k="hgv:national_network" v="yes"/>
    <tag k="highway" v="motorway"/>
    <tag k="hov:lanes" v="designated|||"/>
    <tag k="lanes" v="4"/>
    <tag k="maxspeed" v="70 mph"/>
    <tag k="maxspeed:variable" v="peak_traffic"/>
    <tag k="oneway" v="yes"/>
    <tag k="ref" v="I 24"/>
    <tag k="start_date" v="1958"/>
  </way>
  <way id="992666043">
    <nd ref="202185444"/>
    <nd ref="202192541"/>
    <tag k="bicycle" v="no"/>
    <tag k="destination:lanes" v="none|none|none|none|Bell Road"/>
    <tag k="hgv" v="designated"/>
    <tag k="hgv:national_network" v="yes"/>
    <tag k="highway" v="motorway"/>
    <tag k="hov:lanes" v="designated||||"/>
    <tag k="lanes" v="5"/>
    <tag k="maxspeed" v="70 mph"/>
    <tag k="maxspeed:variable" v="peak_traffic"/>
    <tag k="oneway" v="yes"/>
    <tag k="ref" v="I 24"/>
    <tag k="start_date" v="1958"/>
    <tag k="turn:lanes" v="none|none|none|none|slight_right"/>
  </way>
  <way id="1001808204">
    <nd ref="203434370"/>
    <nd ref="10182160158"/>
    <nd ref="10182160157"/>
    <nd ref="10182160150"/>
    <nd ref="9246525115"/>
    <tag k="destination" v="Nashville"/>
    <tag k="destination:ref" v="I 24 West"/>
    <tag k="highway" v="motorway_link"/>
    <tag k="lanes" v="2"/>
    <tag k="oneway" v="yes"/>
    <tag k="start_date" v="1958"/>
  </way>
  <way id="1016548836">
    <nd ref="9376142880"/>
    <nd ref="12338775341"/>
    <nd ref="12338775417"/>
    <nd ref="9376129900"/>
    <nd ref="12338775366"/>
    <nd ref="12338753992"/>
    <nd ref="9376129901"/>
    <nd ref="9376142842"/>
    <nd ref="9376129902"/>
    <nd ref="12338775397"/>
    <nd ref="12338775412"/>
    <nd ref="9376129904"/>
    <nd ref="12338753977"/>
    <nd ref="12338753950"/>
    <nd ref="12338775381"/>
    <nd ref="9376129903"/>
    <tag k="destination" v="Nashville"/>
    <tag k="destination:ref" v="I 24 West"/>
    <tag k="highway" v="motorway_link"/>
    <tag k="oneway" v="yes"/>
  </way>
  <way id="1016548837">
    <nd ref="8913055543"/>
    <nd ref="9376129877"/>
    <nd ref="12338775326"/>
    <nd ref="9376129878"/>
    <nd ref="9376129879"/>
    <tag k="destination" v="Century Farms Parkway"/>
    <tag k="highway" v="motorway_link"/>
    <tag k="oneway" v="yes"/>
  </way>
  <way id="1016548847">
    <nd ref="9376142838"/>
    <nd ref="12338753978"/>
    <nd ref="12338775306"/>
    <nd ref="9376142839"/>
    <nd ref="12338775323"/>
    <nd ref="12338753948"/>
    <nd ref="9376142840"/>
    <nd ref="12338775343"/>
    <nd ref="12338753980"/>
    <nd ref="12338775338"/>
    <nd ref="12338775339"/>
    <nd ref="202185438"/>
    <tag k="destination" v="Nashville"/>
    <tag k="destination:ref" v="I 24 West"/>
    <tag k="highway" v="motorway_link"/>
    <tag k="oneway" v="yes"/>
  </way>
  <way id="1016548848">
    <nd ref="202408518"/>
    <nd ref="12338775304"/>
    <nd ref="12338753949"/>
    <nd ref="9376142841"/>
    <nd ref="12338775376"/>
    <nd ref="13432787825"/>
    <nd ref="12338754000"/>
    <nd ref="9376142842"/>
    <nd ref="9376142843"/>
    <nd ref="12338775423"/>
    <nd ref="9376129879"/>
    <tag k="highway" v="motorway_link"/>
    <tag k="oneway" v="yes"/>
  </way>
  <way id="1016548854">
    <nd ref="9376142868"/>
    <nd ref="12338775415"/>
    <nd ref="12338775336"/>
    <nd ref="9376142871"/>
    <nd ref="9376142872"/>
    <nd ref="9376129906"/>
    <tag k="highway" v="motorway_link"/>
    <tag k="oneway" v="yes"/>
  </way>
  <way id="1016548857">
    <nd ref="9376142876"/>
    <nd ref="12338753954"/>
    <nd ref="12338775405"/>
    <nd ref="12338753962"/>
    <nd ref="12338775407"/>
    <nd ref="9376142877"/>
    <nd ref="12338753981"/>
    <nd ref="12338775330"/>
    <nd ref="9376142878"/>
    <nd ref="12338775337"/>
    <nd ref="12338775333"/>
    <nd ref="9376142879"/>
    <tag k="destination" v="William Turner Parkway"/>
    <tag k="highway" v="motorway_link"/>
    <tag k="oneway" v="yes"/>
  </way>
  <way id="1016548858">
    <nd ref="9376142880"/>
    <nd ref="9376142881"/>
    <nd ref="12338753975"/>
    <nd ref="12338775332"/>
    <nd ref="12338775302"/>
    <nd ref="9376142882"/>
    <nd ref="12338775353"/>
    <nd ref="12338775364"/>
    <nd ref="12338775316"/>
    <nd ref="12338775308"/>
    <nd ref="9376142883"/>
    <tag k="destination" v="Murfreesboro"/>
    <tag k="destination:ref" v="I 24 East"/>
    <tag k="highway" v="motorway_link"/>
    <tag k="oneway" v="yes"/>
  </way>
  <way id="1016548859">
    <nd ref="9376142894"/>
    <nd ref="12338753970"/>
    <nd ref="12338775311"/>
    <nd ref="9376142893"/>
    <nd ref="12338753984"/>
    <nd ref="12338775430"/>
    <nd ref="9376142892"/>
    <nd ref="12338753997"/>
    <nd ref="12338775418"/>
    <nd ref="12338775395"/>
    <nd ref="12338775387"/>
    <nd ref="9376142891"/>
    <nd ref="12338775344"/>
    <nd ref="9376142890"/>
    <nd ref="12338775325"/>
    <nd ref="12338775351"/>
    <nd ref="9376142889"/>
    <nd ref="12338775377"/>
    <nd ref="9376142888"/>
    <nd ref="12338753955"/>
    <nd ref="12338753979"/>
    <nd ref="9376142887"/>
    <nd ref="12338775379"/>
    <nd ref="9376142886"/>
    <nd ref="12338775303"/>
    <nd ref="9376142885"/>
    <nd ref="9376142884"/>
    <nd ref="9376142873"/>
    <tag k="destination" v="William Turner Parkway"/>
    <tag k="highway" v="motorway_link"/>
    <tag k="junction:ref" v="60B"/>
    <tag k="oneway" v="yes"/>
  </way>
  <way id="1016548860">
    <nd ref="9376142870"/>
    <nd ref="9376142895"/>
    <nd ref="12338775357"/>
    <nd ref="9376142896"/>
    <nd ref="12338775398"/>
    <nd ref="12338753974"/>
    <nd ref="9376142897"/>
    <nd ref="12338753946"/>
    <nd ref="12338775428"/>
    <nd ref="9376142898"/>
    <nd ref="9376142899"/>
    <nd ref="9376142900"/>
    <nd ref="9376142901"/>
    <nd ref="9376142902"/>
    <tag k="highway" v="motorway_link"/>
    <tag k="oneway" v="yes"/>
  </way>
  <way id="1018464994">
    <nd ref="202236780"/>
    <nd ref="202476648"/>
    <nd ref="2817385326"/>
    <nd ref="9376142894"/>
    <tag k="bicycle" v="no"/>
    <tag k="destination:lanes" v="none|none|none|none|William Turner Parkway"/>
    <tag k="foot" v="no"/>
    <tag k="hgv" v="designated"/>
    <tag k="hgv:national_network" v="yes"/>
    <tag k="highway" v="motorway"/>
    <tag k="hov:lanes" v="designated||||"/>
    <tag k="lanes" v="5"/>
    <tag k="maxspeed" v="70 mph"/>
    <tag k="maxspeed:variable" v="peak_traffic"/>
    <tag k="oneway" v="yes"/>
    <tag k="ref" v="I 24"/>
    <tag k="start_date" v="1958"/>
    <tag k="turn:lanes" v="none|none|none|none|right"/>
  </way>
  <way id="1025207009">
    <nd ref="9452907252"/>
    <nd ref="9452907253"/>
    <nd ref="202177579"/>
    <tag k="destination:lanes" v="Murfreesboro|Murfreesboro|Murfreesboro;Nashville"/>
    <tag k="highway" v="motorway_link"/>
    <tag k="lanes" v="3"/>
    <tag k="oneway" v="yes"/>
    <tag k="tiger:cfcc" v="A41"/>
    <tag k="tiger:county" v="Davidson, TN"/>
    <tag k="tiger:name_base" v="Hickory Hollow"/>
    <tag k="tiger:name_type" v="Pky"/>
    <tag k="tiger:reviewed" v="no"/>
    <tag k="tiger:zip_left" v="37013"/>
    <tag k="tiger:zip_right" v="37013"/>
    <tag k="turn:lanes" v="none|none|through;slight_right"/>
  </way>
  <way id="1032588143">
    <nd ref="1241355233"/>
    <nd ref="12338775334"/>
    <nd ref="8913055535"/>
    <nd ref="9376142838"/>
    <tag k="destination:lanes" v="Nashville;none|none|none"/>
    <tag k="highway" v="motorway_link"/>
    <tag k="lanes" v="3"/>
    <tag k="oneway" v="yes"/>
    <tag k="tiger:cfcc" v="A63"/>
    <tag k="tiger:county" v="Davidson, TN"/>
    <tag k="tiger:reviewed" v="no"/>
    <tag k="turn:lanes" v="slight_left;through|none|none"/>
  </way>
  <way id="1040737038">
    <nd ref="9217400228"/>
    <nd ref="9582298370"/>
    <nd ref="9582298371"/>
    <nd ref="9582298372"/>
    <nd ref="9582298373"/>
    <nd ref="9582298374"/>
    <nd ref="9582298381"/>
    <nd ref="9582298375"/>
    <nd ref="9582298380"/>
    <nd ref="9582298376"/>
    <nd ref="9582298379"/>
    <nd ref="9582298377"/>
    <nd ref="9582298378"/>
    <nd ref="202408525"/>
    <tag k="destination" v="Century Farms Parkway"/>
    <tag k="highway" v="motorway_link"/>
    <tag k="lanes" v="2"/>
    <tag k="oneway" v="yes"/>
    <tag k="turn:lanes" v="left|left"/>
  </way>
  <way id="1041349650">
    <nd ref="202408520"/>
    <nd ref="202408518"/>
    <tag k="destination:lanes" v="Murfreesboro;none||"/>
    <tag k="highway" v="motorway_link"/>
    <tag k="lanes" v="3"/>
    <tag k="oneway" v="yes"/>
    <tag k="tiger:cfcc" v="A41"/>
    <tag k="tiger:county" v="Davidson, TN"/>
    <tag k="tiger:name_base" v="Old Franklin"/>
    <tag k="tiger:name_type" v="Rd"/>
    <tag k="tiger:reviewed" v="no"/>
    <tag k="turn:lanes" v="slight_left;through|through|through"/>
  </way>
  <way id="1070403831">
    <nd ref="202229773"/>
    <nd ref="1913883987"/>
    <nd ref="1913884000"/>
    <nd ref="1913884005"/>
    <nd ref="1913884013"/>
    <nd ref="1913884045"/>
    <nd ref="1913884049"/>
    <nd ref="1913884051"/>
    <tag k="destination" v="Nashville"/>
    <tag k="destination:ref" v="I 24 West"/>
    <tag k="highway" v="motorway_link"/>
    <tag k="lanes" v="1"/>
    <tag k="oneway" v="yes"/>
    <tag k="start_date" v="1958"/>
  </way>
  <way id="1095553120">
    <nd ref="1241354710"/>
    <nd ref="9071903953"/>
    <nd ref="1241355135"/>
    <nd ref="9071903982"/>
    <nd ref="9071903952"/>
    <nd ref="3583830189"/>
    <tag k="highway" v="motorway_link"/>
    <tag k="lanes" v="2"/>
    <tag k="oneway" v="yes"/>
    <tag k="surface" v="asphalt"/>
    <tag k="turn:lanes" v="through|through"/>
  </way>
  <way id="1112865938">
    <nd ref="1241354862"/>
    <nd ref="10182160148"/>
    <nd ref="10182160161"/>
    <nd ref="10182160149"/>
    <nd ref="10182160150"/>
    <tag k="destination" v="Nashville"/>
    <tag k="destination:ref" v="I 24 West"/>
    <tag k="highway" v="motorway_link"/>
    <tag k="lanes" v="1"/>
    <tag k="oneway" v="yes"/>
    <tag k="start_date" v="1958"/>
    <tag k="turn:lanes" v="right"/>
  </way>
  <way id="1112865939">
    <nd ref="1241355339"/>
    <nd ref="10182160151"/>
    <nd ref="10182160152"/>
    <nd ref="1241354862"/>
    <tag k="highway" v="motorway_link"/>
    <tag k="oneway" v="yes"/>
    <tag k="start_date" v="1969"/>
  </way>
  <way id="1112865940">
    <nd ref="1241355339"/>
    <nd ref="10182160156"/>
    <nd ref="10182160160"/>
    <nd ref="10182160155"/>
    <nd ref="10182160159"/>
    <nd ref="10182160154"/>
    <nd ref="10182160153"/>
    <tag k="highway" v="motorway_link"/>
    <tag k="oneway" v="yes"/>
    <tag k="start_date" v="1969"/>
  </way>
  <way id="1138296753">
    <nd ref="1913883984"/>
    <nd ref="1913884010"/>
    <nd ref="1913884047"/>
    <tag k="destination" v="Old Hickory Boulevard"/>
    <tag k="destination:ref" v="SR 171"/>
    <tag k="highway" v="motorway_link"/>
    <tag k="lanes" v="1"/>
    <tag k="maxspeed:advisory" v="40 mph"/>
    <tag k="oneway" v="yes"/>
    <tag k="start_date" v="1958"/>
  </way>
  <way id="1138296754">
    <nd ref="10610814539"/>
    <nd ref="1913883984"/>
    <tag k="destination:ref" v="SR 171"/>
    <tag k="destination:street" v="Old Hickory Boulevard"/>
    <tag k="highway" v="motorway_link"/>
    <tag k="lanes" v="2"/>
    <tag k="maxspeed:advisory" v="40 mph"/>
    <tag k="oneway" v="yes"/>
    <tag k="start_date" v="1958"/>
    <tag k="turn:lanes" v="left|"/>
  </way>
  <way id="1138588478">
    <nd ref="202177572"/>
    <nd ref="202177576"/>
    <nd ref="9217400227"/>
    <nd ref="10629325259"/>
    <nd ref="9217400228"/>
    <tag k="destination" v="Hickory Hollow Parkway"/>
    <tag k="highway" v="motorway_link"/>
    <tag k="junction:ref" v="60"/>
    <tag k="lanes" v="1"/>
    <tag k="maxspeed:advisory" v="30 mph"/>
    <tag k="oneway" v="yes"/>
    <tag k="tiger:cfcc" v="A63"/>
    <tag k="tiger:county" v="Davidson, TN"/>
    <tag k="tiger:reviewed" v="no"/>
    <tag k="turn:lanes" v="left;slight_right"/>
  </way>
  <way id="1139192345">
    <nd ref="9376142876"/>
    <nd ref="9376129905"/>
    <tag k="highway" v="motorway_link"/>
    <tag k="oneway" v="yes"/>
  </way>
  <way id="1139192346">
    <nd ref="9376129879"/>
    <nd ref="9376142876"/>
    <tag k="highway" v="motorway_link"/>
    <tag k="lanes" v="4"/>
    <tag k="oneway" v="yes"/>
    <tag k="turn:lanes" v="||through;right|right"/>
  </way>
  <way id="1140716318">
    <nd ref="9376129906"/>
    <nd ref="9376129899"/>
    <nd ref="12338775375"/>
    <nd ref="12338775419"/>
    <nd ref="9376142880"/>
    <tag k="destination" v="Nashville;Murfreesboro"/>
    <tag k="destination:ref" v="I 24"/>
    <tag k="highway" v="motorway_link"/>
    <tag k="lanes" v="3"/>
    <tag k="oneway" v="yes"/>
    <tag k="turn:lanes" v="||through;right"/>
  </way>
  <way id="1141876513">
    <nd ref="8913055543"/>
    <nd ref="12338775429"/>
    <nd ref="12338775356"/>
    <nd ref="8913055545"/>
    <nd ref="12338775328"/>
    <nd ref="12338775408"/>
    <nd ref="8913055546"/>
    <nd ref="8913055547"/>
    <nd ref="12338775320"/>
    <nd ref="9376129903"/>
    <nd ref="1241354935"/>
    <tag k="destination" v="Hickory Hollow Parkway"/>
    <tag k="highway" v="motorway_link"/>
    <tag k="oneway" v="yes"/>
  </way>
  <way id="1141876514">
    <nd ref="8913055542"/>
    <nd ref="12338775361"/>
    <nd ref="12338753998"/>
    <nd ref="8913055543"/>
    <tag k="destination" v="Hickory Hollow Parkway"/>
    <tag k="destination:lanes" v="Hickory Hollow Parkway|Hickory Hollow Parkway|Century Farms Parkway"/>
    <tag k="highway" v="motorway_link"/>
    <tag k="lanes" v="3"/>
    <tag k="oneway" v="yes"/>
    <tag k="turn:lanes" v="left|left|right"/>
  </way>
  <way id="1141876515">
    <nd ref="8913055541"/>
    <nd ref="12338775305"/>
    <nd ref="8913055542"/>
    <tag k="destination" v="Hickory Hollow Parkway"/>
    <tag k="highway" v="motorway_link"/>
    <tag k="lanes" v="2"/>
    <tag k="oneway" v="yes"/>
  </way>
  <way id="1169284816">
    <nd ref="10873108820"/>
    <nd ref="9217400230"/>
    <nd ref="9217400231"/>
    <nd ref="9217400232"/>
    <nd ref="9217400236"/>
    <nd ref="13432787838"/>
    <nd ref="9217400237"/>
    <nd ref="9217400233"/>
    <nd ref="9217400234"/>
    <nd ref="9217400238"/>
    <nd ref="9217400226"/>
    <tag k="destination" v="Hickory Hollow Parkway"/>
    <tag k="highway" v="motorway_link"/>
    <tag k="lanes" v="2"/>
    <tag k="maxspeed:advisory" v="30 mph"/>
    <tag k="oneway" v="yes"/>
    <tag k="tiger:cfcc" v="A63"/>
    <tag k="tiger:county" v="Davidson, TN"/>
    <tag k="tiger:reviewed" v="no"/>
  </way>
  <way id="1192589176">
    <nd ref="5550966522"/>
    <nd ref="11070701400"/>
    <nd ref="11070701401"/>
    <nd ref="11070701402"/>
    <nd ref="11070701403"/>
    <nd ref="11070701404"/>
    <nd ref="11070721405"/>
    <nd ref="11070721406"/>
    <nd ref="11070721407"/>
    <nd ref="11070721408"/>
    <nd ref="11070721409"/>
    <tag k="highway" v="motorway_link"/>
    <tag k="oneway" v="yes"/>
    <tag k="start_date" v="1958"/>
  </way>
  <way id="1322310879">
    <nd ref="1241354914"/>
    <nd ref="9217400224"/>
    <nd ref="9217400225"/>
    <nd ref="8913055534"/>
    <nd ref="9217400222"/>
    <nd ref="9217400223"/>
    <nd ref="1241356574"/>
    <nd ref="9217400235"/>
    <nd ref="9217400226"/>
    <nd ref="1241357308"/>
    <nd ref="306535322"/>
    <nd ref="1241355409"/>
    <tag k="highway" v="motorway_link"/>
    <tag k="lanes" v="1"/>
    <tag k="oneway" v="yes"/>
    <tag k="tiger:cfcc" v="A63"/>
    <tag k="tiger:county" v="Davidson, TN"/>
    <tag k="tiger:reviewed" v="no"/>
  </way>
  <way id="1322310880">
    <nd ref="1241354914"/>
    <nd ref="202408539"/>
    <nd ref="13432787833"/>
    <nd ref="1241354661"/>
    <nd ref="8913055536"/>
    <nd ref="8913055533"/>
    <nd ref="202408525"/>
    <tag k="destination" v="Murfreesboro"/>
    <tag k="destination:ref" v="I 24 East"/>
    <tag k="highway" v="motorway_link"/>
    <tag k="lanes" v="1"/>
    <tag k="oneway" v="yes"/>
    <tag k="tiger:cfcc" v="A41"/>
    <tag k="tiger:county" v="Davidson, TN"/>
    <tag k="tiger:name_base" v="Old Franklin"/>
    <tag k="tiger:name_type" v="Rd"/>
    <tag k="tiger:reviewed" v="no"/>
  </way>
  <way id="1487217294">
    <nd ref="1913884058"/>
    <nd ref="5550966522"/>
    <tag k="destination" v="Bell Road"/>
    <tag k="destination:ref" v="TN 254"/>
    <tag k="highway" v="motorway_link"/>
    <tag k="junction:ref" v="59"/>
    <tag k="lanes" v="3"/>
    <tag k="maxspeed:advisory" v="30 mph"/>
    <tag k="oneway" v="yes"/>
    <tag k="start_date" v="1958"/>
    <tag k="turn:lanes" v="none|none|slight_right"/>
  </way>
  <way id="1489664749">
    <nd ref="13654064106"/>
    <nd ref="1241355339"/>
    <tag k="destination" v="La Vergne;Waldon Road"/>
    <tag k="highway" v="motorway_link"/>
    <tag k="junction:ref" v="64"/>
    <tag k="lanes" v="2"/>
    <tag k="oneway" v="yes"/>
    <tag k="start_date" v="1969"/>
    <tag k="turn:lanes" v="slight_left|slight_right"/>
  </way>

</osm>
