<?xml version="1.0" encoding="UTF-8"?>
<osm version="0.6" generator="Overpass API 0.7.62.11 87bfad18">
<note>The data included in this document is from www.openstreetmap.org. The data is made available under ODbL.</note>
<meta osm_base="2026-08-30T01:27:48Z"/>

  <node id="81540212" lat="32.8388901" lon="-96.7769029"/>
  <node id="81545107" lat="32.8279608" lon="-96.7831638"/>
  <node id="81545109" lat="32.8283264" lon="-96.7827396"/>
  <node id="81548036" lat="32.8516871" lon="-96.7708179"/>
  <node id="81548038" lat="32.8520357" lon="-96.7708060"/>
  <node id="81548040" lat="32.8523500" lon="-96.7707152"/>
  <node id="81548042" lat="32.8533860" lon="-96.7704710"/>
  <node id="81548044" lat="32.8537953" lon="-96.7703990"/>
  <node id="81548046" lat="32.8541662" lon="-96.7703577"/>
  <node id="81548047" lat="32.8543048" lon="-96.7703430"/>
  <node id="81548049" lat="32.8547258" lon="-96.7704174"/>
  <node id="81557935" lat="32.8195693" lon="-96.7872846"/>
  <node id="81560239" lat="32.8652113" lon="-96.7706555">
    <tag k="highway" v="motorway_junction"/>
    <tag k="noref" v="yes"/>
  </node>
  <node id="81560245" lat="32.8648822" lon="-96.7706876"/>
  <node id="81560247" lat="32.8647207" lon="-96.7707301"/>
  <node id="81560249" lat="32.8646181" lon="-96.7707917"/>
  <node id="81560251" lat="32.8645280" lon="-96.7708799"/>
  <node id="81560253" lat="32.8644637" lon="-96.7709787"/>
  <node id="81560255" lat="32.8644209" lon="-96.7711115"/>
  <node id="81560258" lat="32.8644111" lon="-96.7712687"/>
  <node id="81560260" lat="32.8644298" lon="-96.7713909"/>
  <node id="81560262" lat="32.8644619" lon="-96.7714833"/>
  <node id="81560264" lat="32.8645271" lon="-96.7715810"/>
  <node id="81560267" lat="32.8646127" lon="-96.7716660"/>
  <node id="81560269" lat="32.8647252" lon="-96.7717276"/>
  <node id="81560271" lat="32.8648210" lon="-96.7717470"/>
  <node id="81560273" lat="32.8649170" lon="-96.7717340"/>
  <node id="81560275" lat="32.8650260" lon="-96.7716910"/>
  <node id="81560277" lat="32.8651209" lon="-96.7716125"/>
  <node id="81560279" lat="32.8652155" lon="-96.7715022"/>
  <node id="81560287" lat="32.8653453" lon="-96.7712213"/>
  <node id="81566005" lat="32.8314481" lon="-96.7809318"/>
  <node id="81567140" lat="32.8265597" lon="-96.7838819">
    <tag k="highway" v="motorway_junction"/>
    <tag k="ref" v="2"/>
  </node>
  <node id="81567142" lat="32.8245261" lon="-96.7849799"/>
  <node id="81567145" lat="32.8234868" lon="-96.7854594"/>
  <node id="81567151" lat="32.8231728" lon="-96.7857168"/>
  <node id="81567156" lat="32.8163650" lon="-96.7887434"/>
  <node id="81567159" lat="32.8151010" lon="-96.7894069"/>
  <node id="81567160" lat="32.8147655" lon="-96.7895887"/>
  <node id="81567163" lat="32.8139320" lon="-96.7902015">
    <tag k="highway" v="motorway_junction"/>
    <tag k="ref" v="2"/>
  </node>
  <node id="81569174" lat="32.8665740" lon="-96.7694009"/>
  <node id="81577528" lat="32.8568477" lon="-96.7704058"/>
  <node id="81577530" lat="32.8570910" lon="-96.7705688"/>
  <node id="81577536" lat="32.8578018" lon="-96.7706294"/>
  <node id="81577538" lat="32.8581975" lon="-96.7706287"/>
  <node id="81577540" lat="32.8588418" lon="-96.7706235"/>
  <node id="81577542" lat="32.8593161" lon="-96.7706225"/>
  <node id="81577544" lat="32.8598911" lon="-96.7706224"/>
  <node id="81577545" lat="32.8603031" lon="-96.7706873"/>
  <node id="81578412" lat="32.8696491" lon="-96.7700889"/>
  <node id="81578417" lat="32.8682230" lon="-96.7699420"/>
  <node id="81578419" lat="32.8674155" lon="-96.7699412"/>
  <node id="81578422" lat="32.8671437" lon="-96.7699409"/>
  <node id="81578424" lat="32.8670373" lon="-96.7699219"/>
  <node id="81578430" lat="32.8669337" lon="-96.7698873"/>
  <node id="81578433" lat="32.8668465" lon="-96.7698283"/>
  <node id="81578435" lat="32.8667372" lon="-96.7697218"/>
  <node id="81584270" lat="32.8674320" lon="-96.7706335">
    <tag k="highway" v="motorway_junction"/>
    <tag k="noref" v="yes"/>
  </node>
  <node id="81584276" lat="32.8682613" lon="-96.7705841"/>
  <node id="81584282" lat="32.8692543" lon="-96.7705707"/>
  <node id="81584284" lat="32.8701854" lon="-96.7705613"/>
  <node id="81584286" lat="32.8711863" lon="-96.7705278"/>
  <node id="81590747" lat="32.8464273" lon="-96.7729568">
    <tag k="highway" v="motorway_junction"/>
    <tag k="ref" v="4A"/>
  </node>
  <node id="81590749" lat="32.8468601" lon="-96.7726713"/>
  <node id="81590753" lat="32.8470713" lon="-96.7725748"/>
  <node id="81590754" lat="32.8475573" lon="-96.7723711"/>
  <node id="81590755" lat="32.8478663" lon="-96.7722664"/>
  <node id="81590757" lat="32.8481820" lon="-96.7721705"/>
  <node id="81590764" lat="32.8493291" lon="-96.7718047"/>
  <node id="81590767" lat="32.8496588" lon="-96.7716232"/>
  <node id="81590959" lat="32.8569091" lon="-96.7701957">
    <tag k="highway" v="motorway_junction"/>
    <tag k="ref" v="4B"/>
  </node>
  <node id="81590962" lat="32.8574250" lon="-96.7700112"/>
  <node id="81590968" lat="32.8579014" lon="-96.7699817"/>
  <node id="81590970" lat="32.8589873" lon="-96.7699824"/>
  <node id="81590972" lat="32.8595488" lon="-96.7699817"/>
  <node id="81590973" lat="32.8598914" lon="-96.7699774"/>
  <node id="81600829" lat="32.8598894" lon="-96.7701708">
    <tag k="highway" v="motorway_junction"/>
    <tag k="ref" v="5A"/>
  </node>
  <node id="81600831" lat="32.8605758" lon="-96.7700519"/>
  <node id="81600837" lat="32.8616652" lon="-96.7699830"/>
  <node id="81600839" lat="32.8625852" lon="-96.7699718"/>
  <node id="81600841" lat="32.8629468" lon="-96.7699305"/>
  <node id="81600843" lat="32.8634569" lon="-96.7698161"/>
  <node id="81600846" lat="32.8636937" lon="-96.7697288">
    <tag k="highway" v="motorway_junction"/>
    <tag k="noref" v="yes"/>
  </node>
  <node id="81600851" lat="32.8639778" lon="-96.7696125"/>
  <node id="81600867" lat="32.8645959" lon="-96.7694737"/>
  <node id="81600875" lat="32.8647549" lon="-96.7694077"/>
  <node id="81600878" lat="32.8648904" lon="-96.7693047"/>
  <node id="81600881" lat="32.8651194" lon="-96.7689752"/>
  <node id="81600883" lat="32.8651946" lon="-96.7687510"/>
  <node id="81600885" lat="32.8652404" lon="-96.7683792"/>
  <node id="81600887" lat="32.8652970" lon="-96.7678060"/>
  <node id="81600893" lat="32.8653750" lon="-96.7675190"/>
  <node id="81604333" lat="32.8655993" lon="-96.7695579"/>
  <node id="81604335" lat="32.8656425" lon="-96.7694463"/>
  <node id="81604339" lat="32.8656570" lon="-96.7693519"/>
  <node id="81604341" lat="32.8656714" lon="-96.7692404"/>
  <node id="81604345" lat="32.8657070" lon="-96.7691630"/>
  <node id="81604347" lat="32.8657610" lon="-96.7690710"/>
  <node id="81604349" lat="32.8658170" lon="-96.7690290"/>
  <node id="81604351" lat="32.8659440" lon="-96.7689520"/>
  <node id="81604353" lat="32.8660510" lon="-96.7689230"/>
  <node id="81604355" lat="32.8661760" lon="-96.7689520"/>
  <node id="81604357" lat="32.8662810" lon="-96.7690350"/>
  <node id="81604359" lat="32.8663562" lon="-96.7691334"/>
  <node id="81604361" lat="32.8664109" lon="-96.7692746"/>
  <node id="81604363" lat="32.8664164" lon="-96.7694201"/>
  <node id="81604365" lat="32.8663707" lon="-96.7695830"/>
  <node id="81604367" lat="32.8662660" lon="-96.7697290"/>
  <node id="81604369" lat="32.8661660" lon="-96.7698000"/>
  <node id="81604371" lat="32.8659770" lon="-96.7698420"/>
  <node id="81604373" lat="32.8658420" lon="-96.7698480"/>
  <node id="81604377" lat="32.8648135" lon="-96.7696523"/>
  <node id="81604378" lat="32.8645035" lon="-96.7696352"/>
  <node id="81604379" lat="32.8642693" lon="-96.7696416"/>
  <node id="81604380" lat="32.8639884" lon="-96.7696720"/>
  <node id="81608997" lat="32.8630419" lon="-96.7701499">
    <tag k="highway" v="motorway_junction"/>
    <tag k="ref" v="5B"/>
  </node>
  <node id="81608999" lat="32.8634524" lon="-96.7700123"/>
  <node id="81609000" lat="32.8654968" lon="-96.7699406"/>
  <node id="81611236" lat="32.8121655" lon="-96.7912816">
    <tag k="highway" v="motorway_junction"/>
    <tag k="ref" v="1B"/>
  </node>
  <node id="81616382" lat="32.8347450" lon="-96.7794680"/>
  <node id="81616384" lat="32.8345511" lon="-96.7795994"/>
  <node id="81616390" lat="32.8339861" lon="-96.7797713"/>
  <node id="81616392" lat="32.8336794" lon="-96.7798512"/>
  <node id="81616395" lat="32.8331973" lon="-96.7799765"/>
  <node id="81616397" lat="32.8324423" lon="-96.7802477"/>
  <node id="81616403" lat="32.8322024" lon="-96.7804386">
    <tag k="highway" v="motorway_junction"/>
    <tag k="ref" v="3"/>
  </node>
  <node id="81616655" lat="32.8490333" lon="-96.7723032"/>
  <node id="81618126" lat="32.8427247" lon="-96.7748990"/>
  <node id="81618128" lat="32.8423132" lon="-96.7749956"/>
  <node id="81618130" lat="32.8421832" lon="-96.7750614"/>
  <node id="81618136" lat="32.8416268" lon="-96.7753550"/>
  <node id="81618138" lat="32.8402232" lon="-96.7761158"/>
  <node id="81618141" lat="32.8409324" lon="-96.7759134"/>
  <node id="81618144" lat="32.8401112" lon="-96.7765308"/>
  <node id="81618146" lat="32.8402788" lon="-96.7766738"/>
  <node id="81620395" lat="32.8653500" lon="-96.7723370"/>
  <node id="81620397" lat="32.8652900" lon="-96.7721720"/>
  <node id="81620399" lat="32.8652400" lon="-96.7720920"/>
  <node id="81620401" lat="32.8650630" lon="-96.7719760"/>
  <node id="81620403" lat="32.8647980" lon="-96.7719210"/>
  <node id="81620405" lat="32.8646750" lon="-96.7718710"/>
  <node id="81620407" lat="32.8645560" lon="-96.7717910"/>
  <node id="81620409" lat="32.8644610" lon="-96.7717040"/>
  <node id="81620411" lat="32.8644025" lon="-96.7716093"/>
  <node id="81620413" lat="32.8643160" lon="-96.7714376"/>
  <node id="81620417" lat="32.8642284" lon="-96.7712126"/>
  <node id="81620420" lat="32.8641342" lon="-96.7710468"/>
  <node id="81620422" lat="32.8640252" lon="-96.7708982"/>
  <node id="81620425" lat="32.8638604" lon="-96.7707657"/>
  <node id="81620429" lat="32.8636439" lon="-96.7706482"/>
  <node id="81620431" lat="32.8634583" lon="-96.7705983"/>
  <node id="81620435" lat="32.8632199" lon="-96.7705869"/>
  <node id="81620437" lat="32.8608432" lon="-96.7703686"/>
  <node id="81627855" lat="32.8342099" lon="-96.7802723"/>
  <node id="81627856" lat="32.8329852" lon="-96.7806331"/>
  <node id="81627857" lat="32.8318082" lon="-96.7809985"/>
  <node id="81627859" lat="32.8302684" lon="-96.7816567"/>
  <node id="81634285" lat="32.8196684" lon="-96.7872308"/>
  <node id="81634301" lat="32.8192928" lon="-96.7876616"/>
  <node id="81634307" lat="32.8196468" lon="-96.7874658"/>
  <node id="81634314" lat="32.8201347" lon="-96.7872013"/>
  <node id="81634318" lat="32.8206470" lon="-96.7869517"/>
  <node id="81634319" lat="32.8208563" lon="-96.7868547"/>
  <node id="81637773" lat="32.8231619" lon="-96.7850264"/>
  <node id="81637775" lat="32.8236544" lon="-96.7847575"/>
  <node id="81637777" lat="32.8239690" lon="-96.7846058"/>
  <node id="81637779" lat="32.8243154" lon="-96.7844476"/>
  <node id="81637781" lat="32.8250578" lon="-96.7841699"/>
  <node id="81637787" lat="32.8259004" lon="-96.7839420"/>
  <node id="81643299" lat="32.8667159" lon="-96.7707523"/>
  <node id="81643301" lat="32.8664223" lon="-96.7707874"/>
  <node id="81643302" lat="32.8662080" lon="-96.7708610"/>
  <node id="81643303" lat="32.8661000" lon="-96.7709290"/>
  <node id="81643305" lat="32.8660030" lon="-96.7710030"/>
  <node id="81643306" lat="32.8659210" lon="-96.7710940"/>
  <node id="81643307" lat="32.8658340" lon="-96.7712330"/>
  <node id="81643309" lat="32.8657690" lon="-96.7713730"/>
  <node id="81643311" lat="32.8657270" lon="-96.7715080"/>
  <node id="81643313" lat="32.8656450" lon="-96.7720300"/>
  <node id="81643316" lat="32.8655657" lon="-96.7725471"/>
  <node id="81644705" lat="32.8724826" lon="-96.7703208">
    <tag k="highway" v="motorway_junction"/>
    <tag k="ref" v="5A"/>
  </node>
  <node id="81644707" lat="32.8722688" lon="-96.7704728"/>
  <node id="81644713" lat="32.8701708" lon="-96.7704945"/>
  <node id="81644720" lat="32.8673243" lon="-96.7703108"/>
  <node id="81646407" lat="32.8435545" lon="-96.7746536">
    <tag k="highway" v="motorway_junction"/>
    <tag k="ref" v="3"/>
  </node>
  <node id="81646412" lat="32.8398584" lon="-96.7769282"/>
  <node id="81647815" lat="32.8551177" lon="-96.7705607">
    <tag k="highway" v="motorway_junction"/>
    <tag k="ref" v="4"/>
  </node>
  <node id="81647817" lat="32.8548296" lon="-96.7707671"/>
  <node id="81647818" lat="32.8543903" lon="-96.7708941"/>
  <node id="81647819" lat="32.8534583" lon="-96.7710370"/>
  <node id="81647820" lat="32.8529081" lon="-96.7711670"/>
  <node id="81647824" lat="32.8522807" lon="-96.7713213"/>
  <node id="81647826" lat="32.8518262" lon="-96.7714776"/>
  <node id="81651820" lat="32.8714104" lon="-96.7701057"/>
  <node id="81651824" lat="32.8710041" lon="-96.7699284"/>
  <node id="81651826" lat="32.8705980" lon="-96.7698972"/>
  <node id="81651827" lat="32.8699736" lon="-96.7698606"/>
  <node id="81651828" lat="32.8695940" lon="-96.7698433"/>
  <node id="81651830" lat="32.8689758" lon="-96.7697727"/>
  <node id="81655522" lat="32.8651730" lon="-96.7719520"/>
  <node id="81655523" lat="32.8653010" lon="-96.7718920"/>
  <node id="81655524" lat="32.8653500" lon="-96.7718601"/>
  <node id="81655525" lat="32.8654090" lon="-96.7718160"/>
  <node id="81655526" lat="32.8654510" lon="-96.7717720"/>
  <node id="81655528" lat="32.8654809" lon="-96.7717294">
    <tag k="highway" v="traffic_signals"/>
    <tag k="traffic_signals:direction" v="forward"/>
  </node>
  <node id="81655529" lat="32.8655320" lon="-96.7716370"/>
  <node id="81655530" lat="32.8655600" lon="-96.7715650"/>
  <node id="81655533" lat="32.8656255" lon="-96.7712092"/>
  <node id="81659328" lat="32.8460916" lon="-96.7733274"/>
  <node id="81659330" lat="32.8464549" lon="-96.7733077"/>
  <node id="81659331" lat="32.8474801" lon="-96.7729926"/>
  <node id="81659334" lat="32.8482445" lon="-96.7727527"/>
  <node id="81927691" lat="32.8228357" lon="-96.7851560"/>
  <node id="81928187" lat="32.8732680" lon="-96.7701110"/>
  <node id="81928194" lat="32.8675688" lon="-96.7701090"/>
  <node id="81928196" lat="32.8664691" lon="-96.7701183"/>
  <node id="81928203" lat="32.8640490" lon="-96.7701407"/>
  <node id="81928205" lat="32.8613103" lon="-96.7701719"/>
  <node id="81928215" lat="32.8574636" lon="-96.7701998"/>
  <node id="81928218" lat="32.8527663" lon="-96.7707603"/>
  <node id="81928219" lat="32.8523360" lon="-96.7708714"/>
  <node id="81928220" lat="32.8519075" lon="-96.7709862"/>
  <node id="81928225" lat="32.8488584" lon="-96.7721443"/>
  <node id="81928228" lat="32.8484487" lon="-96.7722878"/>
  <node id="81928233" lat="32.8468424" lon="-96.7727991"/>
  <node id="81928240" lat="32.8453514" lon="-96.7735048"/>
  <node id="81928256" lat="32.8405239" lon="-96.7761287"/>
  <node id="81928259" lat="32.8401217" lon="-96.7763201"/>
  <node id="81928261" lat="32.8397047" lon="-96.7765217"/>
  <node id="81928264" lat="32.8392938" lon="-96.7767080"/>
  <node id="81928266" lat="32.8384894" lon="-96.7771320"/>
  <node id="81928269" lat="32.8381002" lon="-96.7773686"/>
  <node id="81928271" lat="32.8377293" lon="-96.7776403"/>
  <node id="81928272" lat="32.8373747" lon="-96.7779397"/>
  <node id="81928273" lat="32.8370124" lon="-96.7782376"/>
  <node id="81928274" lat="32.8361977" lon="-96.7789103"/>
  <node id="81928278" lat="32.8359229" lon="-96.7791052"/>
  <node id="81928280" lat="32.8356355" lon="-96.7792901"/>
  <node id="81928282" lat="32.8353323" lon="-96.7794471"/>
  <node id="81928284" lat="32.8349209" lon="-96.7796376"/>
  <node id="81928286" lat="32.8345048" lon="-96.7797923"/>
  <node id="81928287" lat="32.8340912" lon="-96.7799139"/>
  <node id="81928288" lat="32.8326824" lon="-96.7803085"/>
  <node id="81928291" lat="32.8309094" lon="-96.7809975"/>
  <node id="81928292" lat="32.8305231" lon="-96.7812473"/>
  <node id="81928293" lat="32.8301471" lon="-96.7815213"/>
  <node id="81928296" lat="32.8287102" lon="-96.7824972"/>
  <node id="81928307" lat="32.8279288" lon="-96.7829662"/>
  <node id="81928310" lat="32.8275255" lon="-96.7831880"/>
  <node id="81928313" lat="32.8267143" lon="-96.7835969"/>
  <node id="81928327" lat="32.8248648" lon="-96.7843897"/>
  <node id="81928330" lat="32.8244546" lon="-96.7845570"/>
  <node id="81928331" lat="32.8240377" lon="-96.7847417"/>
  <node id="81928333" lat="32.8236401" lon="-96.7849457"/>
  <node id="81928343" lat="32.8232311" lon="-96.7851649"/>
  <node id="81928346" lat="32.8222441" lon="-96.7857437"/>
  <node id="81928350" lat="32.8215311" lon="-96.7861099"/>
  <node id="81928352" lat="32.8203275" lon="-96.7866987"/>
  <node id="81928355" lat="32.8199201" lon="-96.7868946"/>
  <node id="81928360" lat="32.8187389" lon="-96.7875644"/>
  <node id="81928363" lat="32.8175675" lon="-96.7882765"/>
  <node id="81928376" lat="32.8158507" lon="-96.7892049"/>
  <node id="81928378" lat="32.8153589" lon="-96.7894660"/>
  <node id="81928785" lat="32.8345173" lon="-96.7799820"/>
  <node id="81928882" lat="32.8622861" lon="-96.7707705"/>
  <node id="81928884" lat="32.8631040" lon="-96.7707850"/>
  <node id="81928886" lat="32.8633520" lon="-96.7707900"/>
  <node id="81928888" lat="32.8635940" lon="-96.7707630"/>
  <node id="81928890" lat="32.8639227" lon="-96.7706989"/>
  <node id="81928892" lat="32.8647240" lon="-96.7706468"/>
  <node id="81929219" lat="32.8702848" lon="-96.7702881"/>
  <node id="81929229" lat="32.8664456" lon="-96.7703187"/>
  <node id="81929247" lat="32.8574242" lon="-96.7703983"/>
  <node id="81929251" lat="32.8559939" lon="-96.7704546"/>
  <node id="81929255" lat="32.8528352" lon="-96.7709527"/>
  <node id="81929257" lat="32.8524045" lon="-96.7710603"/>
  <node id="81929261" lat="32.8519779" lon="-96.7711828"/>
  <node id="81929263" lat="32.8515496" lon="-96.7713196"/>
  <node id="81929269" lat="32.8506950" lon="-96.7716405"/>
  <node id="81929277" lat="32.8486111" lon="-96.7724463"/>
  <node id="81929286" lat="32.8409187" lon="-96.7761324"/>
  <node id="81929287" lat="32.8405231" lon="-96.7763359"/>
  <node id="81929289" lat="32.8388976" lon="-96.7770985"/>
  <node id="81929290" lat="32.8385013" lon="-96.7773215"/>
  <node id="81929291" lat="32.8381092" lon="-96.7775811"/>
  <node id="81929293" lat="32.8377432" lon="-96.7778603"/>
  <node id="81929301" lat="32.8362958" lon="-96.7790619"/>
  <node id="81929303" lat="32.8359128" lon="-96.7793279"/>
  <node id="81929305" lat="32.8353360" lon="-96.7796541"/>
  <node id="81929307" lat="32.8349314" lon="-96.7798345"/>
  <node id="81929309" lat="32.8340923" lon="-96.7801045"/>
  <node id="81929311" lat="32.8322886" lon="-96.7806163"/>
  <node id="81929314" lat="32.8316566" lon="-96.7808381"/>
  <node id="81929320" lat="32.8291352" lon="-96.7824469"/>
  <node id="81929322" lat="32.8287465" lon="-96.7826962"/>
  <node id="81929324" lat="32.8283560" lon="-96.7829353"/>
  <node id="81929326" lat="32.8275605" lon="-96.7833833"/>
  <node id="81929332" lat="32.8244002" lon="-96.7847858"/>
  <node id="81929334" lat="32.8241911" lon="-96.7848770"/>
  <node id="81929336" lat="32.8236866" lon="-96.7851246"/>
  <node id="81929340" lat="32.8223940" lon="-96.7858587"/>
  <node id="81929342" lat="32.8216901" lon="-96.7862308"/>
  <node id="81929344" lat="32.8198685" lon="-96.7871250"/>
  <node id="81929346" lat="32.8191729" lon="-96.7875118"/>
  <node id="81929357" lat="32.8178951" lon="-96.7882923"/>
  <node id="81929359" lat="32.8175012" lon="-96.7885201"/>
  <node id="81929365" lat="32.8153994" lon="-96.7896525"/>
  <node id="315092916" lat="32.8306336" lon="-96.7815448"/>
  <node id="315093107" lat="32.8346591" lon="-96.7801722"/>
  <node id="315093537" lat="32.8365076" lon="-96.7788952"/>
  <node id="315095831" lat="32.8416913" lon="-96.7759709"/>
  <node id="315095850" lat="32.8416731" lon="-96.7757077"/>
  <node id="315095862" lat="32.8416220" lon="-96.7755256"/>
  <node id="315096212" lat="32.8423795" lon="-96.7755474"/>
  <node id="315096243" lat="32.8422209" lon="-96.7751894"/>
  <node id="315097031" lat="32.8453761" lon="-96.7736847"/>
  <node id="315097035" lat="32.8458126" lon="-96.7732406"/>
  <node id="315097059" lat="32.8506412" lon="-96.7714428"/>
  <node id="315097127" lat="32.8514841" lon="-96.7711260"/>
  <node id="315097458" lat="32.8488138" lon="-96.7725704"/>
  <node id="315097460" lat="32.8500591" lon="-96.7721227"/>
  <node id="377532053" lat="32.8504054" lon="-96.7720301"/>
  <node id="476675791" lat="32.8619117" lon="-96.7707053"/>
  <node id="476675794" lat="32.8666561" lon="-96.7695880"/>
  <node id="476675834" lat="32.8640526" lon="-96.7699715"/>
  <node id="476682191" lat="32.8610548" lon="-96.7705141"/>
  <node id="1611269423" lat="32.8171241" lon="-96.7883413"/>
  <node id="1611270401" lat="32.8188499" lon="-96.7879362"/>
  <node id="1611270403" lat="32.8177824" lon="-96.7885084"/>
  <node id="1850949245" lat="32.8262974" lon="-96.7841878"/>
  <node id="1850949387" lat="32.8683046" lon="-96.7704812"/>
  <node id="2078416368" lat="32.8141054" lon="-96.7899914"/>
  <node id="2078416374" lat="32.8239094" lon="-96.7852434"/>
  <node id="2078416376" lat="32.8313098" lon="-96.7807880"/>
  <node id="2078416377" lat="32.8434151" lon="-96.7749039"/>
  <node id="2078416378" lat="32.8467120" lon="-96.7730668"/>
  <node id="2078416379" lat="32.8489162" lon="-96.7719459"/>
  <node id="2078416381" lat="32.8576626" lon="-96.7699957"/>
  <node id="2078416382" lat="32.8596155" lon="-96.7706214"/>
  <node id="2078416383" lat="32.8624530" lon="-96.7705507"/>
  <node id="4192499728" lat="32.8603419" lon="-96.7698868"/>
  <node id="4250072589" lat="32.8309458" lon="-96.7811991"/>
  <node id="4250072590" lat="32.8409805" lon="-96.7757129"/>
  <node id="4250072591" lat="32.8410996" lon="-96.7762896"/>
  <node id="5335725063" lat="32.8158186" lon="-96.7890331"/>
  <node id="5335868448" lat="32.8297624" lon="-96.7817952"/>
  <node id="5335868449" lat="32.8297068" lon="-96.7820566"/>
  <node id="5335868452" lat="32.8290998" lon="-96.7822525"/>
  <node id="5335868456" lat="32.8249369" lon="-96.7848140"/>
  <node id="5335868458" lat="32.8247430" lon="-96.7842762"/>
  <node id="5335868459" lat="32.8248016" lon="-96.7846213"/>
  <node id="5335868462" lat="32.8242100" lon="-96.7851064"/>
  <node id="5335868463" lat="32.8256288" lon="-96.7845176"/>
  <node id="5335868464" lat="32.8253324" lon="-96.7846531"/>
  <node id="5335868477" lat="32.8195182" lon="-96.7871046"/>
  <node id="5335868478" lat="32.8191260" lon="-96.7873299"/>
  <node id="5335868479" lat="32.8183529" lon="-96.7878020"/>
  <node id="5335868480" lat="32.8179663" lon="-96.7880407"/>
  <node id="5335868482" lat="32.8175768" lon="-96.7880237"/>
  <node id="5335868665" lat="32.8601016" lon="-96.7699707"/>
  <node id="5335868681" lat="32.8650165" lon="-96.7691633"/>
  <node id="5335868683" lat="32.8632096" lon="-96.7698848"/>
  <node id="5335868686" lat="32.8637604" lon="-96.7699827"/>
  <node id="5335868691" lat="32.8651122" lon="-96.7699666"/>
  <node id="5335868692" lat="32.8658117" lon="-96.7701276"/>
  <node id="5335868694" lat="32.8644465" lon="-96.7706506"/>
  <node id="5335868695" lat="32.8642200" lon="-96.7706653"/>
  <node id="5335868698" lat="32.8612078" lon="-96.7700042"/>
  <node id="5335868699" lat="32.8555987" lon="-96.7702831"/>
  <node id="5335868700" lat="32.8551616" lon="-96.7703475"/>
  <node id="5335868701" lat="32.8563614" lon="-96.7702228"/>
  <node id="5335868702" lat="32.8562124" lon="-96.7704364"/>
  <node id="5335868705" lat="32.8537021" lon="-96.7707797"/>
  <node id="5335868706" lat="32.8536306" lon="-96.7705835"/>
  <node id="5335868707" lat="32.8532650" lon="-96.7708596"/>
  <node id="5335868708" lat="32.8531901" lon="-96.7706680"/>
  <node id="5335868709" lat="32.8542986" lon="-96.7704843"/>
  <node id="5335868710" lat="32.8494518" lon="-96.7721448"/>
  <node id="5335868711" lat="32.8492806" lon="-96.7719930"/>
  <node id="5335868712" lat="32.8491792" lon="-96.7724517"/>
  <node id="5335868726" lat="32.8476931" lon="-96.7725214"/>
  <node id="5335868727" lat="32.8472661" lon="-96.7726569"/>
  <node id="5335868729" lat="32.8473419" lon="-96.7728440"/>
  <node id="5335868730" lat="32.8456675" lon="-96.7735324"/>
  <node id="5335868734" lat="32.8393042" lon="-96.7769041"/>
  <node id="5335868735" lat="32.8408359" lon="-96.7764227"/>
  <node id="5335868737" lat="32.8396550" lon="-96.7763932"/>
  <node id="5335868738" lat="32.8392499" lon="-96.7765653"/>
  <node id="5335868739" lat="32.8355313" lon="-96.7795534"/>
  <node id="5335868742" lat="32.8327814" lon="-96.7801309"/>
  <node id="5335868743" lat="32.8315463" lon="-96.7810844"/>
  <node id="5335868744" lat="32.8312849" lon="-96.7811997"/>
  <node id="5335868751" lat="32.8320749" lon="-96.7806815"/>
  <node id="5368777920" lat="32.8692440" lon="-96.7699720"/>
  <node id="5368778021" lat="32.8702960" lon="-96.7700873"/>
  <node id="5368778022" lat="32.8715673" lon="-96.7703096"/>
  <node id="5368778023" lat="32.8722863" lon="-96.7701155"/>
  <node id="5368778024" lat="32.8693532" lon="-96.7698406"/>
  <node id="5368778026" lat="32.8676073" lon="-96.7704575"/>
  <node id="5900023462" lat="32.8213478" lon="-96.7866891"/>
  <node id="5900023463" lat="32.8209956" lon="-96.7867912"/>
  <node id="6684573925" lat="32.8629651" lon="-96.7707825"/>
  <node id="8006858696" lat="32.8692206" lon="-96.7704953"/>
  <node id="10154168188" lat="32.8257162" lon="-96.7839331"/>
  <node id="12384188382" lat="32.8441544" lon="-96.7743339"/>
  <node id="12429444561" lat="32.8265634" lon="-96.7836670"/>
  <node id="12429883462" lat="32.8671128" lon="-96.7703126"/>
  <node id="12430122337" lat="32.8342801" lon="-96.7796910"/>
  <node id="13620665659" lat="32.8147981" lon="-96.7899657"/>
  <node id="13620665660" lat="32.8149990" lon="-96.7898632"/>
  <node id="13620665661" lat="32.8151971" lon="-96.7897595"/>
  <node id="13620665662" lat="32.8172989" lon="-96.7886333"/>
  <node id="13620665663" lat="32.8176978" lon="-96.7884085"/>
  <node id="13620665664" lat="32.8180920" lon="-96.7881742"/>
  <node id="13620665665" lat="32.8189749" lon="-96.7876313"/>
  <node id="13620665666" lat="32.8190708" lon="-96.7875730"/>
  <node id="13620665667" lat="32.8192713" lon="-96.7874536"/>
  <node id="13620665668" lat="32.8193707" lon="-96.7873966"/>
  <node id="13620665669" lat="32.8194699" lon="-96.7873406"/>
  <node id="13620665670" lat="32.8197686" lon="-96.7871771"/>
  <node id="13620665671" lat="32.8199679" lon="-96.7870739"/>
  <node id="13620665672" lat="32.8200717" lon="-96.7870219"/>
  <node id="13620665673" lat="32.8214860" lon="-96.7863316"/>
  <node id="13620665674" lat="32.8234893" lon="-96.7852306"/>
  <node id="13620665675" lat="32.8235868" lon="-96.7851774"/>
  <node id="13620665676" lat="32.8237882" lon="-96.7850718"/>
  <node id="13620665677" lat="32.8238867" lon="-96.7850217"/>
  <node id="13620665678" lat="32.8242946" lon="-96.7848311"/>
  <node id="13620665679" lat="32.8240897" lon="-96.7849230"/>
  <node id="13620665680" lat="32.8239876" lon="-96.7849723"/>
  <node id="13620665681" lat="32.8246036" lon="-96.7847007"/>
  <node id="13620665682" lat="32.8259365" lon="-96.7841546"/>
  <node id="13620665683" lat="32.8261436" lon="-96.7840668"/>
  <node id="13620665684" lat="32.8269565" lon="-96.7836913"/>
  <node id="13620665685" lat="32.8271594" lon="-96.7835916"/>
  <node id="13620665686" lat="32.8273612" lon="-96.7834884"/>
  <node id="13620665687" lat="32.8277619" lon="-96.7832746"/>
  <node id="13620665688" lat="32.8281610" lon="-96.7830495"/>
  <node id="13620665689" lat="32.8285515" lon="-96.7828167"/>
  <node id="13620665690" lat="32.8289425" lon="-96.7825725"/>
  <node id="13620665691" lat="32.8293262" lon="-96.7823193"/>
  <node id="13620665692" lat="32.8295137" lon="-96.7821921"/>
  <node id="13620665693" lat="32.8301785" lon="-96.7817214"/>
  <node id="13620665694" lat="32.8305608" lon="-96.7814498"/>
  <node id="13620665695" lat="32.8306547" lon="-96.7813854"/>
  <node id="13620665696" lat="32.8307509" lon="-96.7813211"/>
  <node id="13620665697" lat="32.8308467" lon="-96.7812596"/>
  <node id="13620665698" lat="32.8310436" lon="-96.7811422"/>
  <node id="13620665699" lat="32.8311407" lon="-96.7810883"/>
  <node id="13620665700" lat="32.8313462" lon="-96.7809813"/>
  <node id="13620665701" lat="32.8315519" lon="-96.7808836"/>
  <node id="13620665702" lat="32.8317606" lon="-96.7807959"/>
  <node id="13620665703" lat="32.8319691" lon="-96.7807175"/>
  <node id="13620665704" lat="32.8321802" lon="-96.7806479"/>
  <node id="13620665705" lat="32.8312433" lon="-96.7810338"/>
  <node id="13620665706" lat="32.8318656" lon="-96.7807557"/>
  <node id="13620665707" lat="32.8344117" lon="-96.7800133"/>
  <node id="13620665708" lat="32.8346269" lon="-96.7799466"/>
  <node id="13620665709" lat="32.8348283" lon="-96.7798740"/>
  <node id="13620665710" lat="32.8350353" lon="-96.7797919"/>
  <node id="13620665711" lat="32.8352393" lon="-96.7797005"/>
  <node id="13620665712" lat="32.8354348" lon="-96.7796040"/>
  <node id="13620665713" lat="32.8356322" lon="-96.7794967"/>
  <node id="13620665714" lat="32.8358284" lon="-96.7793807"/>
  <node id="13620665715" lat="32.8360108" lon="-96.7792639"/>
  <node id="13620665716" lat="32.8361997" lon="-96.7791320"/>
  <node id="13620665717" lat="32.8343050" lon="-96.7800444"/>
  <node id="13620665718" lat="32.8347246" lon="-96.7799128"/>
  <node id="13620665719" lat="32.8351385" lon="-96.7797471"/>
  <node id="13620665720" lat="32.8357306" lon="-96.7794396"/>
  <node id="13620665721" lat="32.8361081" lon="-96.7791973"/>
  <node id="13620665722" lat="32.8379247" lon="-96.7777159"/>
  <node id="13620665723" lat="32.8383045" lon="-96.7774469"/>
  <node id="13620665724" lat="32.8386996" lon="-96.7772057"/>
  <node id="13620665725" lat="32.8390991" lon="-96.7769985"/>
  <node id="13620665726" lat="32.8399237" lon="-96.7766166"/>
  <node id="13620665727" lat="32.8403146" lon="-96.7764362"/>
  <node id="13620665728" lat="32.8407362" lon="-96.7762289"/>
  <node id="13620665729" lat="32.8410830" lon="-96.7760412"/>
  <node id="13620665730" lat="32.8412794" lon="-96.7759309"/>
  <node id="13620665731" lat="32.8414769" lon="-96.7758195"/>
  <node id="13620665732" lat="32.8443584" lon="-96.7742256"/>
  <node id="13620665733" lat="32.8445581" lon="-96.7741187"/>
  <node id="13620665734" lat="32.8447584" lon="-96.7740124"/>
  <node id="13620665735" lat="32.8449584" lon="-96.7739065"/>
  <node id="13620665736" lat="32.8451657" lon="-96.7737962"/>
  <node id="13620665737" lat="32.8458887" lon="-96.7734227"/>
  <node id="13620665738" lat="32.8462974" lon="-96.7732363"/>
  <node id="13620665739" lat="32.8465041" lon="-96.7731489"/>
  <node id="13620665740" lat="32.8469221" lon="-96.7729873"/>
  <node id="13620665741" lat="32.8471314" lon="-96.7729137"/>
  <node id="13620665742" lat="32.8484024" lon="-96.7725129"/>
  <node id="13620665743" lat="32.8488224" lon="-96.7723760"/>
  <node id="13620665744" lat="32.8492446" lon="-96.7722252"/>
  <node id="13620665745" lat="32.8498688" lon="-96.7719775"/>
  <node id="13620665746" lat="32.8513920" lon="-96.7713761"/>
  <node id="13620665747" lat="32.8517640" lon="-96.7712490"/>
  <node id="13620665748" lat="32.8521908" lon="-96.7711198"/>
  <node id="13620665749" lat="32.8526179" lon="-96.7710053"/>
  <node id="13620665750" lat="32.8530496" lon="-96.7709044"/>
  <node id="13620665751" lat="32.8534816" lon="-96.7708176"/>
  <node id="13620665752" lat="32.8553349" lon="-96.7705288"/>
  <node id="13620665753" lat="32.8555542" lon="-96.7705006"/>
  <node id="13620665754" lat="32.8557769" lon="-96.7704747"/>
  <node id="13620665755" lat="32.8564317" lon="-96.7704223"/>
  <node id="13620665756" lat="32.8566552" lon="-96.7704114"/>
  <node id="13620665757" lat="32.8698371" lon="-96.7702878"/>
  <node id="13620665758" lat="32.8707233" lon="-96.7702926"/>
  <node id="13620665759" lat="32.8711633" lon="-96.7703017"/>
  <node id="13768237600" lat="32.8402352" lon="-96.7762661"/>
  <way id="9937428">
    <nd ref="81548042"/>
    <nd ref="81548044"/>
    <nd ref="81548046"/>
    <nd ref="81548047"/>
    <tag k="cutting" v="yes"/>
    <tag k="highway" v="motorway_link"/>
    <tag k="lanes" v="1"/>
    <tag k="oneway" v="yes"/>
    <tag k="tiger:cfcc" v="A63"/>
    <tag k="tiger:county" v="Dallas, TX"/>
  </way>
  <way id="9938161">
    <nd ref="81560239"/>
    <nd ref="81560245"/>
    <nd ref="81560247"/>
    <nd ref="81560249"/>
    <nd ref="81560251"/>
    <nd ref="81560253"/>
    <nd ref="81560255"/>
    <nd ref="81560258"/>
    <nd ref="81560260"/>
    <nd ref="81560262"/>
    <nd ref="81560264"/>
    <nd ref="81560267"/>
    <nd ref="81560269"/>
    <nd ref="81560271"/>
    <nd ref="81560273"/>
    <nd ref="81560275"/>
    <nd ref="81560277"/>
    <nd ref="81560279"/>
    <nd ref="81560287"/>
    <tag k="destination:ref" v="Loop 12 East"/>
    <tag k="highway" v="motorway_link"/>
    <tag k="lanes" v="1"/>
    <tag k="oneway" v="yes"/>
    <tag k="tiger:cfcc" v="A63"/>
    <tag k="tiger:county" v="Dallas, TX"/>
  </way>
  <way id="9938586">
    <nd ref="1850949245"/>
    <nd ref="5335868463"/>
    <nd ref="5335868464"/>
    <nd ref="5335868456"/>
    <nd ref="81567142"/>
    <tag k="cutting" v="yes"/>
    <tag k="highway" v="motorway_link"/>
    <tag k="lanes" v="2"/>
    <tag k="oneway" v="yes"/>
    <tag k="tiger:cfcc" v="A63"/>
    <tag k="tiger:county" v="Dallas, TX"/>
  </way>
  <way id="9938588">
    <nd ref="2078416368"/>
    <nd ref="81567160"/>
    <nd ref="81567159"/>
    <nd ref="5335725063"/>
    <nd ref="81567156"/>
    <tag k="cutting" v="yes"/>
    <tag k="destination" v="Knox Street - Henderson Avenue;Monticello Avenue"/>
    <tag k="highway" v="motorway_link"/>
    <tag k="lanes" v="2"/>
    <tag k="maxspeed:advisory" v="45 mph"/>
    <tag k="oneway" v="yes"/>
    <tag k="surface" v="concrete:plates"/>
  </way>
  <way id="9939271">
    <nd ref="81577544"/>
    <nd ref="2078416382"/>
    <nd ref="81577542"/>
    <nd ref="81577540"/>
    <tag k="highway" v="motorway_link"/>
    <tag k="lanes" v="1"/>
    <tag k="oneway" v="yes"/>
    <tag k="tiger:cfcc" v="A63"/>
    <tag k="tiger:county" v="Dallas, TX"/>
  </way>
  <way id="9939330">
    <nd ref="81578419"/>
    <nd ref="81578417"/>
    <nd ref="5368777920"/>
    <tag k="cutting" v="yes"/>
    <tag k="highway" v="motorway_link"/>
    <tag k="lanes" v="1"/>
    <tag k="oneway" v="yes"/>
  </way>
  <way id="9939694">
    <nd ref="81644707"/>
    <nd ref="81584286"/>
    <nd ref="81584284"/>
    <nd ref="81584282"/>
    <nd ref="81584276"/>
    <nd ref="81584270"/>
    <tag k="cutting" v="yes"/>
    <tag k="destination:lanes" v="Northwest Highway;Caruth Haven Lane|Northwest Highway"/>
    <tag k="highway" v="motorway_link"/>
    <tag k="lanes" v="2"/>
    <tag k="oneway" v="yes"/>
    <tag k="tiger:cfcc" v="A63"/>
    <tag k="tiger:county" v="Dallas, TX"/>
    <tag k="turn:lanes" v="|through;slight_right"/>
  </way>
  <way id="9940088">
    <nd ref="81590749"/>
    <nd ref="81590753"/>
    <nd ref="81590754"/>
    <nd ref="81590755"/>
    <tag k="cutting" v="yes"/>
    <tag k="highway" v="motorway_link"/>
    <tag k="lanes" v="2"/>
    <tag k="oneway" v="yes"/>
  </way>
  <way id="9940103">
    <nd ref="81590962"/>
    <nd ref="2078416381"/>
    <nd ref="81590968"/>
    <nd ref="81590970"/>
    <tag k="cutting" v="yes"/>
    <tag k="highway" v="motorway_link"/>
    <tag k="lanes" v="1"/>
    <tag k="maxspeed" v="30 mph"/>
    <tag k="oneway" v="yes"/>
    <tag k="surface" v="concrete"/>
  </way>
  <way id="9940859">
    <nd ref="81600831"/>
    <nd ref="5335868698"/>
    <nd ref="81600837"/>
    <nd ref="81600839"/>
    <tag k="cutting" v="yes"/>
    <tag k="highway" v="motorway_link"/>
    <tag k="lanes" v="2"/>
    <tag k="oneway" v="yes"/>
  </way>
  <way id="9941093">
    <nd ref="81604373"/>
    <nd ref="81604371"/>
    <nd ref="81604369"/>
    <nd ref="81604367"/>
    <nd ref="81604365"/>
    <nd ref="81604363"/>
    <nd ref="81604361"/>
    <nd ref="81604359"/>
    <nd ref="81604357"/>
    <nd ref="81604355"/>
    <nd ref="81604353"/>
    <nd ref="81604351"/>
    <nd ref="81604349"/>
    <nd ref="81604347"/>
    <nd ref="81604345"/>
    <nd ref="81604341"/>
    <nd ref="81604339"/>
    <nd ref="81604335"/>
    <nd ref="81604333"/>
    <tag k="destination" v="Northwest Highway"/>
    <tag k="destination:ref" v="Loop 12 West"/>
    <tag k="highway" v="motorway_link"/>
    <tag k="lanes" v="1"/>
    <tag k="oneway" v="yes"/>
  </way>
  <way id="9941472">
    <nd ref="81608999"/>
    <nd ref="5335868686"/>
    <nd ref="476675834"/>
    <nd ref="5335868691"/>
    <tag k="highway" v="motorway_link"/>
    <tag k="lanes" v="1"/>
    <tag k="oneway" v="yes"/>
  </way>
  <way id="9941939">
    <nd ref="81616392"/>
    <nd ref="81616390"/>
    <nd ref="12430122337"/>
    <nd ref="81616384"/>
    <tag k="highway" v="motorway_link"/>
    <tag k="lanes" v="2"/>
    <tag k="maxspeed" v="35 mph"/>
    <tag k="oneway" v="yes"/>
  </way>
  <way id="9942047">
    <nd ref="4250072590"/>
    <nd ref="81618136"/>
    <nd ref="81618130"/>
    <nd ref="81618128"/>
    <tag k="cutting" v="yes"/>
    <tag k="highway" v="motorway_link"/>
    <tag k="lanes" v="1"/>
    <tag k="maxheight" v="16'11&quot;"/>
    <tag k="oneway" v="yes"/>
    <tag k="tiger:county" v="Dallas, TX"/>
  </way>
  <way id="9942170">
    <nd ref="81620395"/>
    <nd ref="81620397"/>
    <nd ref="81620399"/>
    <nd ref="81620401"/>
    <tag k="destination:ref" v="US 75 South"/>
    <tag k="highway" v="motorway_link"/>
    <tag k="lanes" v="1"/>
    <tag k="oneway" v="yes"/>
    <tag k="tiger:cfcc" v="A63"/>
    <tag k="tiger:county" v="Dallas, TX"/>
  </way>
  <way id="9944200">
    <nd ref="81637773"/>
    <nd ref="81637775"/>
    <nd ref="81637777"/>
    <nd ref="81637779"/>
    <tag k="highway" v="motorway_link"/>
    <tag k="lanes" v="1"/>
    <tag k="oneway" v="yes"/>
    <tag k="tiger:cfcc" v="A63"/>
    <tag k="tiger:county" v="Dallas, TX"/>
  </way>
  <way id="9945009">
    <nd ref="81584270"/>
    <nd ref="81643299"/>
    <nd ref="81643301"/>
    <nd ref="81643302"/>
    <nd ref="81643303"/>
    <nd ref="81643305"/>
    <nd ref="81643306"/>
    <nd ref="81643307"/>
    <nd ref="81643309"/>
    <nd ref="81643311"/>
    <nd ref="81643313"/>
    <nd ref="81643316"/>
    <tag k="destination" v="Northwest Highway"/>
    <tag k="destination:ref" v="12 Loop West"/>
    <tag k="highway" v="motorway_link"/>
    <tag k="lanes" v="1"/>
    <tag k="oneway" v="yes"/>
    <tag k="tiger:cfcc" v="A63"/>
    <tag k="tiger:county" v="Dallas, TX"/>
  </way>
  <way id="9945430">
    <nd ref="81646407"/>
    <nd ref="2078416377"/>
    <tag k="cutting" v="yes"/>
    <tag k="destination" v="Mockingbird Lane;Monticello Avenue"/>
    <tag k="highway" v="motorway_link"/>
    <tag k="junction:ref" v="3"/>
    <tag k="lanes" v="2"/>
    <tag k="oneway" v="yes"/>
    <tag k="placement" v="transition"/>
    <tag k="tiger:cfcc" v="A63"/>
    <tag k="tiger:county" v="Dallas, TX"/>
  </way>
  <way id="9945667">
    <nd ref="81647817"/>
    <nd ref="81647818"/>
    <nd ref="81647819"/>
    <tag k="cutting" v="yes"/>
    <tag k="highway" v="motorway_link"/>
    <tag k="lanes" v="2"/>
    <tag k="oneway" v="yes"/>
    <tag k="tiger:cfcc" v="A63"/>
    <tag k="tiger:county" v="Dallas, TX"/>
  </way>
  <way id="9946317">
    <nd ref="81651827"/>
    <nd ref="81651826"/>
    <nd ref="81651824"/>
    <tag k="cutting" v="yes"/>
    <tag k="highway" v="motorway_link"/>
    <tag k="lanes" v="1"/>
    <tag k="oneway" v="yes"/>
    <tag k="tiger:cfcc" v="A63"/>
    <tag k="tiger:county" v="Dallas, TX"/>
  </way>
  <way id="9946880">
    <nd ref="81655533"/>
    <nd ref="81655530"/>
    <nd ref="81655529"/>
    <nd ref="81655528"/>
    <nd ref="81655526"/>
    <nd ref="81655525"/>
    <nd ref="81655524"/>
    <tag k="destination:ref" v="US-75 South"/>
    <tag k="highway" v="motorway_link"/>
    <tag k="lanes" v="2"/>
    <tag k="oneway" v="yes"/>
    <tag k="tiger:cfcc" v="A63"/>
    <tag k="tiger:county" v="Dallas, TX"/>
    <tag k="turn:lanes" v="left|left"/>
  </way>
  <way id="9947430">
    <nd ref="315097460"/>
    <nd ref="5335868712"/>
    <nd ref="315097458"/>
    <nd ref="81659334"/>
    <nd ref="81659331"/>
    <tag k="highway" v="motorway_link"/>
    <tag k="lanes" v="1"/>
    <tag k="oneway" v="yes"/>
    <tag k="tiger:cfcc" v="A63"/>
    <tag k="tiger:county" v="Dallas, TX"/>
  </way>
  <way id="9978512">
    <nd ref="81584270"/>
    <nd ref="81560239"/>
    <tag k="destination" v="Northwest Highway;Caruth Haven Lane"/>
    <tag k="destination:lanes" v="Caruth Haven Lane;Southwestern Boulevard|none"/>
    <tag k="destination:ref" v="12 Loop East"/>
    <tag k="highway" v="motorway_link"/>
    <tag k="lanes" v="2"/>
    <tag k="oneway" v="yes"/>
    <tag k="tiger:cfcc" v="A41"/>
    <tag k="tiger:county" v="Dallas, TX"/>
    <tag k="tiger:zip_left" v="75204;75205"/>
    <tag k="turn:lanes" v="through|right"/>
  </way>
  <way id="28672080">
    <nd ref="81627856"/>
    <nd ref="81627857"/>
    <nd ref="5335868743"/>
    <nd ref="5335868744"/>
    <nd ref="315092916"/>
    <tag k="cutting" v="yes"/>
    <tag k="highway" v="motorway_link"/>
    <tag k="lanes" v="1"/>
    <tag k="maxheight" v="17'0&quot;"/>
    <tag k="oneway" v="yes"/>
    <tag k="tiger:cfcc" v="A63"/>
    <tag k="tiger:county" v="Dallas, TX"/>
  </way>
  <way id="28672118">
    <nd ref="81929229"/>
    <nd ref="81620437"/>
    <tag k="NHS" v="STRAHNET"/>
    <tag k="cutting" v="yes"/>
    <tag k="hgv" v="designated"/>
    <tag k="hgv:national_network" v="yes"/>
    <tag k="highway" v="motorway"/>
    <tag k="lanes" v="4"/>
    <tag k="maxspeed" v="70 mph"/>
    <tag k="name" v="North Central Expressway"/>
    <tag k="oneway" v="yes"/>
    <tag k="placement" v="left_of:2"/>
    <tag k="ref" v="US 75"/>
    <tag k="source:hgv:national_network" v="https://www.ecfr.gov/current/title-23/chapter-I/subchapter-G/part-658;https://hepgis-usdot.hub.arcgis.com/apps/usdot::national-network-conventional-combination-trucks-map"/>
    <tag k="surface" v="concrete:plates"/>
    <tag k="tiger:cfcc" v="A25:A25;A15"/>
    <tag k="tiger:county" v="Dallas, TX"/>
    <tag k="tiger:name_base" v="Central"/>
    <tag k="tiger:name_base_1" v="United States Highway 75"/>
    <tag k="tiger:name_base_2" v="Julius Schepps"/>
    <tag k="tiger:name_direction_prefix" v="N"/>
    <tag k="tiger:name_type" v="Expy"/>
  </way>
  <way id="28672120">
    <nd ref="81600829"/>
    <nd ref="81928205"/>
    <nd ref="81608997"/>
    <tag k="NHS" v="STRAHNET"/>
    <tag k="cutting" v="yes"/>
    <tag k="destination:lanes" v="none|none|none|none;NorthPark Boulevard;Park Lane"/>
    <tag k="hgv" v="designated"/>
    <tag k="hgv:national_network" v="yes"/>
    <tag k="highway" v="motorway"/>
    <tag k="lanes" v="4"/>
    <tag k="maxspeed" v="70 mph"/>
    <tag k="name" v="North Central Expressway"/>
    <tag k="oneway" v="yes"/>
    <tag k="ref" v="US 75"/>
    <tag k="source:hgv:national_network" v="https://www.ecfr.gov/current/title-23/chapter-I/subchapter-G/part-658;https://hepgis-usdot.hub.arcgis.com/apps/usdot::national-network-conventional-combination-trucks-map"/>
    <tag k="surface" v="concrete:plates"/>
    <tag k="tiger:cfcc" v="A25"/>
    <tag k="tiger:county" v="Dallas, TX"/>
    <tag k="tiger:name_base" v="Central"/>
    <tag k="tiger:name_base_1" v="United States Highway 75"/>
    <tag k="tiger:name_direction_prefix" v="N"/>
    <tag k="tiger:name_type" v="Expy"/>
    <tag k="turn:lanes" v="none|none|none|through;slight_right"/>
  </way>
  <way id="28672366">
    <nd ref="4250072591"/>
    <nd ref="5335868735"/>
    <nd ref="81618146"/>
    <tag k="destination:street" v="Mockingbird Lane;Monticello Avenue"/>
    <tag k="highway" v="motorway_link"/>
    <tag k="lanes" v="2"/>
    <tag k="oneway" v="yes"/>
    <tag k="tiger:cfcc" v="A63"/>
    <tag k="tiger:county" v="Dallas, TX"/>
  </way>
  <way id="28672374">
    <nd ref="5335868737"/>
    <nd ref="81618138"/>
    <nd ref="4250072590"/>
    <tag k="highway" v="motorway_link"/>
    <tag k="lanes" v="1"/>
    <tag k="maxheight" v="16'11&quot;"/>
    <tag k="oneway" v="yes"/>
    <tag k="tiger:county" v="Dallas, TX"/>
  </way>
  <way id="28672398">
    <nd ref="2078416377"/>
    <nd ref="315096212"/>
    <nd ref="315095831"/>
    <nd ref="4250072591"/>
    <tag k="cutting" v="yes"/>
    <tag k="highway" v="motorway_link"/>
    <tag k="lanes" v="2"/>
    <tag k="oneway" v="yes"/>
    <tag k="tiger:cfcc" v="A63"/>
    <tag k="tiger:county" v="Dallas, TX"/>
  </way>
  <way id="39763555">
    <nd ref="8006858696"/>
    <nd ref="1850949387"/>
    <nd ref="5368778026"/>
    <tag k="cutting" v="yes"/>
    <tag k="highway" v="motorway_link"/>
    <tag k="lanes" v="1"/>
    <tag k="oneway" v="yes"/>
    <tag k="tiger:cfcc" v="A63"/>
    <tag k="tiger:county" v="Dallas, TX"/>
  </way>
  <way id="39763797">
    <nd ref="81569174"/>
    <nd ref="476675794"/>
    <nd ref="81578435"/>
    <tag k="destination:ref" v="US 75 North"/>
    <tag k="highway" v="motorway_link"/>
    <tag k="lanes" v="2"/>
    <tag k="oneway" v="yes"/>
  </way>
  <way id="39763798">
    <nd ref="81578435"/>
    <nd ref="81578433"/>
    <nd ref="81578430"/>
    <nd ref="81578424"/>
    <nd ref="81578422"/>
    <tag k="bridge" v="yes"/>
    <tag k="highway" v="motorway_link"/>
    <tag k="lanes" v="2"/>
    <tag k="layer" v="1"/>
    <tag k="oneway" v="yes"/>
    <tag k="turn:lanes" v="merge_to_right|"/>
  </way>
  <way id="39763804">
    <nd ref="81620420"/>
    <nd ref="81620422"/>
    <nd ref="81620425"/>
    <nd ref="81620429"/>
    <nd ref="81620431"/>
    <nd ref="81620435"/>
    <tag k="bridge" v="yes"/>
    <tag k="highway" v="motorway_link"/>
    <tag k="lanes" v="1"/>
    <tag k="layer" v="1"/>
    <tag k="oneway" v="yes"/>
    <tag k="tiger:cfcc" v="A63"/>
    <tag k="tiger:county" v="Dallas, TX"/>
  </way>
  <way id="39763805">
    <nd ref="2078416383"/>
    <nd ref="476682191"/>
    <tag k="cutting" v="yes"/>
    <tag k="highway" v="motorway_link"/>
    <tag k="lanes" v="1"/>
    <tag k="oneway" v="yes"/>
    <tag k="tiger:cfcc" v="A63"/>
    <tag k="tiger:county" v="Dallas, TX"/>
  </way>
  <way id="148016715">
    <nd ref="81634319"/>
    <nd ref="81634318"/>
    <nd ref="81634314"/>
    <nd ref="81634307"/>
    <tag k="highway" v="motorway_link"/>
    <tag k="lanes" v="1"/>
    <tag k="oneway" v="yes"/>
    <tag k="tiger:cfcc" v="A63"/>
    <tag k="tiger:county" v="Dallas, TX"/>
  </way>
  <way id="174396392">
    <nd ref="81560239"/>
    <nd ref="81928892"/>
    <nd ref="5335868694"/>
    <nd ref="5335868695"/>
    <nd ref="81928890"/>
    <nd ref="81928888"/>
    <nd ref="81928886"/>
    <nd ref="81928884"/>
    <nd ref="6684573925"/>
    <nd ref="81928882"/>
    <nd ref="476675791"/>
    <tag k="destination" v="Caruth Haven Lane;Southwestern Boulevard"/>
    <tag k="destination:ref" v="US 75 South"/>
    <tag k="highway" v="motorway_link"/>
    <tag k="lanes" v="1"/>
    <tag k="oneway" v="yes"/>
    <tag k="tiger:cfcc" v="A41"/>
    <tag k="tiger:county" v="Dallas, TX"/>
    <tag k="tiger:name_base" v="Boll:San Jacinto;Central"/>
    <tag k="tiger:name_direction_prefix" v="N"/>
    <tag k="tiger:name_type" v="St;Expy"/>
    <tag k="tiger:zip_left" v="75204;75205"/>
  </way>
  <way id="197635342">
    <nd ref="81600846"/>
    <nd ref="81600851"/>
    <nd ref="81600867"/>
    <nd ref="81600875"/>
    <nd ref="81600878"/>
    <nd ref="5335868681"/>
    <nd ref="81600881"/>
    <nd ref="81600883"/>
    <nd ref="81600885"/>
    <nd ref="81600887"/>
    <nd ref="81600893"/>
    <tag k="destination" v="Northwest Highway"/>
    <tag k="destination:ref" v="Loop 12 East"/>
    <tag k="highway" v="motorway_link"/>
    <tag k="lanes" v="1"/>
    <tag k="oneway" v="yes"/>
  </way>
  <way id="197635357">
    <nd ref="81620401"/>
    <nd ref="81620403"/>
    <nd ref="81620405"/>
    <nd ref="81620407"/>
    <nd ref="81620409"/>
    <nd ref="81620411"/>
    <nd ref="81620413"/>
    <nd ref="81620417"/>
    <nd ref="81620420"/>
    <tag k="destination:ref" v="US-75 South"/>
    <tag k="highway" v="motorway_link"/>
    <tag k="lanes" v="2"/>
    <tag k="oneway" v="yes"/>
    <tag k="tiger:cfcc" v="A63"/>
    <tag k="tiger:county" v="Dallas, TX"/>
  </way>
  <way id="425716052">
    <nd ref="81620435"/>
    <nd ref="2078416383"/>
    <tag k="highway" v="motorway_link"/>
    <tag k="lanes" v="1"/>
    <tag k="oneway" v="yes"/>
    <tag k="tiger:cfcc" v="A63"/>
    <tag k="tiger:county" v="Dallas, TX"/>
  </way>
  <way id="425716054">
    <nd ref="81644713"/>
    <nd ref="8006858696"/>
    <tag k="highway" v="motorway_link"/>
    <tag k="lanes" v="1"/>
    <tag k="oneway" v="yes"/>
    <tag k="tiger:cfcc" v="A63"/>
    <tag k="tiger:county" v="Dallas, TX"/>
  </way>
  <way id="425716055">
    <nd ref="81659331"/>
    <nd ref="81659330"/>
    <tag k="cutting" v="yes"/>
    <tag k="highway" v="motorway_link"/>
    <tag k="lanes" v="1"/>
    <tag k="oneway" v="yes"/>
    <tag k="tiger:cfcc" v="A63"/>
    <tag k="tiger:county" v="Dallas, TX"/>
  </way>
  <way id="425716056">
    <nd ref="81637779"/>
    <nd ref="5335868458"/>
    <nd ref="81637781"/>
    <tag k="cutting" v="yes"/>
    <tag k="highway" v="motorway_link"/>
    <tag k="lanes" v="1"/>
    <tag k="oneway" v="yes"/>
    <tag k="tiger:cfcc" v="A63"/>
    <tag k="tiger:county" v="Dallas, TX"/>
  </way>
  <way id="425716057">
    <nd ref="5368778024"/>
    <nd ref="81651828"/>
    <nd ref="81651827"/>
    <tag k="highway" v="motorway_link"/>
    <tag k="lanes" v="1"/>
    <tag k="oneway" v="yes"/>
    <tag k="tiger:cfcc" v="A63"/>
    <tag k="tiger:county" v="Dallas, TX"/>
  </way>
  <way id="425716058">
    <nd ref="81567156"/>
    <nd ref="1611269423"/>
    <tag k="highway" v="motorway_link"/>
    <tag k="lanes" v="2"/>
    <tag k="oneway" v="yes"/>
    <tag k="surface" v="concrete:plates"/>
  </way>
  <way id="425716059">
    <nd ref="315093107"/>
    <nd ref="81627855"/>
    <tag k="destination:ref" v="US 75 South"/>
    <tag k="highway" v="motorway_link"/>
    <tag k="lanes" v="1"/>
    <tag k="maxheight" v="17'0&quot;"/>
    <tag k="oneway" v="yes"/>
    <tag k="placement" v="transition"/>
    <tag k="tiger:cfcc" v="A63"/>
    <tag k="tiger:county" v="Dallas, TX"/>
  </way>
  <way id="425716061">
    <nd ref="81600839"/>
    <nd ref="81600841"/>
    <nd ref="5335868683"/>
    <nd ref="81600843"/>
    <nd ref="81600846"/>
    <tag k="destination:lanes" v="Northwest Highway|Northwest Highway"/>
    <tag k="highway" v="motorway_link"/>
    <tag k="lanes" v="2"/>
    <tag k="oneway" v="yes"/>
    <tag k="turn:lanes" v="slight_left|slight_right"/>
  </way>
  <way id="425716062">
    <nd ref="81548038"/>
    <nd ref="81548040"/>
    <nd ref="81548042"/>
    <tag k="highway" v="motorway_link"/>
    <tag k="lanes" v="1"/>
    <tag k="oneway" v="yes"/>
    <tag k="tiger:cfcc" v="A63"/>
    <tag k="tiger:county" v="Dallas, TX"/>
  </way>
  <way id="425716063">
    <nd ref="81567142"/>
    <nd ref="5335868462"/>
    <nd ref="2078416374"/>
    <nd ref="81567145"/>
    <tag k="highway" v="motorway_link"/>
    <tag k="lanes" v="2"/>
    <tag k="oneway" v="yes"/>
    <tag k="tiger:cfcc" v="A63"/>
    <tag k="tiger:county" v="Dallas, TX"/>
  </way>
  <way id="425716064">
    <nd ref="81590970"/>
    <nd ref="81590972"/>
    <nd ref="81590973"/>
    <nd ref="5335868665"/>
    <nd ref="4192499728"/>
    <tag k="highway" v="motorway_link"/>
    <tag k="lanes" v="1"/>
    <tag k="maxspeed" v="30 mph"/>
    <tag k="oneway" v="yes"/>
  </way>
  <way id="425716065">
    <nd ref="81647819"/>
    <nd ref="81647820"/>
    <nd ref="81647824"/>
    <tag k="destination" v="Lovers Lane;SMU Boulevard"/>
    <tag k="highway" v="motorway_link"/>
    <tag k="lanes" v="2"/>
    <tag k="oneway" v="yes"/>
    <tag k="tiger:cfcc" v="A63"/>
    <tag k="tiger:county" v="Dallas, TX"/>
  </way>
  <way id="425716066">
    <nd ref="81616397"/>
    <nd ref="5335868742"/>
    <nd ref="81616395"/>
    <nd ref="81616392"/>
    <tag k="cutting" v="yes"/>
    <tag k="highway" v="motorway_link"/>
    <tag k="lanes" v="2"/>
    <tag k="maxspeed" v="35 mph"/>
    <tag k="oneway" v="yes"/>
  </way>
  <way id="425716067">
    <nd ref="81634307"/>
    <nd ref="81634301"/>
    <nd ref="1611270401"/>
    <nd ref="1611270403"/>
    <tag k="cutting" v="yes"/>
    <tag k="highway" v="motorway_link"/>
    <tag k="lanes" v="1"/>
    <tag k="oneway" v="yes"/>
    <tag k="tiger:cfcc" v="A63"/>
    <tag k="tiger:county" v="Dallas, TX"/>
  </way>
  <way id="425716068">
    <nd ref="81590755"/>
    <nd ref="81590757"/>
    <nd ref="2078416379"/>
    <nd ref="81590764"/>
    <tag k="highway" v="motorway_link"/>
    <tag k="lanes" v="2"/>
    <tag k="oneway" v="yes"/>
  </way>
  <way id="425716069">
    <nd ref="81577540"/>
    <nd ref="81577538"/>
    <nd ref="81577536"/>
    <nd ref="81577530"/>
    <tag k="cutting" v="yes"/>
    <tag k="highway" v="motorway_link"/>
    <tag k="lanes" v="1"/>
    <tag k="oneway" v="yes"/>
    <tag k="surface" v="concrete"/>
    <tag k="tiger:cfcc" v="A63"/>
    <tag k="tiger:county" v="Dallas, TX"/>
  </way>
  <way id="552682852">
    <nd ref="81567163"/>
    <nd ref="2078416368"/>
    <tag k="cutting" v="yes"/>
    <tag k="destination" v="Knox Street - Henderson Avenue;Monticello Avenue"/>
    <tag k="highway" v="motorway_link"/>
    <tag k="junction:ref" v="2"/>
    <tag k="lanes" v="2"/>
    <tag k="maxspeed:advisory" v="45 mph"/>
    <tag k="oneway" v="yes"/>
    <tag k="placement" v="transition"/>
    <tag k="surface" v="concrete:plates"/>
  </way>
  <way id="552682853">
    <nd ref="81929359"/>
    <nd ref="13620665662"/>
    <nd ref="81929365"/>
    <nd ref="13620665661"/>
    <nd ref="13620665660"/>
    <nd ref="13620665659"/>
    <nd ref="81611236"/>
    <tag k="NHS" v="STRAHNET"/>
    <tag k="cutting" v="yes"/>
    <tag k="destination:lanes" v="none|none|none|none;Haskell Avenue-Blackburn Street;Lemmon Avenue|Haskell Avenue-Blackburn Street;Lemmon Avenue"/>
    <tag k="hgv" v="designated"/>
    <tag k="hgv:national_network" v="yes"/>
    <tag k="highway" v="motorway"/>
    <tag k="lanes" v="5"/>
    <tag k="maxheight" v="16'8&quot;"/>
    <tag k="maxspeed" v="65 mph"/>
    <tag k="name" v="North Central Expressway"/>
    <tag k="oneway" v="yes"/>
    <tag k="placement" v="left_of:2"/>
    <tag k="ref" v="US 75"/>
    <tag k="source:hgv:national_network" v="https://www.ecfr.gov/current/title-23/chapter-I/subchapter-G/part-658;https://hepgis-usdot.hub.arcgis.com/apps/usdot::national-network-conventional-combination-trucks-map"/>
    <tag k="surface" v="concrete:plates"/>
    <tag k="tiger:cfcc" v="A25:A25;A15"/>
    <tag k="tiger:county" v="Dallas, TX"/>
    <tag k="tiger:name_base" v="Central"/>
    <tag k="tiger:name_base_1" v="United States Highway 75"/>
    <tag k="tiger:name_base_2" v="Julius Schepps"/>
    <tag k="tiger:name_direction_prefix" v="N"/>
    <tag k="tiger:name_type" v="Expy"/>
    <tag k="turn:lanes" v="|||through;right|right"/>
  </way>
  <way id="552699419">
    <nd ref="81644705"/>
    <nd ref="5368778022"/>
    <nd ref="13620665759"/>
    <nd ref="13620665758"/>
    <nd ref="81929219"/>
    <nd ref="13620665757"/>
    <nd ref="81644720"/>
    <tag k="NHS" v="STRAHNET"/>
    <tag k="cutting" v="yes"/>
    <tag k="hgv" v="designated"/>
    <tag k="hgv:national_network" v="yes"/>
    <tag k="highway" v="motorway"/>
    <tag k="lanes" v="4"/>
    <tag k="maxspeed" v="70 mph"/>
    <tag k="name" v="North Central Expressway"/>
    <tag k="oneway" v="yes"/>
    <tag k="placement" v="left_of:2"/>
    <tag k="ref" v="US 75"/>
    <tag k="source:hgv:national_network" v="https://www.ecfr.gov/current/title-23/chapter-I/subchapter-G/part-658;https://hepgis-usdot.hub.arcgis.com/apps/usdot::national-network-conventional-combination-trucks-map"/>
    <tag k="surface" v="concrete:plates"/>
    <tag k="tiger:cfcc" v="A25:A25;A15"/>
    <tag k="tiger:county" v="Dallas, TX"/>
    <tag k="tiger:name_base" v="Central"/>
    <tag k="tiger:name_base_1" v="United States Highway 75"/>
    <tag k="tiger:name_base_2" v="Julius Schepps"/>
    <tag k="tiger:name_direction_prefix" v="N"/>
    <tag k="tiger:name_type" v="Expy"/>
  </way>
  <way id="552699420">
    <nd ref="81608997"/>
    <nd ref="81608999"/>
    <tag k="destination" v="NorthPark Boulevard;Park Lane"/>
    <tag k="highway" v="motorway_link"/>
    <tag k="junction:ref" v="5B"/>
    <tag k="lanes" v="1"/>
    <tag k="oneway" v="yes"/>
    <tag k="placement" v="transition"/>
  </way>
  <way id="552699421">
    <nd ref="81600829"/>
    <nd ref="81600831"/>
    <tag k="cutting" v="yes"/>
    <tag k="destination" v="Northwest Highway"/>
    <tag k="destination:ref" v="LOOP 12"/>
    <tag k="highway" v="motorway_link"/>
    <tag k="junction:ref" v="5A"/>
    <tag k="lanes" v="2"/>
    <tag k="oneway" v="yes"/>
    <tag k="placement" v="transition"/>
  </way>
  <way id="552699422">
    <nd ref="81548049"/>
    <nd ref="5335868700"/>
    <nd ref="5335868699"/>
    <nd ref="5335868701"/>
    <nd ref="81590959"/>
    <tag k="NHS" v="STRAHNET"/>
    <tag k="cutting" v="yes"/>
    <tag k="destination:lanes" v="none|none|none|none|none;Caruth Haven Lane"/>
    <tag k="hgv" v="designated"/>
    <tag k="hgv:national_network" v="yes"/>
    <tag k="highway" v="motorway"/>
    <tag k="lanes" v="5"/>
    <tag k="maxspeed" v="70 mph"/>
    <tag k="name" v="North Central Expressway"/>
    <tag k="oneway" v="yes"/>
    <tag k="placement" v="right_of:2"/>
    <tag k="ref" v="US 75"/>
    <tag k="source:hgv:national_network" v="https://www.ecfr.gov/current/title-23/chapter-I/subchapter-G/part-658;https://hepgis-usdot.hub.arcgis.com/apps/usdot::national-network-conventional-combination-trucks-map"/>
    <tag k="surface" v="concrete:plates"/>
    <tag k="tiger:cfcc" v="A25"/>
    <tag k="tiger:county" v="Dallas, TX"/>
    <tag k="tiger:name_base" v="Central"/>
    <tag k="tiger:name_base_1" v="United States Highway 75"/>
    <tag k="tiger:name_direction_prefix" v="N"/>
    <tag k="tiger:name_type" v="Expy"/>
    <tag k="turn:lanes" v="none|none|none|none|through;slight_right"/>
  </way>
  <way id="552699425">
    <nd ref="476682191"/>
    <nd ref="81620437"/>
    <tag k="cutting" v="yes"/>
    <tag k="highway" v="motorway_link"/>
    <tag k="lanes" v="1"/>
    <tag k="oneway" v="yes"/>
    <tag k="placement" v="transition"/>
    <tag k="tiger:cfcc" v="A63"/>
    <tag k="tiger:county" v="Dallas, TX"/>
  </way>
  <way id="552699428">
    <nd ref="81620437"/>
    <nd ref="81929247"/>
    <nd ref="81577528"/>
    <nd ref="13620665756"/>
    <nd ref="13620665755"/>
    <nd ref="5335868702"/>
    <nd ref="81929251"/>
    <nd ref="13620665754"/>
    <nd ref="13620665753"/>
    <nd ref="13620665752"/>
    <nd ref="81647815"/>
    <tag k="NHS" v="STRAHNET"/>
    <tag k="cutting" v="yes"/>
    <tag k="destination:lanes" v="none|none|none|none;Lovers Lane;SMU Boulevard|Lovers Lane;SMU Boulevard"/>
    <tag k="hgv" v="designated"/>
    <tag k="hgv:national_network" v="yes"/>
    <tag k="highway" v="motorway"/>
    <tag k="lanes" v="5"/>
    <tag k="maxspeed" v="70 mph"/>
    <tag k="name" v="North Central Expressway"/>
    <tag k="oneway" v="yes"/>
    <tag k="placement" v="left_of:2"/>
    <tag k="ref" v="US 75"/>
    <tag k="source:hgv:national_network" v="https://www.ecfr.gov/current/title-23/chapter-I/subchapter-G/part-658;https://hepgis-usdot.hub.arcgis.com/apps/usdot::national-network-conventional-combination-trucks-map"/>
    <tag k="surface" v="concrete"/>
    <tag k="turn:lanes" v="|||through;right|right"/>
  </way>
  <way id="552699431">
    <nd ref="81577545"/>
    <nd ref="81577544"/>
    <tag k="destination:ref" v="US 75 South"/>
    <tag k="highway" v="motorway_link"/>
    <tag k="lanes" v="1"/>
    <tag k="oneway" v="yes"/>
    <tag k="placement" v="transition"/>
    <tag k="tiger:cfcc" v="A63"/>
    <tag k="tiger:county" v="Dallas, TX"/>
  </way>
  <way id="552699432">
    <nd ref="81577530"/>
    <nd ref="81577528"/>
    <tag k="cutting" v="yes"/>
    <tag k="highway" v="motorway_link"/>
    <tag k="lanes" v="1"/>
    <tag k="oneway" v="yes"/>
    <tag k="placement" v="transition"/>
  </way>
  <way id="552699433">
    <nd ref="81590959"/>
    <nd ref="81590962"/>
    <tag k="cutting" v="yes"/>
    <tag k="destination" v="Caruth Haven Lane"/>
    <tag k="highway" v="motorway_link"/>
    <tag k="junction:ref" v="4B"/>
    <tag k="lanes" v="1"/>
    <tag k="maxspeed" v="30 mph"/>
    <tag k="oneway" v="yes"/>
    <tag k="placement" v="transition"/>
    <tag k="surface" v="concrete"/>
  </way>
  <way id="552699434">
    <nd ref="81548047"/>
    <nd ref="81548049"/>
    <tag k="cutting" v="yes"/>
    <tag k="highway" v="motorway_link"/>
    <tag k="lanes" v="1"/>
    <tag k="oneway" v="yes"/>
    <tag k="placement" v="transition"/>
    <tag k="tiger:cfcc" v="A63"/>
    <tag k="tiger:county" v="Dallas, TX"/>
  </way>
  <way id="552699435">
    <nd ref="81590747"/>
    <nd ref="81928233"/>
    <nd ref="5335868727"/>
    <nd ref="5335868726"/>
    <nd ref="81928228"/>
    <nd ref="81928225"/>
    <nd ref="5335868711"/>
    <nd ref="315097059"/>
    <nd ref="315097127"/>
    <nd ref="81928220"/>
    <nd ref="81928219"/>
    <nd ref="81928218"/>
    <nd ref="5335868708"/>
    <nd ref="5335868706"/>
    <nd ref="5335868709"/>
    <nd ref="81548049"/>
    <tag k="NHS" v="STRAHNET"/>
    <tag k="cutting" v="yes"/>
    <tag k="hgv" v="designated"/>
    <tag k="hgv:national_network" v="yes"/>
    <tag k="highway" v="motorway"/>
    <tag k="lanes" v="4"/>
    <tag k="maxspeed" v="70 mph"/>
    <tag k="name" v="North Central Expressway"/>
    <tag k="oneway" v="yes"/>
    <tag k="ref" v="US 75"/>
    <tag k="source:hgv:national_network" v="https://www.ecfr.gov/current/title-23/chapter-I/subchapter-G/part-658;https://hepgis-usdot.hub.arcgis.com/apps/usdot::national-network-conventional-combination-trucks-map"/>
    <tag k="surface" v="concrete:plates"/>
    <tag k="tiger:cfcc" v="A25"/>
    <tag k="tiger:county" v="Dallas, TX"/>
    <tag k="tiger:name_base" v="Central"/>
    <tag k="tiger:name_base_1" v="United States Highway 75"/>
    <tag k="tiger:name_direction_prefix" v="N"/>
    <tag k="tiger:name_type" v="Expy"/>
  </way>
  <way id="552699436">
    <nd ref="81647815"/>
    <nd ref="81647817"/>
    <tag k="cutting" v="yes"/>
    <tag k="destination" v="Lovers Lane;SMU Boulevard"/>
    <tag k="highway" v="motorway_link"/>
    <tag k="junction:ref" v="4"/>
    <tag k="lanes" v="2"/>
    <tag k="oneway" v="yes"/>
    <tag k="placement" v="transition"/>
    <tag k="tiger:cfcc" v="A63"/>
    <tag k="tiger:county" v="Dallas, TX"/>
  </way>
  <way id="552699437">
    <nd ref="81647815"/>
    <nd ref="5335868705"/>
    <nd ref="13620665751"/>
    <nd ref="5335868707"/>
    <nd ref="13620665750"/>
    <nd ref="81929255"/>
    <nd ref="13620665749"/>
    <nd ref="81929257"/>
    <nd ref="13620665748"/>
    <nd ref="81929261"/>
    <nd ref="13620665747"/>
    <nd ref="81929263"/>
    <nd ref="13620665746"/>
    <nd ref="81929269"/>
    <nd ref="13620665745"/>
    <nd ref="5335868710"/>
    <nd ref="13620665744"/>
    <nd ref="81616655"/>
    <nd ref="13620665743"/>
    <nd ref="81929277"/>
    <nd ref="13620665742"/>
    <nd ref="5335868729"/>
    <nd ref="13620665741"/>
    <nd ref="13620665740"/>
    <nd ref="2078416378"/>
    <nd ref="13620665739"/>
    <nd ref="13620665738"/>
    <nd ref="81659328"/>
    <tag k="NHS" v="STRAHNET"/>
    <tag k="cutting" v="yes"/>
    <tag k="hgv" v="designated"/>
    <tag k="hgv:national_network" v="yes"/>
    <tag k="highway" v="motorway"/>
    <tag k="lanes" v="4"/>
    <tag k="maxspeed" v="70 mph"/>
    <tag k="name" v="North Central Expressway"/>
    <tag k="oneway" v="yes"/>
    <tag k="placement" v="left_of:2"/>
    <tag k="ref" v="US 75"/>
    <tag k="source:hgv:national_network" v="https://www.ecfr.gov/current/title-23/chapter-I/subchapter-G/part-658;https://hepgis-usdot.hub.arcgis.com/apps/usdot::national-network-conventional-combination-trucks-map"/>
    <tag k="surface" v="concrete:plates"/>
    <tag k="tiger:cfcc" v="A25:A25;A15"/>
    <tag k="tiger:county" v="Dallas, TX"/>
    <tag k="tiger:name_base" v="Central"/>
    <tag k="tiger:name_base_1" v="United States Highway 75"/>
    <tag k="tiger:name_base_2" v="Julius Schepps"/>
    <tag k="tiger:name_direction_prefix" v="N"/>
    <tag k="tiger:name_type" v="Expy"/>
  </way>
  <way id="552699438">
    <nd ref="81548036"/>
    <nd ref="81548038"/>
    <tag k="destination:ref" v="US 75 North"/>
    <tag k="highway" v="motorway_link"/>
    <tag k="lanes" v="1"/>
    <tag k="oneway" v="yes"/>
    <tag k="placement" v="transition"/>
    <tag k="tiger:cfcc" v="A63"/>
    <tag k="tiger:county" v="Dallas, TX"/>
  </way>
  <way id="552699440">
    <nd ref="81647824"/>
    <nd ref="81647826"/>
    <tag k="highway" v="motorway_link"/>
    <tag k="lanes" v="2"/>
    <tag k="oneway" v="yes"/>
    <tag k="placement" v="transition"/>
    <tag k="tiger:cfcc" v="A63"/>
    <tag k="tiger:county" v="Dallas, TX"/>
  </way>
  <way id="552699441">
    <nd ref="377532053"/>
    <nd ref="315097460"/>
    <tag k="destination:ref" v="US 75 South"/>
    <tag k="highway" v="motorway_link"/>
    <tag k="lanes" v="1"/>
    <tag k="oneway" v="yes"/>
    <tag k="placement" v="transition"/>
    <tag k="tiger:cfcc" v="A63"/>
    <tag k="tiger:county" v="Dallas, TX"/>
  </way>
  <way id="552699460">
    <nd ref="81590764"/>
    <nd ref="81590767"/>
    <tag k="highway" v="motorway_link"/>
    <tag k="lanes" v="2"/>
    <tag k="oneway" v="yes"/>
    <tag k="placement" v="transition"/>
  </way>
  <way id="552699461">
    <nd ref="81659330"/>
    <nd ref="81659328"/>
    <tag k="cutting" v="yes"/>
    <tag k="highway" v="motorway_link"/>
    <tag k="lanes" v="1"/>
    <tag k="oneway" v="yes"/>
    <tag k="placement" v="transition"/>
    <tag k="tiger:cfcc" v="A63"/>
    <tag k="tiger:county" v="Dallas, TX"/>
  </way>
  <way id="552699462">
    <nd ref="81590747"/>
    <nd ref="81590749"/>
    <tag k="cutting" v="yes"/>
    <tag k="destination" v="Lovers Lane;Southwestern Boulevard"/>
    <tag k="highway" v="motorway_link"/>
    <tag k="junction:ref" v="4A"/>
    <tag k="lanes" v="2"/>
    <tag k="maxspeed:advisory" v="45 mph"/>
    <tag k="oneway" v="yes"/>
    <tag k="placement" v="transition"/>
  </way>
  <way id="552699463">
    <nd ref="81618126"/>
    <nd ref="81928240"/>
    <nd ref="315097035"/>
    <nd ref="81590747"/>
    <tag k="NHS" v="STRAHNET"/>
    <tag k="cutting" v="yes"/>
    <tag k="destination:lanes" v="none|none|none|none;Lovers Lane;Southwestern Boulevard|Lovers Lane;Southwestern Boulevard"/>
    <tag k="hgv" v="designated"/>
    <tag k="hgv:national_network" v="yes"/>
    <tag k="highway" v="motorway"/>
    <tag k="lanes" v="5"/>
    <tag k="maxheight" v="16'11&quot;"/>
    <tag k="maxspeed" v="70 mph"/>
    <tag k="name" v="North Central Expressway"/>
    <tag k="oneway" v="yes"/>
    <tag k="placement" v="right_of:2"/>
    <tag k="ref" v="US 75"/>
    <tag k="source:hgv:national_network" v="https://www.ecfr.gov/current/title-23/chapter-I/subchapter-G/part-658;https://hepgis-usdot.hub.arcgis.com/apps/usdot::national-network-conventional-combination-trucks-map"/>
    <tag k="surface" v="concrete:plates"/>
    <tag k="tiger:cfcc" v="A25"/>
    <tag k="tiger:county" v="Dallas, TX"/>
    <tag k="tiger:name_base" v="Central"/>
    <tag k="tiger:name_base_1" v="United States Highway 75"/>
    <tag k="tiger:name_direction_prefix" v="N"/>
    <tag k="tiger:name_type" v="Expy"/>
    <tag k="turn:lanes" v="|||through;right|right"/>
  </way>
  <way id="552699464">
    <nd ref="81659328"/>
    <nd ref="13620665737"/>
    <nd ref="5335868730"/>
    <nd ref="315097031"/>
    <nd ref="13620665736"/>
    <nd ref="13620665735"/>
    <nd ref="13620665734"/>
    <nd ref="13620665733"/>
    <nd ref="13620665732"/>
    <nd ref="12384188382"/>
    <tag k="NHS" v="STRAHNET"/>
    <tag k="cutting" v="yes"/>
    <tag k="destination:lanes" v="none|none|none|none;Mockingbird Lane;Monticello Avenue|Mockingbird Lane;Monticello Avenue"/>
    <tag k="hgv" v="designated"/>
    <tag k="hgv:national_network" v="yes"/>
    <tag k="highway" v="motorway"/>
    <tag k="lanes" v="5"/>
    <tag k="maxspeed" v="70 mph"/>
    <tag k="name" v="North Central Expressway"/>
    <tag k="oneway" v="yes"/>
    <tag k="placement" v="left_of:2"/>
    <tag k="ref" v="US 75"/>
    <tag k="source:hgv:national_network" v="https://www.ecfr.gov/current/title-23/chapter-I/subchapter-G/part-658;https://hepgis-usdot.hub.arcgis.com/apps/usdot::national-network-conventional-combination-trucks-map"/>
    <tag k="surface" v="concrete:plates"/>
    <tag k="tiger:cfcc" v="A25:A25;A15"/>
    <tag k="tiger:county" v="Dallas, TX"/>
    <tag k="tiger:name_base" v="Central"/>
    <tag k="tiger:name_base_1" v="United States Highway 75"/>
    <tag k="tiger:name_base_2" v="Julius Schepps"/>
    <tag k="tiger:name_direction_prefix" v="N"/>
    <tag k="tiger:name_type" v="Expy"/>
    <tag k="turn:lanes" v="none|none|none|through;slight_right|slight_right"/>
  </way>
  <way id="552699465">
    <nd ref="81616403"/>
    <nd ref="81928288"/>
    <nd ref="81928287"/>
    <nd ref="81928286"/>
    <nd ref="81928284"/>
    <nd ref="81928282"/>
    <nd ref="81928280"/>
    <nd ref="81928278"/>
    <nd ref="81928274"/>
    <nd ref="81928273"/>
    <nd ref="81928272"/>
    <nd ref="81928271"/>
    <nd ref="81928269"/>
    <nd ref="81928266"/>
    <nd ref="81540212"/>
    <nd ref="81928264"/>
    <nd ref="81928261"/>
    <nd ref="81928259"/>
    <nd ref="13768237600"/>
    <tag k="NHS" v="STRAHNET"/>
    <tag k="cutting" v="yes"/>
    <tag k="hgv" v="designated"/>
    <tag k="hgv:national_network" v="yes"/>
    <tag k="highway" v="motorway"/>
    <tag k="lanes" v="4"/>
    <tag k="maxheight" v="16'11&quot;"/>
    <tag k="maxspeed" v="65 mph"/>
    <tag k="name" v="North Central Expressway"/>
    <tag k="oneway" v="yes"/>
    <tag k="ref" v="US 75"/>
    <tag k="source:hgv:national_network" v="https://www.ecfr.gov/current/title-23/chapter-I/subchapter-G/part-658;https://hepgis-usdot.hub.arcgis.com/apps/usdot::national-network-conventional-combination-trucks-map"/>
    <tag k="surface" v="concrete:plates"/>
    <tag k="tiger:cfcc" v="A25"/>
    <tag k="tiger:county" v="Dallas, TX"/>
    <tag k="tiger:name_base" v="Central"/>
    <tag k="tiger:name_base_1" v="United States Highway 75"/>
    <tag k="tiger:name_direction_prefix" v="N"/>
    <tag k="tiger:name_type" v="Expy"/>
  </way>
  <way id="552699466">
    <nd ref="81646407"/>
    <nd ref="315095850"/>
    <nd ref="13620665731"/>
    <nd ref="13620665730"/>
    <nd ref="13620665729"/>
    <nd ref="81929286"/>
    <nd ref="13620665728"/>
    <nd ref="81929287"/>
    <nd ref="13620665727"/>
    <nd ref="81618144"/>
    <nd ref="13620665726"/>
    <nd ref="5335868734"/>
    <nd ref="13620665725"/>
    <nd ref="81929289"/>
    <nd ref="13620665724"/>
    <nd ref="81929290"/>
    <nd ref="13620665723"/>
    <nd ref="81929291"/>
    <nd ref="13620665722"/>
    <nd ref="81929293"/>
    <nd ref="315093537"/>
    <nd ref="81929301"/>
    <nd ref="13620665716"/>
    <nd ref="13620665721"/>
    <tag k="NHS" v="STRAHNET"/>
    <tag k="cutting" v="yes"/>
    <tag k="hgv" v="designated"/>
    <tag k="hgv:national_network" v="yes"/>
    <tag k="highway" v="motorway"/>
    <tag k="lanes" v="4"/>
    <tag k="maxspeed" v="70 mph"/>
    <tag k="name" v="North Central Expressway"/>
    <tag k="oneway" v="yes"/>
    <tag k="placement" v="left_of:2"/>
    <tag k="ref" v="US 75"/>
    <tag k="source:hgv:national_network" v="https://www.ecfr.gov/current/title-23/chapter-I/subchapter-G/part-658;https://hepgis-usdot.hub.arcgis.com/apps/usdot::national-network-conventional-combination-trucks-map"/>
    <tag k="surface" v="concrete:plates"/>
    <tag k="tiger:cfcc" v="A25:A25;A15"/>
    <tag k="tiger:county" v="Dallas, TX"/>
    <tag k="tiger:name_base" v="Central"/>
    <tag k="tiger:name_base_1" v="United States Highway 75"/>
    <tag k="tiger:name_base_2" v="Julius Schepps"/>
    <tag k="tiger:name_direction_prefix" v="N"/>
    <tag k="tiger:name_type" v="Expy"/>
  </way>
  <way id="552699467">
    <nd ref="81618128"/>
    <nd ref="81618126"/>
    <tag k="cutting" v="yes"/>
    <tag k="highway" v="motorway_link"/>
    <tag k="lanes" v="1"/>
    <tag k="maxheight" v="16'11&quot;"/>
    <tag k="oneway" v="yes"/>
    <tag k="placement" v="transition"/>
    <tag k="tiger:county" v="Dallas, TX"/>
  </way>
  <way id="552699468">
    <nd ref="81618146"/>
    <nd ref="81646412"/>
    <tag k="destination:street" v="Mockingbird Lane;Monticello Avenue"/>
    <tag k="highway" v="motorway_link"/>
    <tag k="lanes" v="2"/>
    <tag k="oneway" v="yes"/>
    <tag k="placement" v="transition"/>
    <tag k="tiger:cfcc" v="A63"/>
    <tag k="tiger:county" v="Dallas, TX"/>
  </way>
  <way id="552699469">
    <nd ref="5335868738"/>
    <nd ref="5335868737"/>
    <tag k="destination:ref" v="US 75 North"/>
    <tag k="highway" v="motorway_link"/>
    <tag k="lanes" v="1"/>
    <tag k="maxheight" v="16'11&quot;"/>
    <tag k="oneway" v="yes"/>
    <tag k="placement" v="transition"/>
    <tag k="tiger:county" v="Dallas, TX"/>
  </way>
  <way id="552699470">
    <nd ref="81616384"/>
    <nd ref="81616382"/>
    <tag k="highway" v="motorway_link"/>
    <tag k="lanes" v="2"/>
    <tag k="maxspeed" v="35 mph"/>
    <tag k="oneway" v="yes"/>
    <tag k="placement" v="transition"/>
  </way>
  <way id="552699471">
    <nd ref="81627855"/>
    <nd ref="81627856"/>
    <tag k="highway" v="motorway_link"/>
    <tag k="lanes" v="1"/>
    <tag k="maxheight" v="17'0&quot;"/>
    <tag k="oneway" v="yes"/>
    <tag k="tiger:cfcc" v="A63"/>
    <tag k="tiger:county" v="Dallas, TX"/>
  </way>
  <way id="552699472">
    <nd ref="315092916"/>
    <nd ref="81627859"/>
    <tag k="cutting" v="yes"/>
    <tag k="highway" v="motorway_link"/>
    <tag k="lanes" v="1"/>
    <tag k="maxheight" v="17'0&quot;"/>
    <tag k="oneway" v="yes"/>
    <tag k="placement" v="transition"/>
    <tag k="tiger:cfcc" v="A63"/>
    <tag k="tiger:county" v="Dallas, TX"/>
  </way>
  <way id="552699473">
    <nd ref="81616403"/>
    <nd ref="81616397"/>
    <tag k="cutting" v="yes"/>
    <tag k="destination" v="Mockingbird Lane;SMU Boulevard"/>
    <tag k="highway" v="motorway_link"/>
    <tag k="junction:ref" v="3"/>
    <tag k="lanes" v="2"/>
    <tag k="maxspeed" v="35 mph"/>
    <tag k="oneway" v="yes"/>
    <tag k="placement" v="transition"/>
  </way>
  <way id="552699474">
    <nd ref="12429444561"/>
    <nd ref="81928313"/>
    <nd ref="81928310"/>
    <nd ref="81928307"/>
    <nd ref="81545109"/>
    <nd ref="81928296"/>
    <nd ref="5335868452"/>
    <nd ref="5335868448"/>
    <nd ref="81928293"/>
    <nd ref="81928292"/>
    <nd ref="81928291"/>
    <nd ref="2078416376"/>
    <nd ref="81616403"/>
    <tag k="NHS" v="STRAHNET"/>
    <tag k="cutting" v="yes"/>
    <tag k="destination:lanes" v="none|none|none|none;Mockingbird Lane;SMU Boulevard|Mockingbird Lane;SMU Boulevard"/>
    <tag k="hgv" v="designated"/>
    <tag k="hgv:national_network" v="yes"/>
    <tag k="highway" v="motorway"/>
    <tag k="lanes" v="5"/>
    <tag k="maxspeed" v="65 mph"/>
    <tag k="name" v="North Central Expressway"/>
    <tag k="oneway" v="yes"/>
    <tag k="placement" v="right_of:2"/>
    <tag k="ref" v="US 75"/>
    <tag k="source:hgv:national_network" v="https://www.ecfr.gov/current/title-23/chapter-I/subchapter-G/part-658;https://hepgis-usdot.hub.arcgis.com/apps/usdot::national-network-conventional-combination-trucks-map"/>
    <tag k="surface" v="concrete:plates"/>
    <tag k="tiger:cfcc" v="A25"/>
    <tag k="tiger:county" v="Dallas, TX"/>
    <tag k="tiger:name_base" v="Central"/>
    <tag k="tiger:name_base_1" v="United States Highway 75"/>
    <tag k="tiger:name_direction_prefix" v="N"/>
    <tag k="tiger:name_type" v="Expy"/>
    <tag k="turn:lanes" v="|||through;right|right"/>
  </way>
  <way id="552699475">
    <nd ref="81627859"/>
    <nd ref="13620665693"/>
    <nd ref="5335868449"/>
    <nd ref="13620665692"/>
    <nd ref="13620665691"/>
    <nd ref="81929320"/>
    <nd ref="13620665690"/>
    <nd ref="81929322"/>
    <nd ref="13620665689"/>
    <nd ref="81929324"/>
    <nd ref="13620665688"/>
    <nd ref="81545107"/>
    <nd ref="13620665687"/>
    <nd ref="81929326"/>
    <nd ref="13620665686"/>
    <nd ref="13620665685"/>
    <nd ref="13620665684"/>
    <nd ref="81567140"/>
    <tag k="NHS" v="STRAHNET"/>
    <tag k="cutting" v="yes"/>
    <tag k="destination:lanes" v="none|none|none|none;Henderson Avenue-Knox Street;Fitszhugh Avenue|Henderson Avenue-Knox Street;Fitszhugh Avenue"/>
    <tag k="hgv" v="designated"/>
    <tag k="hgv:national_network" v="yes"/>
    <tag k="highway" v="motorway"/>
    <tag k="lanes" v="5"/>
    <tag k="maxspeed" v="65 mph"/>
    <tag k="name" v="North Central Expressway"/>
    <tag k="oneway" v="yes"/>
    <tag k="placement" v="left_of:2"/>
    <tag k="ref" v="US 75"/>
    <tag k="source:hgv:national_network" v="https://www.ecfr.gov/current/title-23/chapter-I/subchapter-G/part-658;https://hepgis-usdot.hub.arcgis.com/apps/usdot::national-network-conventional-combination-trucks-map"/>
    <tag k="surface" v="concrete:plates"/>
    <tag k="tiger:cfcc" v="A25:A25;A15"/>
    <tag k="tiger:county" v="Dallas, TX"/>
    <tag k="tiger:name_base" v="Central"/>
    <tag k="tiger:name_base_1" v="United States Highway 75"/>
    <tag k="tiger:name_base_2" v="Julius Schepps"/>
    <tag k="tiger:name_direction_prefix" v="N"/>
    <tag k="tiger:name_type" v="Expy"/>
    <tag k="turn:lanes" v="|||through;right|right"/>
  </way>
  <way id="552699476">
    <nd ref="81567163"/>
    <nd ref="81928378"/>
    <nd ref="81928376"/>
    <nd ref="81928363"/>
    <nd ref="5335868480"/>
    <nd ref="5335868479"/>
    <nd ref="81928360"/>
    <nd ref="5335868478"/>
    <nd ref="5335868477"/>
    <nd ref="81928355"/>
    <nd ref="81928352"/>
    <nd ref="81928350"/>
    <nd ref="81928346"/>
    <nd ref="81928343"/>
    <nd ref="81928333"/>
    <nd ref="81928331"/>
    <nd ref="81928330"/>
    <nd ref="81928327"/>
    <nd ref="81637787"/>
    <tag k="NHS" v="STRAHNET"/>
    <tag k="cutting" v="yes"/>
    <tag k="hgv" v="designated"/>
    <tag k="hgv:national_network" v="yes"/>
    <tag k="highway" v="motorway"/>
    <tag k="lanes" v="4"/>
    <tag k="maxheight" v="16'5&quot;"/>
    <tag k="maxspeed" v="65 mph"/>
    <tag k="name" v="North Central Expressway"/>
    <tag k="oneway" v="yes"/>
    <tag k="ref" v="US 75"/>
    <tag k="source:hgv:national_network" v="https://www.ecfr.gov/current/title-23/chapter-I/subchapter-G/part-658;https://hepgis-usdot.hub.arcgis.com/apps/usdot::national-network-conventional-combination-trucks-map"/>
    <tag k="surface" v="concrete:plates"/>
    <tag k="tiger:cfcc" v="A25"/>
    <tag k="tiger:county" v="Dallas, TX"/>
    <tag k="tiger:name_base" v="Central"/>
    <tag k="tiger:name_base_1" v="United States Highway 75"/>
    <tag k="tiger:name_direction_prefix" v="N"/>
    <tag k="tiger:name_type" v="Expy"/>
  </way>
  <way id="552699477">
    <nd ref="81927691"/>
    <nd ref="81637773"/>
    <tag k="destination:ref" v="US 75 North"/>
    <tag k="highway" v="motorway_link"/>
    <tag k="lanes" v="1"/>
    <tag k="oneway" v="yes"/>
    <tag k="placement" v="transition"/>
    <tag k="tiger:cfcc" v="A63"/>
    <tag k="tiger:county" v="Dallas, TX"/>
  </way>
  <way id="552699478">
    <nd ref="81637781"/>
    <nd ref="10154168188"/>
    <nd ref="81637787"/>
    <tag k="cutting" v="yes"/>
    <tag k="highway" v="motorway_link"/>
    <tag k="lanes" v="1"/>
    <tag k="oneway" v="yes"/>
    <tag k="placement" v="transition"/>
    <tag k="tiger:cfcc" v="A63"/>
    <tag k="tiger:county" v="Dallas, TX"/>
  </way>
  <way id="552699480">
    <nd ref="81567140"/>
    <nd ref="1850949245"/>
    <tag k="cutting" v="yes"/>
    <tag k="destination" v="Henderson Avenue-Knox Street;Fitszhugh Avenue"/>
    <tag k="highway" v="motorway_link"/>
    <tag k="junction:ref" v="2"/>
    <tag k="lanes" v="2"/>
    <tag k="oneway" v="yes"/>
    <tag k="placement" v="transition"/>
    <tag k="tiger:cfcc" v="A63"/>
    <tag k="tiger:county" v="Dallas, TX"/>
  </way>
  <way id="552699481">
    <nd ref="81567140"/>
    <nd ref="13620665683"/>
    <nd ref="13620665682"/>
    <nd ref="5335868459"/>
    <nd ref="13620665681"/>
    <nd ref="81929332"/>
    <nd ref="13620665678"/>
    <nd ref="81929334"/>
    <nd ref="13620665679"/>
    <nd ref="13620665680"/>
    <nd ref="13620665677"/>
    <nd ref="13620665676"/>
    <nd ref="81929336"/>
    <nd ref="13620665675"/>
    <nd ref="13620665674"/>
    <nd ref="81929340"/>
    <nd ref="81929342"/>
    <nd ref="13620665673"/>
    <nd ref="13620665672"/>
    <nd ref="13620665671"/>
    <nd ref="81929344"/>
    <nd ref="13620665670"/>
    <nd ref="81634285"/>
    <nd ref="81557935"/>
    <nd ref="13620665669"/>
    <nd ref="13620665668"/>
    <nd ref="13620665667"/>
    <nd ref="81929346"/>
    <nd ref="13620665666"/>
    <nd ref="13620665665"/>
    <nd ref="13620665664"/>
    <nd ref="81929357"/>
    <nd ref="13620665663"/>
    <nd ref="81929359"/>
    <tag k="NHS" v="STRAHNET"/>
    <tag k="cutting" v="yes"/>
    <tag k="hgv" v="designated"/>
    <tag k="hgv:national_network" v="yes"/>
    <tag k="highway" v="motorway"/>
    <tag k="lanes" v="4"/>
    <tag k="maxheight" v="16'4&quot;"/>
    <tag k="maxspeed" v="65 mph"/>
    <tag k="name" v="North Central Expressway"/>
    <tag k="oneway" v="yes"/>
    <tag k="placement" v="left_of:2"/>
    <tag k="ref" v="US 75"/>
    <tag k="source:hgv:national_network" v="https://www.ecfr.gov/current/title-23/chapter-I/subchapter-G/part-658;https://hepgis-usdot.hub.arcgis.com/apps/usdot::national-network-conventional-combination-trucks-map"/>
    <tag k="surface" v="concrete:plates"/>
    <tag k="tiger:cfcc" v="A25:A25;A15"/>
    <tag k="tiger:county" v="Dallas, TX"/>
    <tag k="tiger:name_base" v="Central"/>
    <tag k="tiger:name_base_1" v="United States Highway 75"/>
    <tag k="tiger:name_base_2" v="Julius Schepps"/>
    <tag k="tiger:name_direction_prefix" v="N"/>
    <tag k="tiger:name_type" v="Expy"/>
  </way>
  <way id="552699482">
    <nd ref="81567145"/>
    <nd ref="81567151"/>
    <tag k="highway" v="motorway_link"/>
    <tag k="lanes" v="3"/>
    <tag k="oneway" v="yes"/>
    <tag k="placement" v="transition"/>
    <tag k="tiger:cfcc" v="A63"/>
    <tag k="tiger:county" v="Dallas, TX"/>
  </way>
  <way id="552699483">
    <nd ref="5900023462"/>
    <nd ref="5900023463"/>
    <nd ref="81634319"/>
    <tag k="destination:ref" v="US 75 South"/>
    <tag k="highway" v="motorway_link"/>
    <tag k="lanes" v="1"/>
    <tag k="oneway" v="yes"/>
    <tag k="placement" v="transition"/>
    <tag k="tiger:cfcc" v="A63"/>
    <tag k="tiger:county" v="Dallas, TX"/>
  </way>
  <way id="552699484">
    <nd ref="1611270403"/>
    <nd ref="81929359"/>
    <tag k="cutting" v="yes"/>
    <tag k="highway" v="motorway_link"/>
    <tag k="lanes" v="1"/>
    <tag k="oneway" v="yes"/>
    <tag k="placement" v="transition"/>
    <tag k="tiger:cfcc" v="A63"/>
    <tag k="tiger:county" v="Dallas, TX"/>
  </way>
  <way id="552699485">
    <nd ref="1611269423"/>
    <nd ref="5335868482"/>
    <tag k="highway" v="motorway_link"/>
    <tag k="lanes" v="2"/>
    <tag k="oneway" v="yes"/>
    <tag k="placement" v="transition"/>
    <tag k="surface" v="concrete:plates"/>
  </way>
  <way id="556550407">
    <nd ref="5368777920"/>
    <nd ref="81578412"/>
    <tag k="cutting" v="yes"/>
    <tag k="highway" v="motorway_link"/>
    <tag k="lanes" v="1"/>
    <tag k="oneway" v="yes"/>
    <tag k="placement" v="transition"/>
  </way>
  <way id="556550417">
    <nd ref="81651830"/>
    <nd ref="5368778024"/>
    <tag k="destination:ref" v="US 75 North"/>
    <tag k="highway" v="motorway_link"/>
    <tag k="lanes" v="1"/>
    <tag k="oneway" v="yes"/>
    <tag k="placement" v="transition"/>
    <tag k="tiger:cfcc" v="A63"/>
    <tag k="tiger:county" v="Dallas, TX"/>
  </way>
  <way id="556550419">
    <nd ref="5368778026"/>
    <nd ref="81644720"/>
    <tag k="cutting" v="yes"/>
    <tag k="highway" v="motorway_link"/>
    <tag k="lanes" v="1"/>
    <tag k="oneway" v="yes"/>
    <tag k="placement" v="transition"/>
    <tag k="tiger:cfcc" v="A63"/>
    <tag k="tiger:county" v="Dallas, TX"/>
  </way>
  <way id="556550420">
    <nd ref="81644720"/>
    <nd ref="12429883462"/>
    <tag k="NHS" v="STRAHNET"/>
    <tag k="change:lanes" v="yes|yes|yes|not_right|no"/>
    <tag k="cutting" v="yes"/>
    <tag k="hgv" v="designated"/>
    <tag k="hgv:national_network" v="yes"/>
    <tag k="highway" v="motorway"/>
    <tag k="lanes" v="5"/>
    <tag k="maxspeed" v="70 mph"/>
    <tag k="name" v="North Central Expressway"/>
    <tag k="oneway" v="yes"/>
    <tag k="placement" v="left_of:2"/>
    <tag k="ref" v="US 75"/>
    <tag k="source:hgv:national_network" v="https://www.ecfr.gov/current/title-23/chapter-I/subchapter-G/part-658;https://hepgis-usdot.hub.arcgis.com/apps/usdot::national-network-conventional-combination-trucks-map"/>
    <tag k="surface" v="concrete:plates"/>
    <tag k="tiger:cfcc" v="A25:A25;A15"/>
    <tag k="tiger:county" v="Dallas, TX"/>
    <tag k="tiger:name_base" v="Central"/>
    <tag k="tiger:name_base_1" v="United States Highway 75"/>
    <tag k="tiger:name_base_2" v="Julius Schepps"/>
    <tag k="tiger:name_direction_prefix" v="N"/>
    <tag k="tiger:name_type" v="Expy"/>
    <tag k="turn:lanes" v="||||merge_to_left"/>
  </way>
  <way id="556550421">
    <nd ref="81578412"/>
    <nd ref="5368778021"/>
    <nd ref="81651820"/>
    <nd ref="5368778023"/>
    <nd ref="81928187"/>
    <tag k="NHS" v="STRAHNET"/>
    <tag k="cutting" v="yes"/>
    <tag k="hgv" v="designated"/>
    <tag k="hgv:national_network" v="yes"/>
    <tag k="highway" v="motorway"/>
    <tag k="lanes" v="5"/>
    <tag k="maxspeed" v="70 mph"/>
    <tag k="name" v="North Central Expressway"/>
    <tag k="oneway" v="yes"/>
    <tag k="placement" v="right_of:2"/>
    <tag k="ref" v="US 75"/>
    <tag k="source:hgv:national_network" v="https://www.ecfr.gov/current/title-23/chapter-I/subchapter-G/part-658;https://hepgis-usdot.hub.arcgis.com/apps/usdot::national-network-conventional-combination-trucks-map"/>
    <tag k="surface" v="concrete:plates"/>
    <tag k="tiger:cfcc" v="A25"/>
    <tag k="tiger:county" v="Dallas, TX"/>
    <tag k="tiger:name_base" v="Central"/>
    <tag k="tiger:name_base_1" v="United States Highway 75"/>
    <tag k="tiger:name_direction_prefix" v="N"/>
    <tag k="tiger:name_type" v="Expy"/>
    <tag k="turn:lanes" v="|||through;right|right"/>
  </way>
  <way id="846429766">
    <nd ref="81608997"/>
    <nd ref="81928203"/>
    <nd ref="5335868692"/>
    <nd ref="81928196"/>
    <nd ref="81928194"/>
    <nd ref="81578412"/>
    <tag k="NHS" v="STRAHNET"/>
    <tag k="cutting" v="yes"/>
    <tag k="hgv" v="designated"/>
    <tag k="hgv:national_network" v="yes"/>
    <tag k="highway" v="motorway"/>
    <tag k="lanes" v="4"/>
    <tag k="maxspeed" v="70 mph"/>
    <tag k="name" v="North Central Expressway"/>
    <tag k="oneway" v="yes"/>
    <tag k="ref" v="US 75"/>
    <tag k="source:hgv:national_network" v="https://www.ecfr.gov/current/title-23/chapter-I/subchapter-G/part-658;https://hepgis-usdot.hub.arcgis.com/apps/usdot::national-network-conventional-combination-trucks-map"/>
    <tag k="surface" v="concrete:plates"/>
    <tag k="tiger:cfcc" v="A25"/>
    <tag k="tiger:county" v="Dallas, TX"/>
    <tag k="tiger:name_base" v="Central"/>
    <tag k="tiger:name_base_1" v="United States Highway 75"/>
    <tag k="tiger:name_direction_prefix" v="N"/>
    <tag k="tiger:name_type" v="Expy"/>
  </way>
  <way id="847521088">
    <nd ref="81590959"/>
    <nd ref="81928215"/>
    <nd ref="81600829"/>
    <tag k="NHS" v="STRAHNET"/>
    <tag k="cutting" v="yes"/>
    <tag k="destination:lanes" v="none|none|none|none;Northwest Highway|Northwest Highway"/>
    <tag k="hgv" v="designated"/>
    <tag k="hgv:national_network" v="yes"/>
    <tag k="highway" v="motorway"/>
    <tag k="lanes" v="5"/>
    <tag k="maxheight" v="16'6&quot;"/>
    <tag k="maxspeed" v="70 mph"/>
    <tag k="name" v="North Central Expressway"/>
    <tag k="oneway" v="yes"/>
    <tag k="placement" v="right_of:2"/>
    <tag k="ref" v="US 75"/>
    <tag k="source:hgv:national_network" v="https://www.ecfr.gov/current/title-23/chapter-I/subchapter-G/part-658;https://hepgis-usdot.hub.arcgis.com/apps/usdot::national-network-conventional-combination-trucks-map"/>
    <tag k="surface" v="concrete"/>
    <tag k="turn:lanes" v="none|none|none|through;slight_right|slight_right"/>
  </way>
  <way id="1078111142">
    <nd ref="81655524"/>
    <nd ref="81655523"/>
    <nd ref="81655522"/>
    <nd ref="81620401"/>
    <tag k="destination:ref" v="US 75 South"/>
    <tag k="highway" v="motorway_link"/>
    <tag k="lanes" v="2"/>
    <tag k="oneway" v="yes"/>
    <tag k="tiger:cfcc" v="A63"/>
    <tag k="tiger:county" v="Dallas, TX"/>
  </way>
  <way id="1166123862">
    <nd ref="81578422"/>
    <nd ref="81578419"/>
    <tag k="bridge" v="yes"/>
    <tag k="highway" v="motorway_link"/>
    <tag k="lanes" v="1"/>
    <tag k="layer" v="1"/>
    <tag k="oneway" v="yes"/>
  </way>
  <way id="1338832234">
    <nd ref="12384188382"/>
    <nd ref="81646407"/>
    <tag k="NHS" v="STRAHNET"/>
    <tag k="change:lanes" v="yes|yes|yes|not_right|no"/>
    <tag k="cutting" v="yes"/>
    <tag k="destination:lanes" v="none|none|none|none;Mockingbird Lane;Monticello Avenue|Mockingbird Lane;Monticello Avenue"/>
    <tag k="hgv" v="designated"/>
    <tag k="hgv:national_network" v="yes"/>
    <tag k="highway" v="motorway"/>
    <tag k="lanes" v="5"/>
    <tag k="maxspeed" v="70 mph"/>
    <tag k="name" v="North Central Expressway"/>
    <tag k="oneway" v="yes"/>
    <tag k="placement" v="right_of:2"/>
    <tag k="ref" v="US 75"/>
    <tag k="source:hgv:national_network" v="https://www.ecfr.gov/current/title-23/chapter-I/subchapter-G/part-658;https://hepgis-usdot.hub.arcgis.com/apps/usdot::national-network-conventional-combination-trucks-map"/>
    <tag k="surface" v="concrete:plates"/>
    <tag k="tiger:cfcc" v="A25:A25;A15"/>
    <tag k="tiger:county" v="Dallas, TX"/>
    <tag k="tiger:name_base" v="Central"/>
    <tag k="tiger:name_base_1" v="United States Highway 75"/>
    <tag k="tiger:name_base_2" v="Julius Schepps"/>
    <tag k="tiger:name_direction_prefix" v="N"/>
    <tag k="tiger:name_type" v="Expy"/>
    <tag k="turn:lanes" v="none|none|none|through;slight_right|slight_right"/>
  </way>
  <way id="1343350963">
    <nd ref="81637787"/>
    <nd ref="12429444561"/>
    <tag k="NHS" v="STRAHNET"/>
    <tag k="change:lanes" v="yes|yes|yes|not_right|no"/>
    <tag k="cutting" v="yes"/>
    <tag k="destination:lanes" v="none|none|none|none;Mockingbird Lane;SMU Boulevard|Mockingbird Lane;SMU Boulevard"/>
    <tag k="hgv" v="designated"/>
    <tag k="hgv:national_network" v="yes"/>
    <tag k="highway" v="motorway"/>
    <tag k="lanes" v="5"/>
    <tag k="maxspeed" v="65 mph"/>
    <tag k="name" v="North Central Expressway"/>
    <tag k="oneway" v="yes"/>
    <tag k="placement" v="right_of:2"/>
    <tag k="ref" v="US 75"/>
    <tag k="source:hgv:national_network" v="https://www.ecfr.gov/current/title-23/chapter-I/subchapter-G/part-658;https://hepgis-usdot.hub.arcgis.com/apps/usdot::national-network-conventional-combination-trucks-map"/>
    <tag k="surface" v="concrete:plates"/>
    <tag k="tiger:cfcc" v="A25"/>
    <tag k="tiger:county" v="Dallas, TX"/>
    <tag k="tiger:name_base" v="Central"/>
    <tag k="tiger:name_base_1" v="United States Highway 75"/>
    <tag k="tiger:name_direction_prefix" v="N"/>
    <tag k="tiger:name_type" v="Expy"/>
    <tag k="turn:lanes" v="|||through;right|right"/>
  </way>
  <way id="1343373892">
    <nd ref="12429883462"/>
    <nd ref="81929229"/>
    <tag k="NHS" v="STRAHNET"/>
    <tag k="cutting" v="yes"/>
    <tag k="hgv" v="designated"/>
    <tag k="hgv:national_network" v="yes"/>
    <tag k="highway" v="motorway"/>
    <tag k="lanes" v="5"/>
    <tag k="maxspeed" v="70 mph"/>
    <tag k="name" v="North Central Expressway"/>
    <tag k="oneway" v="yes"/>
    <tag k="placement" v="left_of:2"/>
    <tag k="ref" v="US 75"/>
    <tag k="source:hgv:national_network" v="https://www.ecfr.gov/current/title-23/chapter-I/subchapter-G/part-658;https://hepgis-usdot.hub.arcgis.com/apps/usdot::national-network-conventional-combination-trucks-map"/>
    <tag k="surface" v="concrete:plates"/>
    <tag k="tiger:cfcc" v="A25:A25;A15"/>
    <tag k="tiger:county" v="Dallas, TX"/>
    <tag k="tiger:name_base" v="Central"/>
    <tag k="tiger:name_base_1" v="United States Highway 75"/>
    <tag k="tiger:name_base_2" v="Julius Schepps"/>
    <tag k="tiger:name_direction_prefix" v="N"/>
    <tag k="tiger:name_type" v="Expy"/>
    <tag k="turn:lanes" v="||||merge_to_left"/>
  </way>
  <way id="1352901266">
    <nd ref="81600846"/>
    <nd ref="81604380"/>
    <nd ref="81604379"/>
    <nd ref="81604378"/>
    <nd ref="81604377"/>
    <tag k="destination" v="Northwest Highway"/>
    <tag k="destination:ref" v="Loop 12 West"/>
    <tag k="highway" v="motorway_link"/>
    <tag k="lanes" v="1"/>
    <tag k="oneway" v="yes"/>
  </way>
  <way id="1352901267">
    <nd ref="81604377"/>
    <nd ref="81604373"/>
    <tag k="destination" v="Northwest Highway"/>
    <tag k="destination:ref" v="Loop 12 West"/>
    <tag k="highway" v="motorway_link"/>
    <tag k="lanes" v="1"/>
    <tag k="maxheight" v="16'3&quot;"/>
    <tag k="oneway" v="yes"/>
  </way>
  <way id="1353789746">
    <nd ref="5335868691"/>
    <nd ref="81609000"/>
    <tag k="highway" v="motorway_link"/>
    <tag k="lanes" v="1"/>
    <tag k="maxheight" v="16'3&quot;"/>
    <tag k="oneway" v="yes"/>
  </way>
  <way id="1504680588">
    <nd ref="13620665721"/>
    <nd ref="13620665715"/>
    <nd ref="81929303"/>
    <nd ref="13620665714"/>
    <nd ref="13620665720"/>
    <nd ref="13620665713"/>
    <nd ref="5335868739"/>
    <nd ref="13620665712"/>
    <nd ref="81929305"/>
    <nd ref="13620665711"/>
    <nd ref="13620665719"/>
    <nd ref="13620665710"/>
    <nd ref="81929307"/>
    <nd ref="13620665709"/>
    <nd ref="13620665718"/>
    <nd ref="13620665708"/>
    <nd ref="81928785"/>
    <nd ref="13620665707"/>
    <nd ref="13620665717"/>
    <nd ref="81929309"/>
    <nd ref="81929311"/>
    <nd ref="13620665704"/>
    <nd ref="5335868751"/>
    <nd ref="13620665703"/>
    <nd ref="13620665706"/>
    <nd ref="13620665702"/>
    <nd ref="81929314"/>
    <nd ref="13620665701"/>
    <nd ref="81566005"/>
    <nd ref="13620665700"/>
    <nd ref="13620665705"/>
    <nd ref="13620665699"/>
    <nd ref="13620665698"/>
    <nd ref="4250072589"/>
    <nd ref="13620665697"/>
    <nd ref="13620665696"/>
    <nd ref="13620665695"/>
    <nd ref="13620665694"/>
    <nd ref="81627859"/>
    <tag k="NHS" v="STRAHNET"/>
    <tag k="cutting" v="yes"/>
    <tag k="hgv" v="designated"/>
    <tag k="hgv:national_network" v="yes"/>
    <tag k="highway" v="motorway"/>
    <tag k="lanes" v="4"/>
    <tag k="maxspeed" v="65 mph"/>
    <tag k="name" v="North Central Expressway"/>
    <tag k="oneway" v="yes"/>
    <tag k="placement" v="left_of:2"/>
    <tag k="ref" v="US 75"/>
    <tag k="source:hgv:national_network" v="https://www.ecfr.gov/current/title-23/chapter-I/subchapter-G/part-658;https://hepgis-usdot.hub.arcgis.com/apps/usdot::national-network-conventional-combination-trucks-map"/>
    <tag k="surface" v="concrete:plates"/>
    <tag k="tiger:cfcc" v="A25:A25;A15"/>
    <tag k="tiger:county" v="Dallas, TX"/>
    <tag k="tiger:name_base" v="Central"/>
    <tag k="tiger:name_base_1" v="United States Highway 75"/>
    <tag k="tiger:name_base_2" v="Julius Schepps"/>
    <tag k="tiger:name_direction_prefix" v="N"/>
    <tag k="tiger:name_type" v="Expy"/>
  </way>
  <way id="1504680589">
    <nd ref="13768237600"/>
    <nd ref="81928256"/>
    <nd ref="81618141"/>
    <nd ref="315095862"/>
    <nd ref="315096243"/>
    <nd ref="81618126"/>
    <tag k="NHS" v="STRAHNET"/>
    <tag k="cutting" v="yes"/>
    <tag k="hgv" v="designated"/>
    <tag k="hgv:national_network" v="yes"/>
    <tag k="highway" v="motorway"/>
    <tag k="lanes" v="4"/>
    <tag k="maxheight" v="16'11&quot;"/>
    <tag k="maxspeed" v="70 mph"/>
    <tag k="name" v="North Central Expressway"/>
    <tag k="oneway" v="yes"/>
    <tag k="ref" v="US 75"/>
    <tag k="source:hgv:national_network" v="https://www.ecfr.gov/current/title-23/chapter-I/subchapter-G/part-658;https://hepgis-usdot.hub.arcgis.com/apps/usdot::national-network-conventional-combination-trucks-map"/>
    <tag k="surface" v="concrete:plates"/>
    <tag k="tiger:cfcc" v="A25"/>
    <tag k="tiger:county" v="Dallas, TX"/>
    <tag k="tiger:name_base" v="Central"/>
    <tag k="tiger:name_base_1" v="United States Highway 75"/>
    <tag k="tiger:name_direction_prefix" v="N"/>
    <tag k="tiger:name_type" v="Expy"/>
  </way>

</osm>
